{"type": "FeatureCollection", "features": [{"type": "Feature", "properties": {"role": "treatment_block", "acres": 1816}, "geometry": {"type": "Polygon", "coordinates": [[[-120.63635019157081, 39.76289940730961], [-120.63635005355914, 39.76281177030219], [-120.63634975753405, 39.76262377328621], [-120.63634959252008, 39.76251905827737], [-120.636349462509, 39.76243629927031], [-120.63634925749169, 39.762306347259276], [-120.63634895046552, 39.76211080424265], [-120.63634888946042, 39.762072315239415], [-120.63634829541009, 39.761694938207356], [-120.6363482694079, 39.761678830205994], [-120.6363476433548, 39.76128125017219], [-120.63634764135463, 39.76127971017208], [-120.63634608522277, 39.76029177608814], [-120.63634465510157, 39.75938354301105], [-120.63634442108172, 39.75923460999834], [-120.6363438400327, 39.75886738796717], [-120.63634161784537, 39.75746353384795], [-120.63633995970568, 39.75641631675898], [-120.63633964367905, 39.75621691374202], [-120.63633956067213, 39.75616461973758], [-120.63633859959114, 39.755557619686016], [-120.63633787352974, 39.75509744464692], [-120.6363378505279, 39.755083572645745], [-120.63633776252037, 39.755027329640946], [-120.6363374254918, 39.75481329962276], [-120.63633543432327, 39.753549797515454], [-120.63633538231886, 39.75351661051264], [-120.63633538131884, 39.753516506512604], [-120.63633525630834, 39.75343766950591], [-120.63633518030187, 39.75338914050183], [-120.63633486827554, 39.753191713484995], [-120.63633455124884, 39.752991383468], [-120.63633452824676, 39.75297617246669], [-120.6363344172374, 39.75290595046075], [-120.63633358716727, 39.752380196416055], [-120.63633279910063, 39.75188027037362], [-120.63631968330607, 39.75188022826332], [-120.6363196750398, 39.75187497517345], [-120.63627442330566, 39.75187483221022], [-120.63187420734612, 39.75186080385656], [-120.6315849543162, 39.751859876322044], [-120.62715107578796, 39.75184555996685], [-120.6268502587454, 39.7518445827058], [-120.62237623989704, 39.75182983124165], [-120.62211284307597, 39.75182895688632], [-120.61768844626557, 39.75181418677147], [-120.61738855943389, 39.75181318036893], [-120.61738858501354, 39.751773837866835], [-120.61738862000668, 39.751721908862415], [-120.61738868899229, 39.75161418985326], [-120.61738911490673, 39.75097053079837], [-120.61738932886354, 39.7506454917707], [-120.61738944883919, 39.75046280975513], [-120.61738947583366, 39.75042094775158], [-120.61738996173501, 39.749679305688346], [-120.61739006871335, 39.749516472674465], [-120.61739074857562, 39.74848015458616], [-120.61739085555416, 39.748318910572394], [-120.61739096553156, 39.748148901557926], [-120.6173778368249, 39.74814886119508], [-120.61737784028136, 39.748143610071196], [-120.61728974878963, 39.74814334001494], [-120.61324183591482, 39.74813089601453], [-120.61264136874125, 39.748129038082325], [-120.60818888340857, 39.74811537226424], [-120.60791805236222, 39.748114535652746], [-120.60791807698769, 39.748099073304715], [-120.6079181149845, 39.74807522930268], [-120.60791913089989, 39.74743801224827], [-120.60791924689028, 39.7473653932421], [-120.60791930688528, 39.74732786723888], [-120.60792012981686, 39.746812371194885], [-120.60792234063273, 39.7454254890765], [-120.60792388350426, 39.744457531993895], [-120.60792417448, 39.74427503597834], [-120.60792429546993, 39.7441992289719], [-120.6079242954699, 39.74419913197185], [-120.60792467443834, 39.743961175951554], [-120.6079250134101, 39.74374849893342], [-120.6079250134101, 39.74374840093336], [-120.60792610031937, 39.74306505687506], [-120.60792651028518, 39.742807687853094], [-120.60792673626642, 39.74266573384095], [-120.60792681226005, 39.74261788683693], [-120.60792714523237, 39.74240919881907], [-120.60792768518722, 39.7420694217901], [-120.60792769718621, 39.74206189478942], [-120.60792971301811, 39.740795271681314], [-120.60793113390032, 39.739907327605515], [-120.60793372868517, 39.7382858544671], [-120.60793557253221, 39.73713302036871], [-120.60793761436247, 39.73585349325945], [-120.60794050412191, 39.73404035510468], [-120.60794050412191, 39.73404026910466], [-120.60794119606433, 39.73360603706757], [-120.60794126205887, 39.73356506706408], [-120.60794126205886, 39.733565031064096], [-120.60794141204636, 39.733470760056036], [-120.60818953408682, 39.73347191403649], [-120.60818978608685, 39.73347191603645], [-120.60962528832069, 39.73347858192327], [-120.60998207237874, 39.73348024589519], [-120.61067525849172, 39.73348345984055], [-120.61070498649657, 39.733483597838166], [-120.61099507254379, 39.73348494081531], [-120.61103545955035, 39.73348512781213], [-120.6110446425519, 39.73348516981142], [-120.61244912178063, 39.733491662700715], [-120.61254691479658, 39.733492114693], [-120.61261439580754, 39.733492426687675], [-120.61261445180757, 39.733492427687665], [-120.61267341381718, 39.733492700683016], [-120.61267356080373, 39.73339128867437], [-120.61267390777172, 39.733150299653786], [-120.61267509166318, 39.73233155358391], [-120.61267572060552, 39.73189703454682], [-120.61267661552326, 39.73127695649388], [-120.61267760643227, 39.730590829435336], [-120.6126776714263, 39.73054575043147], [-120.61267799639641, 39.73032058241226], [-120.61267838636059, 39.7300502533892], [-120.61267845135461, 39.73000525638532], [-120.61267853534684, 39.72994725138038], [-120.61267866233527, 39.729859640372894], [-120.6126655330547, 39.72985958103082], [-120.61266554060893, 39.72985434617264], [-120.6124333144299, 39.729853296058884], [-120.61220493663352, 39.729852265980206], [-120.60835312868015, 39.72983483408957], [-120.60815986962153, 39.72983395669164], [-120.60794920369625, 39.72983299943211], [-120.60794953954336, 39.72967516273175], [-120.60794959354004, 39.72965029772963], [-120.60794962053839, 39.72963763272856], [-120.60795122343917, 39.72888857366458], [-120.60795135643095, 39.728826897659275], [-120.60795305232587, 39.72803364759154], [-120.60795482521614, 39.727205370520736], [-120.60795599414362, 39.72665812447396], [-120.6079560941375, 39.72661182847002], [-120.60795614713417, 39.72658676446789], [-120.60795614713417, 39.72658667346787], [-120.60795642411703, 39.726457361456816], [-120.60795696108372, 39.72620572143532], [-120.60795712207376, 39.72613065242891], [-120.60795712207373, 39.726130536428876], [-120.60795713607295, 39.72612430942838], [-120.60795729806284, 39.72604829042187], [-120.60795753204837, 39.725939135412546], [-120.60795771403711, 39.725854068405276], [-120.6079582940013, 39.725583825382195], [-120.60795832299947, 39.72557013238099], [-120.6079584229933, 39.72552343137704], [-120.60795882796819, 39.725333983360834], [-120.60795968991488, 39.724931192326416], [-120.60796002889391, 39.724773042312904], [-120.60796023388123, 39.72467732730474], [-120.6079610058335, 39.72431674427394], [-120.6079615248014, 39.72407450125324], [-120.60796164779379, 39.724017090248324], [-120.60796277372425, 39.72349185120344], [-120.60796413464003, 39.72285587714906], [-120.60796433762748, 39.72276097414096], [-120.60796474060258, 39.72257322012494], [-120.60796554555293, 39.722198541092915], [-120.6079657665393, 39.72209575808416], [-120.60796582053595, 39.72207049708197], [-120.60796654849118, 39.72173217805301], [-120.60796666148428, 39.721679876048576], [-120.60796686047199, 39.721587282040645], [-120.60796705945974, 39.72149469103273], [-120.60796725844747, 39.72140209802484], [-120.60796756542864, 39.72125977301266], [-120.60796765742295, 39.721216913008995], [-120.6079677584167, 39.721169743005], [-120.60796872735703, 39.72071919896646], [-120.60797022526476, 39.720022136906906], [-120.60797041725294, 39.71993277389924], [-120.60797047124973, 39.71990847589719], [-120.60797066023805, 39.719820439889645], [-120.60797163217816, 39.719367980851004], [-120.60797221314238, 39.719097738827905], [-120.60797228213809, 39.71906540282513], [-120.60797255012162, 39.71894070881446], [-120.60837760418752, 39.71894233878256], [-120.61016311247816, 39.71894951864177], [-120.61201572277976, 39.718956932495786], [-120.61222671281416, 39.71895777647916], [-120.61269433089025, 39.718959649442276], [-120.61434236315847, 39.71896626831241], [-120.61434258915857, 39.71896626731233], [-120.61502613826981, 39.718969007258465], [-120.6151708662934, 39.718969596247085], [-120.61568066937635, 39.718971632206895], [-120.61569083138114, 39.7189957442081], [-120.61583363944249, 39.719283098221325], [-120.61592803748653, 39.71949956023233], [-120.61603995853734, 39.71974498524441], [-120.61612658157438, 39.719918383252285], [-120.61622073461935, 39.7201419902639], [-120.61629352565183, 39.72029772727143], [-120.61649194670612, 39.72046439026994], [-120.61680594877853, 39.720625960258836], [-120.61717671987293, 39.72088385125147], [-120.61758450597344, 39.721142500241214], [-120.61780968903432, 39.721325891239026], [-120.61804282209397, 39.7214904972346], [-120.61832368916477, 39.72168019922853], [-120.61840807018218, 39.72170860822431], [-120.61841152518686, 39.72173950322663], [-120.61841255818824, 39.721748737227344], [-120.61858801723012, 39.72184957222204], [-120.61897804532482, 39.72208640021138], [-120.61927701839882, 39.72227845320406], [-120.61962151948318, 39.72249289319504], [-120.61996479657212, 39.722743060189224], [-120.61992552055827, 39.72268717018758], [-120.61968027647214, 39.72233818417724], [-120.61994541156346, 39.72270180818723], [-120.62009380461457, 39.722905322192844], [-120.62051564175981, 39.723483843208726], [-120.6205346507664, 39.72350991420947], [-120.62062373079706, 39.72363207921283], [-120.62066068280974, 39.7236827572142], [-120.62077535484923, 39.72384001821855], [-120.62081486486285, 39.72389420322], [-120.62097792491896, 39.724117824226155], [-120.62106076794751, 39.72423143322928], [-120.62165524315226, 39.72504667925168], [-120.62186103522309, 39.72532889225944], [-120.62226119736091, 39.72587764627453], [-120.62232022538122, 39.72595859127673], [-120.62238819040459, 39.7260517932793], [-120.62246125342976, 39.72615198328208], [-120.62276811453548, 39.72657278029362], [-120.62281208255058, 39.72663307229529], [-120.62290779758355, 39.7267643252989], [-120.62295474059974, 39.72682869630062], [-120.6233344517305, 39.727349378314905], [-120.62346168477428, 39.727523847319695], [-120.6238618249121, 39.728072533334775], [-120.62387107691526, 39.72808521833512], [-120.62398224395355, 39.72823765333932], [-120.62406194898104, 39.7283469453423], [-120.62417247901908, 39.72849850334649], [-120.6242620170499, 39.72862127934982], [-120.62460107216666, 39.72908618536262], [-120.62546259846339, 39.73026746639499], [-120.62549069347301, 39.73030598739606], [-120.62549115647322, 39.730306623396054], [-120.62647503481205, 39.73165560843304], [-120.62669840486079, 39.731750008423404], [-120.62604227279009, 39.73201842349824], [-120.62558308872521, 39.732091033540826], [-120.6249249936323, 39.732195094601835], [-120.6233929874466, 39.73266749076342], [-120.62288138243193, 39.73318139784776], [-120.6228530645614, 39.73419045993595], [-120.62284612457005, 39.73426373394279], [-120.62279492363362, 39.734804229992875], [-120.62259410166132, 39.735257765047386], [-120.62190577256108, 39.735343768109296], [-120.62178407154262, 39.73535349511973], [-120.6217541625381, 39.73535588612232], [-120.62105134243153, 39.73541206118278], [-120.62092623641091, 39.735409496192496], [-120.62074745642869, 39.735761252236614], [-120.61992127751074, 39.73738673944058], [-120.61974058464871, 39.738645178562145], [-120.61971281466991, 39.73883857758082], [-120.61959641075882, 39.73964923865906], [-120.61834787079364, 39.74143431291014], [-120.61830785879475, 39.74149151791814], [-120.61822170378704, 39.74153897992902], [-120.61834450380611, 39.74153206991872], [-120.6184126798166, 39.741528233912966], [-120.61864007285419, 39.741532901895326], [-120.61880147787123, 39.741464445876744], [-120.61896425688845, 39.74139540585794], [-120.61903844989143, 39.7413274248463], [-120.61911569489455, 39.74125664883411], [-120.61915178289603, 39.74122358282842], [-120.61956866193663, 39.74102042177808], [-120.61973699295606, 39.7409608897597], [-120.61984553796856, 39.74092250174782], [-120.6198702469729, 39.74092479074606], [-120.62011387601538, 39.74094736172867], [-120.62027310104318, 39.740962113717316], [-120.6203345400539, 39.740967804712895], [-120.62034499005574, 39.740968773712204], [-120.62042713407159, 39.740988012707284], [-120.6205206750897, 39.74100991970177], [-120.62057672710054, 39.74102304769843], [-120.62066116511691, 39.741042823693405], [-120.6208221340869, 39.74062096964474], [-120.62093984009235, 39.74051870162668], [-120.62098866405479, 39.74017646859367], [-120.62088595300554, 39.73993123658094], [-120.6207827499581, 39.739700297569435], [-120.62062745588871, 39.73936817955344], [-120.6207086258646, 39.7390880065231], [-120.62080881086156, 39.73894285450286], [-120.62103635587822, 39.73879020447178], [-120.62135829793127, 39.73879642844682], [-120.621526485959, 39.73879968043375], [-120.62171312798972, 39.73880328841926], [-120.6217286289948, 39.73882265541967], [-120.62183959701308, 39.73882480041106], [-120.6226400021161, 39.73862284733043], [-120.62328146823329, 39.73872191128802], [-120.62392858830583, 39.738477997216], [-120.62415778633935, 39.7384503961955], [-120.62447646436759, 39.73827362815517], [-120.6249737554424, 39.73822973911204], [-120.62512657447628, 39.73829819610577], [-120.62525634249207, 39.73825848409204], [-120.62542672949783, 39.73809408506457], [-120.62584226953625, 39.73787601101303], [-120.62594927453934, 39.73776860899544], [-120.62606676854371, 39.7376581699767], [-120.62615104353286, 39.73747384995435], [-120.6264431245816, 39.73748393393206], [-120.62671868363152, 39.737523417913614], [-120.62690147766905, 39.73758248790411], [-120.62697416368395, 39.737605976900355], [-120.6271825617163, 39.737595043882905], [-120.62740893877586, 39.73776701287963], [-120.62722557876197, 39.73788636290429], [-120.62753926184735, 39.73814564490152], [-120.62771882590656, 39.7383719919066], [-120.6277723149242, 39.73843941990811], [-120.62783174494804, 39.73854603291244], [-120.62820959200707, 39.73852948388108], [-120.62836067702496, 39.738479350864885], [-120.62848521003963, 39.73843802685145], [-120.62854159004412, 39.73840312984402], [-120.62876359906187, 39.73826571681473], [-120.6290527350848, 39.73808553377648], [-120.62928812110424, 39.737944706745836], [-120.62958823714673, 39.737898159718064], [-120.62965688015646, 39.737887513711755], [-120.62994706421615, 39.737982442696854], [-120.62996574921866, 39.73797858069501], [-120.63035494526181, 39.737828394651395], [-120.63043449027063, 39.73779769964246], [-120.63046954027402, 39.7377803276382], [-120.63082707830846, 39.73760311259476], [-120.63114742931529, 39.73726403454054], [-120.63115721927893, 39.73697820551541], [-120.63104148320332, 39.73655084848815], [-120.63103388919838, 39.73652280648638], [-120.63125607018078, 39.736119782434464], [-120.63125631318076, 39.73611934143441], [-120.63128077617887, 39.73607496642869], [-120.63184372922429, 39.73572994735469], [-120.63186416822596, 39.73571742035202], [-120.63226846325652, 39.735454391297594], [-120.63229044425819, 39.7354400902946], [-120.63230265325952, 39.73543526729325], [-120.63249171828026, 39.735360581271905], [-120.63278643031256, 39.73524416123864], [-120.6329789513337, 39.73516810921693], [-120.6334762054012, 39.73506930716909], [-120.63352291840754, 39.73506002516458], [-120.63356714041772, 39.73508280316303], [-120.63360407542628, 39.7351018281617], [-120.63393248050194, 39.73527098315011], [-120.63398547651491, 39.73530339414868], [-120.63417440056085, 39.735418931143556], [-120.6342904725622, 39.7352873041231], [-120.63428113555794, 39.7352665121221], [-120.6342732745543, 39.73524900612122], [-120.63431686455911, 39.73523171711633], [-120.6343169555591, 39.73523168111629], [-120.63432275156255, 39.735250697117465], [-120.6343516595629, 39.73521791611238], [-120.63446346556417, 39.7350911250927], [-120.6348241416146, 39.73503051305899], [-120.63530348468005, 39.73493811701314], [-120.6353292776836, 39.734933144010675], [-120.63621894280502, 39.73476164692556], [-120.6363512868112, 39.734646530905266], [-120.63636728181197, 39.73463261790285], [-120.63692348388103, 39.73447384984524], [-120.6369734818961, 39.7345262768457], [-120.63713211494391, 39.73469262084732], [-120.63696076998222, 39.73518968390324], [-120.63691811902116, 39.73553443493597], [-120.6368080670711, 39.73604466398812], [-120.63676337811762, 39.736448962026046], [-120.63672438714289, 39.736686527049386], [-120.63655629016903, 39.737088312096915], [-120.63648807418313, 39.73727760911842], [-120.63615028718137, 39.737675936179116], [-120.63603294119842, 39.73794765721154], [-120.63569229820729, 39.738429350279524], [-120.63549700321468, 39.73872331732004], [-120.63511333120374, 39.739108789383266], [-120.63495173520563, 39.73932001741409], [-120.63474869524184, 39.73984026647443], [-120.63464187727976, 39.74025521551822], [-120.63453953930089, 39.74053915855052], [-120.63443475633117, 39.74089455958911], [-120.63428572834623, 39.74118946862601], [-120.63423988039699, 39.74162711166691], [-120.6341396924246, 39.74195680970289], [-120.63417241744453, 39.74206672970966], [-120.63422518447666, 39.74224397072057], [-120.6342263754774, 39.7422479717208], [-120.63453244651998, 39.74219484769205], [-120.63466016253452, 39.74214876867798], [-120.63483722155532, 39.7420892596589], [-120.63503736158113, 39.74203926363874], [-120.63522504760728, 39.74200706162112], [-120.63541218963576, 39.741992864605095], [-120.63545991764335, 39.74199209260127], [-120.63535876762823, 39.74200161961008], [-120.63507250458763, 39.74204540863652], [-120.63498336057815, 39.74208246464675], [-120.63466014154356, 39.742216821683776], [-120.63452194552804, 39.74226834769912], [-120.63452828654553, 39.74239199670912], [-120.63461588357896, 39.742536604714516], [-120.63465265461477, 39.742760987730684], [-120.6343989226234, 39.743135523782726], [-120.63415980061872, 39.74339160482345], [-120.6340132106325, 39.743673785859094], [-120.6340119346328, 39.74367785885954], [-120.63391246265887, 39.74399524289441], [-120.63378788966855, 39.74421971092341], [-120.63372362666914, 39.74430248593555], [-120.63382846172142, 39.74456773094986], [-120.63384002372688, 39.74459482695124], [-120.63386891574059, 39.74466253895469], [-120.63393923975752, 39.744703872952634], [-120.63424539878908, 39.7445679589168], [-120.63453517481976, 39.74444552388343], [-120.6347080618299, 39.74431074585823], [-120.63487929885532, 39.744293650843225], [-120.63501861684792, 39.744067660812895], [-120.63510706084006, 39.743900975791746], [-120.6352657068692, 39.74392681778131], [-120.63535672888004, 39.74389697977158], [-120.63565141390113, 39.743696473731134], [-120.63579880393142, 39.74374457872358], [-120.63590311793915, 39.743675453709386], [-120.63610368195607, 39.74355819968353], [-120.63624085098539, 39.74361113867717], [-120.63675505204532, 39.74343497462144], [-120.63687027705778, 39.74338821860829], [-120.6368809350601, 39.743392607607845], [-120.63701245709883, 39.743523311608506], [-120.63701979710092, 39.74353042260853], [-120.63635623803538, 39.74384633268806], [-120.63587053696824, 39.743933752734], [-120.6358138579733, 39.7440409817476], [-120.63555783394676, 39.74415370077751], [-120.63553514194776, 39.74418875578225], [-120.63538259495449, 39.74442512481452], [-120.63522979694616, 39.744548484837104], [-120.63519628793982, 39.744542198839234], [-120.63488784789602, 39.744588873867635], [-120.63477523887849, 39.74459419087702], [-120.63463822786939, 39.74469259489627], [-120.63452073686672, 39.744816003916064], [-120.63456630488234, 39.7448777679177], [-120.63456928888469, 39.74489183291869], [-120.63456784988583, 39.74490233191969], [-120.63457830990075, 39.74500168792732], [-120.63456781890858, 39.745073355934245], [-120.63455145690831, 39.74509134493709], [-120.63454254090996, 39.74511469093975], [-120.63453526291093, 39.74513090994174], [-120.63452541491225, 39.745152704944395], [-120.6345147149125, 39.74516738394649], [-120.63450536491303, 39.74518299994855], [-120.63449348691267, 39.74519479795048], [-120.63447235090973, 39.74519827895249], [-120.63444218391233, 39.745254509959636], [-120.6342538758867, 39.745291355977706], [-120.63416464089946, 39.74549604800222], [-120.63409535891029, 39.745661852021826], [-120.63410151894442, 39.745911039042554], [-120.63406388195276, 39.746019491054724], [-120.63405537296752, 39.74614067506572], [-120.63406440198922, 39.74629321507799], [-120.63408275900366, 39.74637895308382], [-120.63383297099419, 39.7466124141235], [-120.6336615289722, 39.746656202140834], [-120.63339061194063, 39.746748771170196], [-120.63324698793502, 39.746882115192946], [-120.63300002192588, 39.74711460123232], [-120.6328826839168, 39.74718936124796], [-120.63276646991082, 39.74728593726542], [-120.63277760092907, 39.74740969927507], [-120.63277049794786, 39.74755922528832], [-120.63277080096688, 39.747701840300444], [-120.63282972101186, 39.74796786031845], [-120.63272843700828, 39.74806442933469], [-120.63267526000243, 39.74808544434065], [-120.63251338199764, 39.74824654136726], [-120.63253727302009, 39.748385989377205], [-120.63201734598077, 39.74872451344727], [-120.631919344965, 39.74872513245508], [-120.63163578997256, 39.74912755651184], [-120.63163271400241, 39.749356050531524], [-120.63178875807027, 39.749675258546276], [-120.63187679909568, 39.74975923854649], [-120.6321631781151, 39.749556393506474], [-120.63222876911472, 39.74947323949422], [-120.63235481912727, 39.749414056479154], [-120.6324335201361, 39.749384401470394], [-120.63282575519764, 39.749368871437994], [-120.63317383722756, 39.749169399393395], [-120.63322779720876, 39.74896228937153], [-120.63327335421172, 39.748929355365064], [-120.63337565422113, 39.748875104352344], [-120.63351407923467, 39.74880830133571], [-120.63353702422376, 39.74869828732448], [-120.63363752421483, 39.74850895730045], [-120.63378137023325, 39.748471912285886], [-120.63376280821983, 39.74839358928067], [-120.63381990321992, 39.74832472427029], [-120.63383636420842, 39.74821839225996], [-120.63389400620295, 39.74810704224591], [-120.63387691120025, 39.74810740524726], [-120.63405962222384, 39.74806219122893], [-120.6341726112528, 39.748142048226754], [-120.63425426427438, 39.74820473322568], [-120.63419277028008, 39.74832225824049], [-120.6341626632931, 39.7484570062544], [-120.63399516027616, 39.7485341002742], [-120.63397687029754, 39.74871659929118], [-120.63395151532146, 39.74892761731115], [-120.63387878833312, 39.74910359533192], [-120.63363250131614, 39.74927597036609], [-120.63341617730073, 39.74942389639585], [-120.63327364528115, 39.74945072640947], [-120.63319673528136, 39.749545923423625], [-120.63303618527151, 39.74966760044674], [-120.63275181222951, 39.7496986874719], [-120.63247797619539, 39.749775513500154], [-120.63232481619909, 39.74999029453059], [-120.63217964819354, 39.75012570355362], [-120.63194937019725, 39.750433609598076], [-120.63176427818696, 39.750582495625466], [-120.63176133320015, 39.750684982634404], [-120.63168065419585, 39.750751036646434], [-120.6315824541844, 39.750784470657045], [-120.63162997221346, 39.75094514266695], [-120.63172898226252, 39.7511926726802], [-120.6317277072652, 39.75121485668216], [-120.6317220952773, 39.75131241669094], [-120.63178943329972, 39.751398711692914], [-120.63178803932344, 39.75157834470833], [-120.63300678852566, 39.75161292261462], [-120.63625475206467, 39.751705013364855], [-120.63636039607776, 39.75167498935392], [-120.63642580909084, 39.751693356350295], [-120.6365666361165, 39.751714686340975], [-120.63687993516248, 39.75167873031304], [-120.63701178718462, 39.75168401130307], [-120.63715720020505, 39.75166052228953], [-120.63731841223304, 39.751674370277904], [-120.63746529325908, 39.7516911492677], [-120.63783254930793, 39.75161046923171], [-120.63814851534309, 39.75148981619638], [-120.6383206703662, 39.751453901179666], [-120.63839847837812, 39.751448427173045], [-120.6385322643929, 39.751396668158], [-120.63886735942853, 39.751255867119454], [-120.63899666444914, 39.75125354910902], [-120.63910577045263, 39.75114664209124], [-120.63917618743942, 39.750961748069955], [-120.63930433345479, 39.750921158056315], [-120.63941916847814, 39.750956328050194], [-120.63952501649754, 39.750973433043285], [-120.63966280251515, 39.75093798902936], [-120.63980198853929, 39.75094966001931], [-120.63985248654988, 39.75096784201686], [-120.64008443758016, 39.75091279299375], [-120.64039434360637, 39.750732275953816], [-120.6405625456102, 39.75055605492549], [-120.64076654163813, 39.75051713690598], [-120.64087393964645, 39.75044880089166], [-120.64092818064717, 39.7503882688822], [-120.6409453176307, 39.75024372386853], [-120.64097408962323, 39.75015244585854], [-120.64096568659767, 39.74997046784372], [-120.64102685260013, 39.7499147148341], [-120.64116772160257, 39.74976151080987], [-120.64128183561327, 39.74970290579586], [-120.64142891860607, 39.74946965076433], [-120.64179431162435, 39.74916162070915], [-120.64188856762979, 39.74908777169541], [-120.64200992263744, 39.74899737567808], [-120.641809950571, 39.74874180667221], [-120.64169462854072, 39.74865476467392], [-120.64177703652892, 39.74846556165131], [-120.64167905647372, 39.74817028063398], [-120.64170054045849, 39.748029601620274], [-120.64173101746069, 39.74800878561612], [-120.64173023645917, 39.74799844261527], [-120.64173877146003, 39.74799449661426], [-120.6417436264595, 39.74798477361304], [-120.64173428845677, 39.74797537461301], [-120.64172965645523, 39.747969620612864], [-120.64171965445185, 39.74795633661256], [-120.64171021244965, 39.74795139861287], [-120.64169094244608, 39.74794818661415], [-120.6417940144578, 39.74791065960276], [-120.64186671945643, 39.74781140058854], [-120.64203154546311, 39.747661047562694], [-120.64218650447253, 39.74754305454036], [-120.6421751694598, 39.74746132553433], [-120.64209353940595, 39.74715621551483], [-120.64210154540694, 39.74715367851399], [-120.6423099863831, 39.74672058246062], [-120.64244568439631, 39.74665434644421], [-120.64241784637434, 39.74652306143524], [-120.64266604739679, 39.746389526404215], [-120.64267803538733, 39.74630375939594], [-120.64261808435872, 39.746161921388634], [-120.64269037135739, 39.74606376537458], [-120.64285534538655, 39.74608200036302], [-120.64294884740032, 39.7460713033547], [-120.64302141241096, 39.74606300134822], [-120.64310200441143, 39.74596821233376], [-120.64327994743796, 39.74595105131824], [-120.64343048644612, 39.74582870429588], [-120.64329394741563, 39.74576576030131], [-120.64326739440963, 39.74575351930241], [-120.64326601540898, 39.74575008230226], [-120.64324081238739, 39.74561871329303], [-120.64316860436412, 39.74553184529139], [-120.64313569735354, 39.74549225629064], [-120.64309945934185, 39.74544866128978], [-120.64308613633754, 39.74543263428947], [-120.64302465332456, 39.74540953629239], [-120.64309269633246, 39.745386236285], [-120.64307006532233, 39.74533750328268], [-120.64334072036092, 39.745298223257876], [-120.64351836938198, 39.74523968323881], [-120.64357941238923, 39.74521956723223], [-120.6442372114659, 39.7449943091609], [-120.64425599446805, 39.7449878771589], [-120.64425024147421, 39.745040992163844], [-120.64436018848347, 39.744976615149646], [-120.64439006548598, 39.74495912114581], [-120.64448503449158, 39.74488554113204], [-120.644593925498, 39.74480117111621], [-120.64476182250768, 39.74466942109169], [-120.64491765351659, 39.74454646506885], [-120.64505063452053, 39.74441399804707], [-120.64523260752294, 39.74421052801531], [-120.64531816052148, 39.744095218998744], [-120.64540383052, 39.74397975298212], [-120.64545127751948, 39.743917696973085], [-120.64558699951783, 39.74374018394718], [-120.64580911950912, 39.74340428590099], [-120.64591058850522, 39.74325084087994], [-120.64611605149716, 39.7429401258372], [-120.64662224147155, 39.742130555728195], [-120.6467945774637, 39.74186177069165], [-120.64693017745759, 39.741650281662935], [-120.64743344844229, 39.74092181956102], [-120.64769118843441, 39.74054864650888], [-120.64821621242864, 39.73986561040914], [-120.64861634343468, 39.73942327833975], [-120.64913922443702, 39.73880325524554], [-120.64950246044413, 39.73841422018371], [-120.6499744884548, 39.737919301104185], [-120.65010005045887, 39.737796750083795], [-120.6501219704596, 39.737775356080256], [-120.65014105446608, 39.737800697080885], [-120.65024326946507, 39.73766871106155], [-120.65031503846436, 39.737576040047976], [-120.65041146347353, 39.73752719203617], [-120.65055442348088, 39.73740824101473], [-120.6506598084863, 39.7373205539989], [-120.65081256749419, 39.73719361197598], [-120.65128418851849, 39.73680169290528], [-120.65149995653128, 39.736634847873965], [-120.65163294553403, 39.736493282851406], [-120.65181353154223, 39.736334904823636], [-120.65206687055041, 39.73608775378251], [-120.65225993855705, 39.73590248775144], [-120.65257366056683, 39.73559354170028], [-120.65265936856541, 39.73547814868368], [-120.65275755856241, 39.7353359576638], [-120.65290499955671, 39.73511375963317], [-120.65301764454533, 39.73489075560532], [-120.65311861353206, 39.73466763457831], [-120.65320751851795, 39.734453217553025], [-120.65328339950767, 39.734283512532606], [-120.65330532550597, 39.73424416652753], [-120.65335785050193, 39.73414990751531], [-120.65339638749938, 39.73408339350663], [-120.65345060749571, 39.73398981049435], [-120.65348166449363, 39.733936205487325], [-120.65350095649377, 39.733913501483855], [-120.65363969749455, 39.73375022245897], [-120.65365896249511, 39.7337311164558], [-120.65380886449967, 39.733582450431314], [-120.65386974450257, 39.733530459422035], [-120.65395309850665, 39.733459275409395], [-120.65401035250815, 39.73340069539985], [-120.65407046850969, 39.73333918638987], [-120.65407397950977, 39.7333355943893], [-120.6542322795095, 39.73314060836018], [-120.65431774650804, 39.73302521634357], [-120.65473637948959, 39.732376024255146], [-120.65537984845069, 39.731298913112546], [-120.6556788984245, 39.73073739104108], [-120.6560514613961, 39.730069268954686], [-120.65620774338502, 39.72979552391906], [-120.65633585940579, 39.72979560590889], [-120.65711410653641, 39.72982947985011], [-120.65711472253655, 39.72982950585007], [-120.65734746957561, 39.729839637832484], [-120.65806935869672, 39.72987106177794], [-120.65809458970094, 39.729872159776036], [-120.6584028937527, 39.72988557675273], [-120.65868212179953, 39.729897728731665], [-120.65989631900332, 39.72995055663997], [-120.65996121401417, 39.72995337363506], [-120.66016657804866, 39.729962306619555], [-120.66063960812804, 39.72998288558381], [-120.6612917902375, 39.730011256534524], [-120.66129194223751, 39.73001133853457], [-120.66162404531518, 39.730190713523456], [-120.6624804885154, 39.73065329749498], [-120.66243014151648, 39.7307230175049], [-120.6621558965064, 39.73098126854859], [-120.66171691946963, 39.73123995760535], [-120.66125549542907, 39.731497114663796], [-120.66098574145386, 39.73201234472902], [-120.66051411644084, 39.732488996806914], [-120.66050098745349, 39.732600487817415], [-120.66049639745793, 39.732639464821126], [-120.66044263750989, 39.73309596786423], [-120.66068873360177, 39.73348706987797], [-120.66071585062103, 39.73359895988537], [-120.66078626267107, 39.73388947990447], [-120.66071099667587, 39.734017421921315], [-120.66057007768494, 39.734256961952845], [-120.66037481769267, 39.73455335699355], [-120.66040216973522, 39.734839939015764], [-120.66037253977407, 39.73516827804599], [-120.6603623868123, 39.73546840607237], [-120.65979472971135, 39.7354006371116], [-120.65944449564905, 39.73535882313576], [-120.65961806169041, 39.73545841113048], [-120.65978669372336, 39.73550085812074], [-120.65983113573247, 39.73551526311845], [-120.65987189674172, 39.73553511011687], [-120.65990786275081, 39.73555986211614], [-120.65993805275959, 39.735588841116225], [-120.65996164276771, 39.73562125811712], [-120.65997799077498, 39.73565622411878], [-120.65998664978126, 39.73569278812125], [-120.65998738178635, 39.73572995512431], [-120.65998016879007, 39.73576670612805], [-120.65996520679235, 39.73580204013219], [-120.65994290479313, 39.735834993136784], [-120.65991386979233, 39.73586466714163], [-120.65987889579004, 39.73589024914654], [-120.65983893778633, 39.735911043151496], [-120.65979508278129, 39.735926482156266], [-120.65974852977504, 39.73593614416081], [-120.65970054876777, 39.73593976516487], [-120.65965245175965, 39.73593724716849], [-120.65960554675088, 39.735928658171495], [-120.65942504471562, 39.73588322318192], [-120.65939154670906, 39.735874791183846], [-120.65936370070332, 39.73586579918529], [-120.65934795970016, 39.735860715186085], [-120.65930788869106, 39.73584140218763], [-120.65923695767412, 39.735800703189845], [-120.6591000426415, 39.73572214619396], [-120.65844793653547, 39.735719297245396], [-120.65814730351252, 39.73591294728572], [-120.6579354164756, 39.73589344530088], [-120.65750375642692, 39.73605347534867], [-120.6570025573803, 39.73631363441056], [-120.65686396639272, 39.736575912443826], [-120.65679656638605, 39.73660810745194], [-120.65642056633953, 39.73671620149089], [-120.65619337232296, 39.73686886752191], [-120.65547714624063, 39.73712258860024], [-120.65535424322714, 39.737170509614046], [-120.6551543782082, 39.737271875638534], [-120.6551222212049, 39.73728601764228], [-120.65508800120077, 39.737296906645916], [-120.65505227019601, 39.737304369649365], [-120.65492139017749, 39.737324928661494], [-120.65469392514542, 39.73736065668257], [-120.65465417813947, 39.73736443568604], [-120.65461413513292, 39.73736398068922], [-120.6545745501259, 39.73735930069194], [-120.65450326112175, 39.737414923702296], [-120.65439670611754, 39.73751334671912], [-120.65439340011743, 39.73751634671962], [-120.65438804911714, 39.73752098572043], [-120.65428891511223, 39.73760458473544], [-120.6542813071118, 39.73761076373655], [-120.6542674581109, 39.73762090173851], [-120.65425277910978, 39.73763032274049], [-120.65423733310841, 39.73763898074245], [-120.6542265161074, 39.73764437074379], [-120.65418720010346, 39.73766302174844], [-120.65418491510327, 39.73766410874877], [-120.65418277010305, 39.73766512574899], [-120.65403517908845, 39.73773513976666], [-120.65402991708795, 39.73773757576727], [-120.65402536708744, 39.73773959076781], [-120.65384657406881, 39.73781715278859], [-120.65373577105974, 39.737884330803084], [-120.65364522005251, 39.737940307815], [-120.65364191105225, 39.73794232381544], [-120.65362646505095, 39.73795098281741], [-120.65361031604932, 39.73795884381932], [-120.65360681104899, 39.73796040381977], [-120.65353801204184, 39.73799053682779], [-120.65352736104069, 39.73799492582897], [-120.65345476003036, 39.7380057468357], [-120.65330961299696, 39.73793154884085], [-120.6532167309756, 39.73788406784419], [-120.65320963197335, 39.737875854844056], [-120.65305865296, 39.73795929086313], [-120.65272251994237, 39.7382362919133], [-120.65233141491817, 39.73853098596937], [-120.65186843087945, 39.738804099029295], [-120.65156862885863, 39.73901272007082], [-120.65129114584329, 39.73923565211177], [-120.65125018883597, 39.739230476114635], [-120.65123228886786, 39.73949210013827], [-120.65122845087467, 39.73954820314335], [-120.65120423690827, 39.739830196169265], [-120.65097717490089, 39.740051586206064], [-120.65094007089627, 39.740061938209884], [-120.65063732185841, 39.74014639924111], [-120.65023666181497, 39.74030777528659], [-120.64995224179364, 39.74049410432496], [-120.64978367879593, 39.74071667735728], [-120.64965592281693, 39.74103047039409], [-120.64941561480575, 39.74123940743094], [-120.64921870879601, 39.74140579046073], [-120.64900434279828, 39.74168393050136], [-120.64899858381985, 39.74185330451621], [-120.6489766618448, 39.742067547536195], [-120.64882387084519, 39.74225654056438], [-120.64855598581904, 39.74238670159669], [-120.6482904037843, 39.74244911662306], [-120.64805368975584, 39.74252341364813], [-120.6478870667582, 39.742744075680115], [-120.64769164476607, 39.74304169072094], [-120.64714533071404, 39.74331613178759], [-120.64713076371268, 39.74332344978935], [-120.6469084177106, 39.743579129828724], [-120.64678434573612, 39.74392179086771], [-120.6467560097419, 39.74400004987663], [-120.64673889974546, 39.74404729988204], [-120.64621038170964, 39.744422144955784], [-120.64603514274792, 39.74492342501236], [-120.6458486567297, 39.745013823034824], [-120.6458430787657, 39.745291258058856], [-120.6458276668652, 39.74605769112531], [-120.64579447107947, 39.74770836026832], [-120.6457853391384, 39.74816240330765], [-120.6457841311664, 39.748222447357804], [-120.64577697395931, 39.748222454022624], [-120.64578830171503, 39.75167342091206], [-120.64578906168977, 39.75190494978858], [-120.64579298283597, 39.75309840969719], [-120.64579644404476, 39.75415162198205], [-120.64580032207185, 39.75533175288875], [-120.64580116199666, 39.75558744207669], [-120.64580561494552, 39.756939794179814], [-120.64580851021569, 39.75781891318943], [-120.64581285177344, 39.75913737730385], [-120.64581328925298, 39.75926996192688], [-120.64582538686491, 39.76295245267481], [-120.64164241588038, 39.762932122014035], [-120.64108121766114, 39.76292938405184], [-120.63709888988691, 39.762910031869396], [-120.6363502024245, 39.762906378772925], [-120.63635019157081, 39.76289940730961]], [[-120.62540464546458, 39.730347159406406], [-120.62539653746379, 39.730351341407385], [-120.62541249446534, 39.73034348140546], [-120.62540464546458, 39.730347159406406]], [[-120.61645702717458, 39.74660477250046], [-120.61632128813778, 39.74649362250175], [-120.61632108113768, 39.74649341950174], [-120.61626473012224, 39.74644594550218], [-120.6161701750963, 39.746366286502884], [-120.6160428820614, 39.74625904450384], [-120.61604140606119, 39.74625925550396], [-120.61594720300046, 39.74591784648236], [-120.61603868298194, 39.745666782453725], [-120.61604101297984, 39.74564831545195], [-120.61606514495833, 39.74545700043374], [-120.61607972595753, 39.745433420430565], [-120.61610282195628, 39.745396071425546], [-120.6161032549319, 39.745212126409896], [-120.61610344092142, 39.745133221403144], [-120.61613595890465, 39.744967447386394], [-120.61620809590275, 39.744865011371985], [-120.616258587896, 39.74475256535841], [-120.61623103387979, 39.74466454735311], [-120.61618518086743, 39.74462744235354], [-120.61603273384917, 39.74467597236977], [-120.6158901288338, 39.74473444738606], [-120.61578152082345, 39.74478925939932], [-120.61565371481336, 39.7448695404163], [-120.6155389998062, 39.74495556643273], [-120.61543261780163, 39.745050553449275], [-120.61532968880003, 39.74516454746714], [-120.61526530780118, 39.745251704479664], [-120.61518523180715, 39.745393833498106], [-120.61513101681511, 39.745520176513196], [-120.61506468582792, 39.7456970775335], [-120.61506265882907, 39.745708215534606], [-120.61505008283291, 39.74575268553941], [-120.61497177084864, 39.74596609556376], [-120.614963644852, 39.746001254567396], [-120.6149423198562, 39.746059350574065], [-120.61492189186089, 39.746119137580784], [-120.61490085086498, 39.746175751587295], [-120.61488008986939, 39.74623393659389], [-120.6148601098739, 39.74629222660042], [-120.61483477387733, 39.74634901160729], [-120.61481474588177, 39.74640672461378], [-120.61479603488644, 39.74646461562017], [-120.6147746918904, 39.746520782626675], [-120.61475304689449, 39.74657766363322], [-120.61472862189797, 39.74663367163993], [-120.61470202890116, 39.746689921646826], [-120.61467464390422, 39.74674648065384], [-120.61464350690652, 39.74680155566097], [-120.61461133190828, 39.746854113668], [-120.61457609090954, 39.746906420675224], [-120.61453759390986, 39.746956212682555], [-120.61449928591021, 39.7470056626898], [-120.61445515290933, 39.74705245069731], [-120.61441110190842, 39.74709967670482], [-120.61436296090663, 39.747144782712425], [-120.61431188990419, 39.747188857720246], [-120.6142605599017, 39.74723232972803], [-120.61420536089821, 39.74727385173595], [-120.61415198289424, 39.747308869743165], [-120.61409657789082, 39.747350736751116], [-120.61404116888646, 39.7473859067585], [-120.61398165188139, 39.74742027876616], [-120.61391790487525, 39.7474516627739], [-120.6138545578688, 39.74748065678138], [-120.61378935686187, 39.74750794678887], [-120.61371992285412, 39.74753458379665], [-120.61365355084672, 39.747559810804056], [-120.61358384383874, 39.74758444681166], [-120.61351494183039, 39.74760583681897], [-120.61344349382132, 39.74762497482622], [-120.6133735518122, 39.74764166983319], [-120.61330315880286, 39.747657228840126], [-120.61323295179339, 39.7476716358469], [-120.61316016678313, 39.74768334785367], [-120.61308704277225, 39.747691055860116], [-120.61301655976223, 39.747701840866654], [-120.61293864975023, 39.747706246873236], [-120.61286765274093, 39.74772307288026], [-120.61279743473114, 39.747734752886835], [-120.61272513672058, 39.74774405489337], [-120.61265382571052, 39.747755199899956], [-120.61259236670149, 39.74776235290544], [-120.61256394270606, 39.74783125491359], [-120.61256352670603, 39.747831652913646], [-120.61255344472373, 39.747976705926774], [-120.61267598475128, 39.748034741922], [-120.61351693088379, 39.748004959852835], [-120.61351692488381, 39.748004927852826], [-120.61384729693722, 39.7480038148265], [-120.61407803997417, 39.747999788807846], [-120.61425708599806, 39.747961292790436], [-120.61426367799878, 39.74795829478965], [-120.61444677101824, 39.74788147276854], [-120.6148643850396, 39.74753261270575], [-120.61511109806506, 39.74742290967681], [-120.61543122609648, 39.747268635638335], [-120.61563267911565, 39.747167276613695], [-120.6156420441133, 39.74713808361047], [-120.61564450911062, 39.74711499060834], [-120.61565744511158, 39.747106709606584], [-120.61567620511374, 39.74709976960451], [-120.61569352811557, 39.747092597602546], [-120.61570758811739, 39.747089046601104], [-120.61571527811765, 39.747081424599855], [-120.61573615312105, 39.74708143659819], [-120.61575722912382, 39.747076563596146], [-120.61576977712426, 39.74706475459413], [-120.61593248514423, 39.74701643257712], [-120.61594087714501, 39.74701221057607], [-120.61597878914992, 39.74700268157224], [-120.61608622316311, 39.746970775561], [-120.61633977718581, 39.74683238652914], [-120.61639418318539, 39.74676267651889], [-120.61649387218456, 39.746634942500066], [-120.61645702717458, 39.74660477250046]]]}}, {"type": "Feature", "properties": {"role": "aoi", "buffer_m": 300}, "geometry": {"type": "Polygon", "coordinates": [[[-120.66417652565747, 39.73318925371577], [-120.66422579219658, 39.7333924851444], [-120.66425411195061, 39.73352836030761], [-120.66427343355252, 39.73366517262399], [-120.66428370681382, 39.73380256709992], [-120.66428490502369, 39.73394018722901], [-120.66427702501895, 39.73407767591731], [-120.66426008719256, 39.73421467640979], [-120.66423413544153, 39.734350833216105], [-120.66419923705345, 39.73448579303312], [-120.66415548253238, 39.734619205661645], [-120.66410298536464, 39.73475072491528], [-120.66404188172469, 39.73488000951875], [-120.66397233012235, 39.73500672399364], [-120.6638970686044, 39.735134668192245], [-120.66388089075032, 39.73516217019216], [-120.66386868976234, 39.73529744852332], [-120.66386053415302, 39.73553889397455], [-120.66385077113335, 39.735682047365316], [-120.66383118722389, 39.73582459943585], [-120.66380183749945, 39.735966148855574], [-120.66376280453031, 39.73610629711429], [-120.66371419815032, 39.73624464964425], [-120.66365615514837, 39.736380816930996], [-120.66358883888388, 39.736514415610266], [-120.66351243882744, 39.73664506954731], [-120.66342717002776, 39.736772410896016], [-120.66333327250688, 39.7368960811348], [-120.66323101058468, 39.737015732076095], [-120.66312067213514, 39.737131026846846], [-120.66300256777608, 39.73724164083717], [-120.66287702999485, 39.737347262614485], [-120.66276237722002, 39.737434003373245], [-120.66273514709033, 39.73746349066667], [-120.66270611253557, 39.73749316537795], [-120.6625856168971, 39.7376095045079], [-120.66245699888293, 39.73772053950369], [-120.66232064946976, 39.73782593280738], [-120.66228567529471, 39.73785151552718], [-120.66214211045053, 39.7379508801822], [-120.66199167461502, 39.73804398929586], [-120.66183482447974, 39.73813056019412], [-120.66179486570331, 39.73815135484492], [-120.66163212147497, 39.738231104313314], [-120.66146393609004, 39.73830381437553], [-120.66129081987053, 39.73836926440389], [-120.66124696357633, 39.73838470391557], [-120.66106951335736, 39.738442673620554], [-120.66088819912333, 39.738493014879005], [-120.66070357060762, 39.73853557505941], [-120.66065701593547, 39.73854523737695], [-120.6604696625646, 39.73857988253625], [-120.66028012344006, 39.73860651505816], [-120.66008897305973, 39.73862505422064], [-120.66004099019005, 39.738628675309954], [-120.65984884673878, 39.73863906357123], [-120.65965625399545, 39.738641274094775], [-120.6594637954806, 39.73863530018511], [-120.65941569661524, 39.738632782036994], [-120.65922392659087, 39.738618638966635], [-120.65916398186619, 39.7386116305471], [-120.65914877065005, 39.738622303005236], [-120.65900667019551, 39.738711965995655], [-120.65885867623894, 39.73879575417116], [-120.65870519582, 39.73887343707269], [-120.6586377943256, 39.73890563309869], [-120.6584885985489, 39.73897302430598], [-120.65833527414486, 39.73903464541834], [-120.65819507027147, 39.73908436215001], [-120.65817451018157, 39.739095945373045], [-120.65800634965548, 39.73917974773723], [-120.65783225799574, 39.739255990603496], [-120.65765280472701, 39.739324424544726], [-120.65708299321254, 39.7395262799067], [-120.65707577871893, 39.73952993892783], [-120.6568865032722, 39.73961943311406], [-120.65685434548396, 39.73963357557123], [-120.65665814034594, 39.7397136117134], [-120.65645575867671, 39.739783886227926], [-120.65642153760737, 39.739794775590674], [-120.65626528843988, 39.73984007995859], [-120.65613506114025, 39.73990894847052], [-120.65612424391459, 39.73991433864084], [-120.65605861269252, 39.739946252477765], [-120.65602115100293, 39.739964023986786], [-120.65602071972951, 39.739964229150324], [-120.6560169809852, 39.73996600523297], [-120.65586724163393, 39.74003703849949], [-120.65583487310792, 39.74005220779472], [-120.65582961098643, 39.74005464387278], [-120.65580662196076, 39.740065054374405], [-120.6556981266391, 39.74012847672774], [-120.65568268037991, 39.740137135993805], [-120.65549294506239, 39.740236344072585], [-120.65547679571357, 39.74024420532213], [-120.65535815673915, 39.740299453605374], [-120.65535465165436, 39.74030101365576], [-120.6553336238765, 39.74031029802845], [-120.65526482318246, 39.74034043200318], [-120.65518586203433, 39.740373985829336], [-120.65517521075567, 39.740378374972515], [-120.65501907824368, 39.74043889703802], [-120.65485922755882, 39.74049332781743], [-120.6546960571311, 39.74054153164011], [-120.65465104926756, 39.740552874648785], [-120.65462010906381, 39.74057481966613], [-120.65455034409747, 39.740618612537645], [-120.65452873209946, 39.740674022284], [-120.65446958230055, 39.74080198332281], [-120.65440217436353, 39.74092748686517], [-120.6543266787218, 39.741050215508295], [-120.65424328626588, 39.741169858865725], [-120.65415220786099, 39.74128611435232], [-120.65405367381409, 39.74139868794968], [-120.65394793329159, 39.74150729494992], [-120.65372087403424, 39.74172869039605], [-120.65360797136788, 39.741833251580864], [-120.6534883896155, 39.74193328975434], [-120.65336243234643, 39.742028550938464], [-120.65323041932011, 39.742118793282195], [-120.65309268567452, 39.74220378767572], [-120.65294958107526, 39.74228331833218], [-120.65280146882766, 39.74235718333571], [-120.65265336689141, 39.742423128257535], [-120.65260605100866, 39.74248384028378], [-120.65250279810449, 39.74260178213644], [-120.65239164125116, 39.74271536174435], [-120.65236547211433, 39.74273936025755], [-120.65232843707452, 39.74284466096971], [-120.65227012616494, 39.74298124862441], [-120.65220248279549, 39.74311524738003], [-120.65212569859058, 39.74324627753205], [-120.6520399910802, 39.74337396778598], [-120.65194560308392, 39.743497956309476], [-120.65179281665547, 39.743686953351954], [-120.65169626084125, 39.74379998428192], [-120.65159249055742, 39.74390913885488], [-120.65148176640842, 39.74401414291093], [-120.65136436646837, 39.74411473271377], [-120.65124058558268, 39.74421065561333], [-120.6511107346276, 39.74430167068048], [-120.65097513972947, 39.74438754931228], [-120.6508341414456, 39.74446807580634], [-120.65068809390878, 39.74454304790276], [-120.65053339710113, 39.744618213483626], [-120.65052659283327, 39.7446258860973], [-120.65041505537083, 39.74473849555653], [-120.6502960198801, 39.74484643371609], [-120.65016981405519, 39.74494940340268], [-120.65003678533614, 39.745047121121026], [-120.64996317842997, 39.745095773689776], [-120.64992882001417, 39.74515873218986], [-120.64985213209098, 39.745281540685674], [-120.64976751629557, 39.74540120638548], [-120.64967518806405, 39.74551742455856], [-120.64957538247607, 39.745629899252044], [-120.64946835365622, 39.7457383440446], [-120.64935437412724, 39.74584248277601], [-120.64933188316212, 39.745861045212024], [-120.64932709870115, 39.74609957247734], [-120.64929398637527, 39.74775024574509], [-120.64928487736974, 39.748204291047394], [-120.64928411843341, 39.74824211028662], [-120.64928843305437, 39.75166868652804], [-120.64928919753643, 39.751898048391794], [-120.6492931791368, 39.75309150405203], [-120.64929669371246, 39.75414471675154], [-120.64930063154155, 39.75532484835024], [-120.64930148439988, 39.75558053057296], [-120.64930600585595, 39.756932875328964], [-120.6493089456761, 39.75781199352848], [-120.64931335403548, 39.759130451602374], [-120.64931379821036, 39.75926302890078], [-120.64932608259092, 39.76294555244312], [-120.64932170520079, 39.76308774998845], [-120.6493076368086, 39.763229572663604], [-120.64928391634957, 39.76337062736627], [-120.64925060951363, 39.76351052312043], [-120.64920780856382, 39.763648872160076], [-120.64915563208132, 39.76378529100426], [-120.64909422463737, 39.76391940152003], [-120.64902375639288, 39.76405083197072], [-120.64894442262755, 39.76417921804646], [-120.64885644319888, 39.764304203874154], [-120.64876006193327, 39.76442544300408], [-120.64865554595046, 39.76454259937041], [-120.6485431849235, 39.76465534822289], [-120.648423290276, 39.76476337702722], [-120.64829619431907, 39.76486638633164], [-120.64816224933044, 39.76496409059708], [-120.64802182657787, 39.76505621898895], [-120.6478753152902, 39.76514251612798], [-120.64772312157814, 39.76522274279842], [-120.64756566730871, 39.76529667661131], [-120.64740338893546, 39.76536411262098], [-120.64723673628852, 39.76542486389354], [-120.64706617132727, 39.76547876202505], [-120.64689216685963, 39.76552565760851], [-120.6467152052309, 39.7655654206482], [-120.64653577698643, 39.76559794092011], [-120.6463543795112, 39.76562312827751], [-120.6461715156508, 39.76564091290104], [-120.64598769231692, 39.76565124549216], [-120.64580341908162, 39.76565409740993], [-120.64162028669843, 39.7656337611618], [-120.64105916171651, 39.76563102291222], [-120.63707676626315, 39.76561166581789], [-120.63632805214887, 39.76560801172918], [-120.63614574413087, 39.76560345400086], [-120.63596399124759, 39.76559157416572], [-120.63578328696552, 39.765572404479684], [-120.63560412190284, 39.76554599699089], [-120.6354269824971, 39.765512423398185], [-120.63525234968395, 39.76547177485654], [-120.63508069759109, 39.76542416172938], [-120.63491249225056, 39.76536971328877], [-120.63474819033323, 39.76530857736445], [-120.63458823790836, 39.765240919942165], [-120.63443306923271, 39.765166924713036], [-120.63428310557094, 39.76508679257451], [-120.63413875405189, 39.765000741084904], [-120.63400040656317, 39.76490900387244], [-120.63386843868709, 39.76481183000082], [-120.633743208681, 39.76470948329289], [-120.63362505650475, 39.764602241614114], [-120.6335143028978, 39.76449039611802], [-120.63341124850862, 39.764374250455624], [-120.63331617307882, 39.764254119950834], [-120.63322933468382, 39.76413033074417], [-120.63315096903256, 39.764003218907234], [-120.63308128882818, 39.7638731295302], [-120.63302048319076, 39.763740415784724], [-120.63296871714455, 39.76360543796507], [-120.63292613117035, 39.763468562509914], [-120.63289284082472, 39.76333016100736], [-120.63286893642702, 39.763190609186196], [-120.63285448281445, 39.76305028589569], [-120.63284951916702, 39.76290957207721], [-120.63284950869483, 39.76290261927341], [-120.63284937515421, 39.76281500107836], [-120.63284908866052, 39.762627005255375], [-120.63284892895605, 39.76252229122443], [-120.63284880313509, 39.76243952902029], [-120.63284860471562, 39.76230958398745], [-120.63284830760092, 39.76211404076673], [-120.63284824857057, 39.7620755672661], [-120.63284767367801, 39.761698209532845], [-120.63284764855746, 39.76168214320306], [-120.63284704252952, 39.761284480927415], [-120.63284553455009, 39.76029500740744], [-120.63284415046044, 39.759386774135585], [-120.63284392399457, 39.75923784496765], [-120.63284336157471, 39.75887063471859], [-120.63284121053601, 39.75746678272272], [-120.63283960546818, 39.75641956798766], [-120.63283929955075, 39.75622016800659], [-120.63283921919819, 39.75616787689449], [-120.63283828886348, 39.75556086895563], [-120.63283758622971, 39.75510076591467], [-120.63283756406521, 39.7550869775452], [-120.63283747861905, 39.75503054998964], [-120.63283715245366, 39.75481653191103], [-120.63283676980352, 39.75456559778829], [-120.6318596635104, 39.754562467121595], [-120.63157040496166, 39.75456153923525], [-120.62713634476144, 39.754547217166866], [-120.62683551858647, 39.754546239527976], [-120.62236119848227, 39.75453148189115], [-120.62209778241971, 39.75453060716651], [-120.61767322797093, 39.75451583138945], [-120.6173733330179, 39.754514824611164], [-120.61719061570822, 39.75451052636338], [-120.61700843837919, 39.754498870759896], [-120.61682729798085, 39.75447988959698], [-120.61664768863349, 39.75445363465384], [-120.61647010027922, 39.754420177551204], [-120.61629501734512, 39.75437960955585], [-120.61612291742145, 39.75433204133171], [-120.61595426995837, 39.754277602637664], [-120.61578953498504, 39.75421644197359], [-120.61562916185463, 39.7541487261751], [-120.61547358801806, 39.75407463995831], [-120.61532323783074, 39.75399438541575], [-120.61517852139471, 39.753908181465015], [-120.61503983343998, 39.753816263251345], [-120.61490755224771, 39.75371888150606], [-120.61478203861837, 39.75361630186247], [-120.61466363488763, 39.75350880413102], [-120.61455266399275, 39.75339668153598], [-120.61444942859184, 39.75328023991532], [-120.61435421023853, 39.75315979688636], [-120.61426726861431, 39.75303568097926], [-120.61418884082057, 39.75290823074067], [-120.61411914073224, 39.75277779381022], [-120.61405835841487, 39.752644725972075], [-120.6140066596067, 39.75250939018444], [-120.61396418526711, 39.75237215558935], [-120.61393105119268, 39.752233396505865], [-120.61390734770198, 39.752093491408814], [-120.61389313938977, 39.75195282189664], [-120.61388846495153, 39.751811771650324], [-120.6138884925242, 39.75177242920838], [-120.613888530158, 39.75172048564335], [-120.6138886045764, 39.75161280159083], [-120.61388906312594, 39.75096910195691], [-120.61388915849585, 39.75083458439646], [-120.61322781542164, 39.75083254088506], [-120.61262743101885, 39.75083068251014], [-120.60817487734901, 39.75081701129009], [-120.60790403828453, 39.750816174337785], [-120.60772120452557, 39.75081191948554], [-120.60753890849385, 39.75080029709088], [-120.60735764814477, 39.750781338902975], [-120.60717791860347, 39.75075509670923], [-120.60700021081182, 39.750721642193696], [-120.60682501018711, 39.75068106674125], [-120.60665279529556, 39.75063348118778], [-120.60648403654477, 39.750579015517374], [-120.60631919489842, 39.75051781850712], [-120.60615872061678, 39.750450057320606], [-120.60600305202668, 39.75037591705102], [-120.60585261432382, 39.750295600215544], [-120.60570781841137, 39.75020932620196], [-120.6055690597774, 39.75011733066914], [-120.60543671741446, 39.750019864903244], [-120.6053111527846, 39.749917195131125], [-120.60519270883191, 39.74980960179288], [-120.60508170904606, 39.74969737877577], [-120.60497845657882, 39.74958083261125], [-120.60488323341623, 39.74946028163745], [-120.60479629960876, 39.7493360551296], [-120.60471789256138, 39.74920849240042], [-120.60464822638535, 39.749077941873225], [-120.60458749131408, 39.74894476013001], [-120.60453585318382, 39.748809310937524], [-120.60449345298133, 39.748671964253475], [-120.60446040645937, 39.74853309521598], [-120.60443680382112, 39.74839308311893], [-120.60442270947433, 39.7482523103759], [-120.60441816185623, 39.74811116147564], [-120.6044181872648, 39.74809569915178], [-120.60441822647253, 39.74807185317295], [-120.60441927466351, 39.7474346350351], [-120.6044193943427, 39.747362009429054], [-120.60441945623947, 39.747324482700584], [-120.60442030527132, 39.74680899134133], [-120.60442258631839, 39.745422112809], [-120.60442417820828, 39.74445415564469], [-120.60442447842821, 39.744271657994936], [-120.60442460310097, 39.7441959457153], [-120.60442460325613, 39.74419575745006], [-120.60442499427376, 39.74395780180164], [-120.60442534385777, 39.74374522044781], [-120.60442534401433, 39.743745030254395], [-120.60442646552438, 39.743061687264046], [-120.60442688853067, 39.74280431313629], [-120.60442712169065, 39.74266236469272], [-120.60442720010073, 39.74261452151294], [-120.60442754365387, 39.74240582499528], [-120.60442810080175, 39.74206605483656], [-120.60443019315241, 39.740791900473106], [-120.60443165902095, 39.73990393794705], [-120.60443433589404, 39.738282465175395], [-120.60443623809361, 39.7371296352393], [-120.6044383446835, 39.73585011382949], [-120.60444132607752, 39.73403705991927], [-120.60444132621637, 39.7340368920951], [-120.60444204013532, 39.73360266073675], [-120.604442108139, 39.73356172933845], [-120.60444210819752, 39.73356165943867], [-120.60444226295603, 39.73346738857796], [-120.60444732054242, 39.7333255679199], [-120.60446201367381, 39.733184147796145], [-120.6044863017729, 39.73304351819443], [-120.60452011780392, 39.732904066920234], [-120.60456336845823, 39.7327661785273], [-120.60461593441214, 39.732630233257424], [-120.6046776706566, 39.73249660599181], [-120.60474840689757, 39.732365665217586], [-120.60482794802624, 39.732237772011686], [-120.60491607465734, 39.732113279045365], [-120.60501254373473, 39.73199252961185], [-120.60511708920184, 39.731875856679814], [-120.60522942273573, 39.7317635819754], [-120.6053492345424, 39.73165601509528], [-120.60535866319348, 39.731648398318264], [-120.60534042870883, 39.73163345099429], [-120.60522227670589, 39.731525860024924], [-120.60511155924529, 39.73141365405961], [-120.60500857814142, 39.7312971390092], [-120.6049136141124, 39.73117663253087], [-120.60482692601526, 39.73105246316185], [-120.60474875014049, 39.73092496942364], [-120.6046792995682, 39.73079449889891], [-120.6046187635878, 39.73066140728379], [-120.60456730718224, 39.73052605741801], [-120.60452507057896, 39.730388818295694], [-120.60449216886799, 39.73025006405918], [-120.60446869168891, 39.730110172979046], [-120.60445470298691, 39.729969526422785], [-120.60445024083936, 39.729828507815185], [-120.6044505846727, 39.72967067136404], [-120.60445066766452, 39.72963309668439], [-120.60445230842427, 39.72888405754993], [-120.60445244457175, 39.72882236557983], [-120.60445418055977, 39.72802913558597], [-120.60445599536052, 39.72720085720966], [-120.60445719196477, 39.72665361611868], [-120.604457294289, 39.72660732523928], [-120.60445734843887, 39.726582225622884], [-120.6044576321053, 39.72645284860805], [-120.60445818178414, 39.72620121729289], [-120.60445834635874, 39.72612624543321], [-120.60445834660558, 39.72612601965547], [-120.60445852675545, 39.72604377377838], [-120.60445876627178, 39.725934614917314], [-120.60445895255381, 39.725849552652264], [-120.60445954615574, 39.72557932518893], [-120.60445957578274, 39.72556566165755], [-120.60445967823789, 39.72551891537672], [-120.60446009278867, 39.725329471207786], [-120.60446097512255, 39.72492667557045], [-120.60446132211504, 39.72476851973303], [-120.6044615319389, 39.72467280725376], [-120.60446232212955, 39.72431222554632], [-120.60446285335902, 39.72406997928482], [-120.60446297925586, 39.72401256818774], [-120.60446413175337, 39.723487330460614], [-120.60446552483076, 39.72285136054176], [-120.60446573261522, 39.72275645916536], [-120.60446614512131, 39.72256868977721], [-120.60446696903327, 39.72219400653487], [-120.60446719519835, 39.722091232734115], [-120.60446725044416, 39.72206598480801], [-120.60446799557631, 39.72172763653017], [-120.60446811122941, 39.72167532793477], [-120.60446831487444, 39.72158274583161], [-120.60446851854584, 39.721490154671784], [-120.60446872221678, 39.72139756175485], [-120.60446903640866, 39.72125523132094], [-120.60446913053458, 39.72121238781399], [-120.60446923390202, 39.72116522337119], [-120.60447022566933, 39.720714661658334], [-120.60447175882895, 39.72001760140132], [-120.60447195533573, 39.71992823888846], [-120.60447220403572, 39.719815889688235], [-120.60447319882407, 39.71936344668529], [-120.6044737934272, 39.71909321762479], [-120.60447386402173, 39.71906089837206], [-120.6044741383819, 39.71893617226416], [-120.60447926624434, 39.71879446477399], [-120.60449401223094, 39.718653160082575], [-120.60451833568303, 39.71851264724473], [-120.60455216957324, 39.71837331313282], [-120.60459542069106, 39.718235541371506], [-120.6046479698998, 39.718099711281695], [-120.6047096724653, 39.71796619683633], [-120.60478035845495, 39.71783536563069], [-120.60485983320599, 39.71770757787058], [-120.60494787786212, 39.717583185380754], [-120.60504424997617, 39.717462530636354], [-120.60514868417826, 39.717345945820256], [-120.60526089290651, 39.71723375190861], [-120.60538056719919, 39.71712625778738], [-120.60550737754538, 39.71702375940208], [-120.60564097479234, 39.71692653894325], [-120.60578099110693, 39.71683486406967], [-120.60592704098819, 39.71674898717165], [-120.60607872232875, 39.7166691446764], [-120.60623561752166, 39.71659555639732], [-120.60639729461008, 39.716528424928875], [-120.6065633084761, 39.71646793508915], [-120.6067332020661, 39.716414253411074], [-120.60690650764857, 39.716367527684135], [-120.60708274810165, 39.71632788654759], [-120.60726143822612, 39.7162954391364], [-120.60744208608084, 39.71627027478095], [-120.60762419433662, 39.71625246276112], [-120.60780726164488, 39.71624205211555], [-120.60799078401746, 39.716239071506756], [-120.60839582227058, 39.71624070093837], [-120.61018128200521, 39.716247878519034], [-120.61203381192809, 39.71625528989123], [-120.61224482617159, 39.71625613372542], [-120.61271246287156, 39.71625800621807], [-120.6143603081522, 39.716264622419], [-120.61436075760868, 39.71626462231429], [-120.615044280035, 39.71626736135764], [-120.61518913013401, 39.71626795066523], [-120.61569874753894, 39.71626998529], [-120.6158816304199, 39.71627441036298], [-120.61606396362949, 39.71628621378176], [-120.61624524842685, 39.71630536326191], [-120.61642498893784, 39.71633180642501], [-120.61660269351066, 39.71636547094191], [-120.61677787606034, 39.716406264730495], [-120.61695005739794, 39.716454076207455], [-120.61711876654098, 39.716508774593365], [-120.61728354200127, 39.7165702102703], [-120.61744393304706, 39.71663821519091], [-120.61759950093561, 39.71671260333804], [-120.6177498201132, 39.71679317123321], [-120.617894479379, 39.71687969849322], [-120.61803308300969, 39.71697194843267], [-120.61816525184197, 39.7170696687113], [-120.61829062430974, 39.717172592023935], [-120.61840885743314, 39.71728043683164], [-120.618519627757, 39.717392908131565], [-120.61862263223567, 39.71750969826373], [-120.61871758906241, 39.71763048775255], [-120.61880423844042, 39.7177549461804], [-120.61888234329399, 39.71788273309148], [-120.61895168991732, 39.71801349892289], [-120.61910467302474, 39.718324961046086], [-120.61914908172987, 39.71842077778747], [-120.61923580679986, 39.71861962298176], [-120.6192761823049, 39.71870815079102], [-120.61945880571513, 39.71883517169695], [-120.61980497726705, 39.71905473491759], [-120.61996867186124, 39.719165314778834], [-120.62012315334033, 39.71928353561878], [-120.62026247708437, 39.71939699862808], [-120.62036907327715, 39.71947225993943], [-120.62042829146434, 39.71950288154202], [-120.62057160087443, 39.71958547843983], [-120.62070925821111, 39.71967362227941], [-120.62084090382872, 39.719767082790526], [-120.62088685920261, 39.71980322397847], [-120.62098017765814, 39.71982990808525], [-120.62114755893155, 39.71988558548595], [-120.62131095881016, 39.71994791841911], [-120.62146993390162, 39.720016737747585], [-120.62162405281623, 39.72009185673297], [-120.62177289733724, 39.72017307154209], [-120.6219160635557, 39.72026016180004], [-120.62205316296625, 39.72035289118783], [-120.62218382352134, 39.720451008083614], [-120.62230769064077, 39.7205542462452], [-120.62242442817406, 39.72066232553236], [-120.62253371931259, 39.7207749526668], [-120.62263526744958, 39.72089182202781], [-120.6227287969852, 39.72101261648144], [-120.62299394341156, 39.72137623350401], [-120.62314234216502, 39.72157974271882], [-120.6235641963487, 39.72215825125214], [-120.62358322784026, 39.72218435147161], [-120.6236722857751, 39.72230647860442], [-120.62370925277533, 39.722357174018235], [-120.62382391602894, 39.722514413229675], [-120.62386344008614, 39.722568614131774], [-120.62402649830172, 39.72279221875711], [-120.62410934010487, 39.72290581904009], [-120.62470384933341, 39.72372106120162], [-120.62490965194, 39.724003271169096], [-120.62530982579037, 39.72455200724092], [-120.62536885206009, 39.72463294482693], [-120.62543682568919, 39.72472615285439], [-120.62550988207526, 39.7248263275454], [-120.62581676574533, 39.72524712942226], [-120.62586073191507, 39.725307415157545], [-120.62595645681267, 39.7254386735542], [-120.62600339480026, 39.72550303367204], [-120.6263831295015, 39.726023715740965], [-120.62651037443965, 39.726198190243636], [-120.62691048512377, 39.726746801873574], [-120.62691969267418, 39.726759425144614], [-120.62703095400151, 39.72691197997857], [-120.62711065809012, 39.72702126392177], [-120.62722119029532, 39.72717281550591], [-120.62731074238404, 39.72729560317617], [-120.62764980624873, 39.727760492374514], [-120.62851136637605, 39.72894174659064], [-120.62853945589877, 39.72898025768214], [-120.62916010261654, 39.729831174623754], [-120.62924702477378, 39.729898865840916], [-120.62936938180458, 39.73000473242701], [-120.62948437197969, 39.73011541302165], [-120.62959167810429, 39.730230602354055], [-120.62969100417276, 39.73034998271607], [-120.62978207618518, 39.730473224838356], [-120.62986464290371, 39.730599988798275], [-120.62993847654565, 39.73072992495739], [-120.63000337341232, 39.730862674925675], [-120.63005915445139, 39.73099787254985], [-120.6301056657511, 39.73113514492328], [-120.63014277896558, 39.73127411341434], [-120.6301703916693, 39.73141439471084], [-120.63018842764022, 39.73155560187708], [-120.63019683707074, 39.73169734542121], [-120.6301955967056, 39.73183923436946], [-120.63018470990687, 39.73198087734464], [-120.63016420664516, 39.73212188364565], [-120.63013414341759, 39.7322618643252], [-120.63009460309283, 39.73240043326283], [-120.63004569468276, 39.73253720822991], [-120.62998755304274, 39.73267181194415], [-120.62992033849983, 39.732803873110434], [-120.62984423641144, 39.73293302744504], [-120.62975945665411, 39.73305891868074], [-120.62966623304538, 39.73318119954965], [-120.629564822699, 39.733299532741285], [-120.629455505316, 39.733413591833305], [-120.62933858241361, 39.73352306219201], [-120.62921437649351, 39.73362764184056], [-120.62908323015253, 39.73372704229204], [-120.62894550513768, 39.73382098934557], [-120.62880158134817, 39.73390922384278], [-120.62865185578758, 39.73399150238308], [-120.62849674146852, 39.73406759799503], [-120.62833666627321, 39.73413730076281], [-120.6276805169836, 39.73440572452164], [-120.62750157136415, 39.73447395532142], [-120.62731787822118, 39.734534198114936], [-120.6271300351553, 39.73458625691566], [-120.62693865327245, 39.73462996236184], [-120.62674435519493, 39.734665172267704], [-120.62631017819525, 39.73473382760172], [-120.62630629471333, 39.73477484483553], [-120.62630737078494, 39.73477485987526], [-120.6265994404921, 39.7347849431259], [-120.62676097620215, 39.73479341442222], [-120.62692183153536, 39.73480764549881], [-120.62708166216376, 39.73482760589374], [-120.62735721114093, 39.73486708807138], [-120.62753934477414, 39.73489707616608], [-120.62763310387875, 39.73491659171482], [-120.6276827778334, 39.73492110039279], [-120.62786493699731, 39.73494521979455], [-120.6280451928595, 39.73497673082393], [-120.62808018537895, 39.73498436777961], [-120.62813314400287, 39.734894575371584], [-120.62821306110426, 39.73477519758769], [-120.6283005673596, 39.73465903548477], [-120.6283954462533, 39.73454637643283], [-120.62849746303425, 39.73443749913455], [-120.62860636529689, 39.73433267293593], [-120.62872188360564, 39.734232157160086], [-120.62884373216166, 39.7341362004659], [-120.62897160951, 39.73404504023294], [-120.62910519928533, 39.73395890197454], [-120.62962994054568, 39.733637307415556], [-120.63001546758096, 39.73338719228065], [-120.63003559232308, 39.73337409921662], [-120.63019120395576, 39.73327856119435], [-120.63035359162251, 39.733190000735824], [-120.63052223113944, 39.733108703701134], [-120.63069657814854, 39.73303493250449], [-120.63070878681964, 39.73303010965982], [-120.63089787751493, 39.7329554139023], [-120.63119258693604, 39.73283899553353], [-120.63138510515566, 39.73276294503203], [-120.63155959331414, 39.73269864905092], [-120.63173841427465, 39.732641891988834], [-120.6319210221541, 39.73259284710598], [-120.63210685951297, 39.73255166411987], [-120.63260408671107, 39.73245286702382], [-120.6326507871976, 39.732443587470705], [-120.63282986372745, 39.73241184993289], [-120.63301085088956, 39.73238741344074], [-120.63319324973806, 39.732370345362476], [-120.63337655743638, 39.73236069275302], [-120.63356026864312, 39.732358482224406], [-120.63374387690465, 39.73236371987237], [-120.63392687605082, 39.732376391259535], [-120.63406694337468, 39.73239184704214], [-120.6344558005257, 39.73231689217135], [-120.63448149678777, 39.73231193780012], [-120.63464796259379, 39.732279849324804], [-120.63480388263805, 39.732215570514136], [-120.6349768152822, 39.73215337798008], [-120.63515388052951, 39.732098554502656], [-120.63571006442172, 39.73193979168057], [-120.63588098885513, 39.73189483585657], [-120.63605468915719, 39.73185674768925], [-120.6362307028134, 39.731825628597406], [-120.63640856115144, 39.73180156144327], [-120.63658779058864, 39.73178461031184], [-120.63676791389258, 39.7317748203404], [-120.63694845145139, 39.73177221759824], [-120.63712892255026, 39.73177680901732], [-120.63730884665114, 39.73178858237378], [-120.63748774467167, 39.731807506320436], [-120.63766514026054, 39.73183353047028], [-120.63784056106525, 39.73186658553046], [-120.63801353998957, 39.73190658348684], [-120.6381836164369, 39.73195341783813], [-120.63835033753628, 39.732006963879456], [-120.63851325934797, 39.732067079034266], [-120.63867194804527, 39.7321336032338], [-120.63882598106937, 39.73220635934321], [-120.63897494825446, 39.73228515363301], [-120.63911845291953, 39.73236977629489], [-120.63925611292481, 39.73246000200003], [-120.63938756168898, 39.732555590499096], [-120.63951244916555, 39.73265628726166], [-120.63963044277483, 39.73276182415391], [-120.63974122828981, 39.732871920152384], [-120.63979122740344, 39.73292434598024], [-120.63994989342571, 39.73309071718163], [-120.64005514642938, 39.733207391066465], [-120.64015230393204, 39.73332817866689], [-120.64024109680498, 39.733452745453256], [-120.64032127908186, 39.73358074642729], [-120.64039262864043, 39.73371182707739], [-120.64045494781806, 39.73384562436035], [-120.64050806395986, 39.73398176770674], [-120.64055182989732, 39.73411988004707], [-120.64058612435649, 39.734259578856175], [-120.6406108522945, 39.7344004772125], [-120.6406259451634, 39.734542184869724], [-120.64063136110072, 39.734684309337624], [-120.64062708504598, 39.73482645696911], [-120.64061312878316, 39.734968234050505], [-120.64058953090868, 39.73510924789212], [-120.64055635672514, 39.73524910791591], [-120.64051369806111, 39.73538742673739], [-120.64041673359121, 39.735668756190194], [-120.64040158254011, 39.735791272548965], [-120.64036991265017, 39.73597817866325], [-120.64028285103286, 39.736381912171], [-120.64025006746333, 39.73667863735167], [-120.64023498603984, 39.736788541847815], [-120.6401960066887, 39.737026108371936], [-120.6401717541713, 39.73715058495705], [-120.64014001798435, 39.73727405426837], [-120.64010086698258, 39.737396248272965], [-120.64005438611863, 39.73751690170511], [-120.63990839654336, 39.737865885581655], [-120.63985945216821, 39.738001722584734], [-120.63980683002485, 39.738134459470054], [-120.6397454461568, 39.73826493438973], [-120.63967546257373, 39.738392802880284], [-120.63959706399228, 39.73851772735767], [-120.6395104573488, 39.73863937800859], [-120.63941587125332, 39.73875743366139], [-120.63932065841982, 39.7388697170342], [-120.6392813114739, 39.73895256415487], [-120.63919845493953, 39.7390994403235], [-120.63910446766158, 39.73924226680609], [-120.63878550147685, 39.739693335072914], [-120.6386108460966, 39.73995625161127], [-120.63850872435836, 39.74009917407248], [-120.63839560895362, 39.74023707457909], [-120.63827191272625, 39.74036944975208], [-120.63826451714296, 39.740376880371045], [-120.63835706294053, 39.74047658662104], [-120.63845596691056, 39.74059588736483], [-120.63854663633434, 39.74071902580363], [-120.63862882196288, 39.74084566349373], [-120.63870229786107, 39.74097545237185], [-120.63876686202893, 39.74110803571156], [-120.63877193048064, 39.74112037119492], [-120.6388428262961, 39.74115536202129], [-120.63899230923803, 39.741237986073486], [-120.63913596577507, 39.74132655631831], [-120.63927339945585, 39.741420828342726], [-120.6394042309966, 39.74152054199823], [-120.63952809932793, 39.741625422118496], [-120.63964466259114, 39.741735179278535], [-120.63977618701276, 39.74186588024016], [-120.63977574093833, 39.74186614776665], [-120.63986813709103, 39.74196067746267], [-120.63997156355808, 39.74207900959205], [-120.64006674987354, 39.74220139376986], [-120.64015343026838, 39.7423274883468], [-120.64023136271489, 39.74245694131361], [-120.64030032960258, 39.74258939128349], [-120.6403601383464, 39.74272446850095], [-120.64041062192466, 39.74286179587379], [-120.64045163934605, 39.743000990025834], [-120.64048307604371, 39.74314166236701], [-120.64050484419583, 39.74328342017818], [-120.64051688297133, 39.743425867707415], [-120.64051789129972, 39.74348911261181], [-120.64052413587746, 39.74348372588003], [-120.64065340266102, 39.743383334149804], [-120.64078930279457, 39.74328830665333], [-120.64093146323071, 39.743198904225636], [-120.64107949374296, 39.743115372261066], [-120.64123298799709, 39.74303794003989], [-120.64139152466613, 39.74296682009919], [-120.64155466858683, 39.74290220764954], [-120.64172197195366, 39.7428442800395], [-120.64189297554788, 39.742793196268785], [-120.6420672099975, 39.74274909655216], [-120.64224419706541, 39.74271210193454], [-120.64229588925087, 39.74270351188447], [-120.64232501059075, 39.742693539605945], [-120.64236701157928, 39.74263693386182], [-120.64238998507668, 39.7426064353306], [-120.64243743156432, 39.74254438340925], [-120.64251869963692, 39.74243809755424], [-120.64269211940785, 39.742175862842785], [-120.64279359480327, 39.742022418322975], [-120.64298133080452, 39.7417385301973], [-120.64347059352049, 39.740956087801834], [-120.64348584026496, 39.740932010232676], [-120.64365818500522, 39.74066323007708], [-120.6437937982423, 39.74045173497018], [-120.64384235842424, 39.74037880765216], [-120.64434556073905, 39.73965049066813], [-120.64460322135292, 39.73927745596905], [-120.64468169401783, 39.73916984271568], [-120.64520673593272, 39.7384868206584], [-120.64534714810998, 39.73831867133531], [-120.64571472806993, 39.73791234148927], [-120.64620659528212, 39.73732912177936], [-120.64630046648175, 39.737223388158085], [-120.64666370928612, 39.73683436211594], [-120.6466845767646, 39.7368122501576], [-120.64715661287966, 39.73631734269344], [-120.64722995727992, 39.73624316201219], [-120.64735552081196, 39.7361206139843], [-120.64737746156271, 39.736099200511916], [-120.64741537500983, 39.736064133781625], [-120.64750645694642, 39.73596439633983], [-120.64761459902077, 39.73585775585732], [-120.64772952686194, 39.73575543342435], [-120.64785095164787, 39.73565768616017], [-120.6479785682346, 39.73556475968652], [-120.64806316060552, 39.73550907432868], [-120.64809463203048, 39.73548288881826], [-120.64824892189296, 39.73535467749927], [-120.64872054430168, 39.73496276844609], [-120.64880788782679, 39.73489275616714], [-120.64883514323778, 39.73487168121712], [-120.64890029444489, 39.73480566473589], [-120.64900640273129, 39.73470806091677], [-120.64912643884345, 39.734602789907306], [-120.64932291272984, 39.73441112181981], [-120.64934050148224, 39.734394104574854], [-120.64951973707849, 39.734222118158954], [-120.64964917232712, 39.73409465848367], [-120.64965628004923, 39.73408436627014], [-120.64970954647417, 39.73400409759991], [-120.64973484013777, 39.73395402808531], [-120.64980001691185, 39.73381001553582], [-120.64987489587025, 39.73362944643753], [-120.64989985051942, 39.7335715297331], [-120.64997573844738, 39.73340182706322], [-120.65006907888895, 39.73321568811728], [-120.65009099784794, 39.733176357955266], [-120.65014351783489, 39.73308211562666], [-120.65016367377314, 39.733046649911834], [-120.65020221312405, 39.732980137025116], [-120.65025643059818, 39.73288656565908], [-120.65028748501993, 39.73283296927591], [-120.65036819846425, 39.73270307342838], [-120.65045776502467, 39.732576684214706], [-120.65055592997386, 39.73245416102041], [-120.6505752224733, 39.73243145751436], [-120.6507139692685, 39.732268179473415], [-120.65079396544003, 39.7321780656736], [-120.65087861451241, 39.73209052258725], [-120.65104778375996, 39.73192275462042], [-120.6512132705197, 39.73177053614299], [-120.65121758381328, 39.73176685274001], [-120.65123065599224, 39.73175081106062], [-120.65158082079792, 39.73120783233086], [-120.6521716907555, 39.73021884188304], [-120.65244278185673, 39.72970986119407], [-120.65246510051685, 39.729668917158435], [-120.65283768776844, 39.729000806025184], [-120.65284973745013, 39.72897945256271], [-120.65300602922647, 39.72870571209388], [-120.65308461136509, 39.72857732773396], [-120.65317182065084, 39.72845230866785], [-120.65326741613829, 39.728331000239336], [-120.65337113372074, 39.728213737540536], [-120.65348268686004, 39.72810084448651], [-120.6536017673784, 39.72799263292062], [-120.65372804630995, 39.72788940175337], [-120.65386117480949, 39.72779143613686], [-120.6540007851162, 39.72769900667736], [-120.65414649156959, 39.72761236868797], [-120.65429789167469, 39.72753176148365], [-120.65445456721369, 39.72745740772023], [-120.65461608540116, 39.727389512779645], [-120.65478200007921, 39.72732826420274], [-120.65495185294954, 39.72727383117141], [-120.65512517483923, 39.727226364041414], [-120.65530148699615, 39.7271859939272], [-120.65548030241118, 39.727152832339804], [-120.65566112716277, 39.72712697087899], [-120.65584346178107, 39.727108480980206], [-120.65602680262685, 39.72709741371741], [-120.65621064328225, 39.72709379966199], [-120.6563387542978, 39.72709388150193], [-120.65653279632042, 39.72709816327561], [-120.65731043560281, 39.727132009880016], [-120.65731167711333, 39.72713206310266], [-120.65754441514102, 39.72714219442899], [-120.65826626470364, 39.72717361583458], [-120.65829147483754, 39.72717471289587], [-120.6585997772524, 39.727188129452045], [-120.65887900091974, 39.727200280924094], [-120.66009292646831, 39.72725309563951], [-120.66015760599613, 39.72725590320753], [-120.66036337231732, 39.727264853439586], [-120.66083642559043, 39.72728543287733], [-120.66148859098058, 39.727313802362794], [-120.66166406894446, 39.727324860885346], [-120.66183860443678, 39.727342721037566], [-120.66201175558787, 39.727367337604605], [-120.66218308403133, 39.72739864826649], [-120.6623521560135, 39.72743657375567], [-120.66251854349133, 39.7274810180577], [-120.66268182521564, 39.72753186865423], [-120.66284158779733, 39.72758899680772], [-120.66299742675372, 39.7276522578873], [-120.66314894753238, 39.727721491734705], [-120.66329576650983, 39.72779652306978], [-120.66362963158566, 39.72797684590305], [-120.66448609646659, 39.72843943330641], [-120.6646336956198, 39.72852368898888], [-120.66477536971755, 39.728613805226146], [-120.66491072888302, 39.7287095340416], [-120.6650394006119, 39.728810612013], [-120.66516103079746, 39.72891676099716], [-120.665275284705, 39.72902768889516], [-120.66538184789329, 39.72914309045603], [-120.66548042707994, 39.7292626481164], [-120.66557075094882, 39.72938603287436], [-120.66565257089698, 39.729512905194554], [-120.66572566171922, 39.7296429159424], [-120.6657898222282, 39.72977570734475], [-120.66584487580862, 39.72991091397427], [-120.66589067090366, 39.73004816375501], [-120.66592708143281, 39.7301870789861], [-120.66595400713923, 39.73032727738121], [-120.66597137386634, 39.73046837312045], [-120.6659791337626, 39.73060997791211], [-120.6659772654137, 39.730751702061184], [-120.6659657739022, 39.73089315554185], [-120.6659446907943, 39.73103394907079], [-120.66591407405345, 39.731173695178576], [-120.66587400788151, 39.731312009276046], [-120.66582460248772, 39.73144851071281], [-120.66576599378585, 39.73158282382486], [-120.66569834302088, 39.73171457896867], [-120.66562183632551, 39.73184341353842], [-120.66553668420869, 39.73196897296427], [-120.66548633920353, 39.73203869434838], [-120.66537983078001, 39.73217641583273], [-120.66526292416611, 39.73230901415531], [-120.66513603142401, 39.732436021881576], [-120.66486178909926, 39.73269427935034], [-120.66472857336706, 39.732812557890185], [-120.66458669749963, 39.73292467235297], [-120.66443663904217, 39.73303024533884], [-120.66427890309109, 39.73312892146652], [-120.66417652565747, 39.73318925371577]], [[-120.63797101576898, 39.746242256380334], [-120.6379121569252, 39.74629222636404], [-120.63775935897384, 39.74641558969463], [-120.63763414817348, 39.74651170394403], [-120.63757432278913, 39.7465532102899], [-120.63756402981815, 39.746657017146134], [-120.63753985326953, 39.74680001551131], [-120.63750582653523, 39.74694181431242], [-120.63746204650718, 39.74708200952478], [-120.63745221801588, 39.74710744029843], [-120.63745674163486, 39.74711482116163], [-120.63752738344805, 39.747248000355576], [-120.63758873861939, 39.74738389424515], [-120.63764063301227, 39.74752211726397], [-120.63768291933009, 39.74766227723504], [-120.63771547753481, 39.74780397648309], [-120.63773821518815, 39.747946812963114], [-120.63775106771456, 39.7480903814008], [-120.63775399858514, 39.7482342744426], [-120.6377469994219, 39.74837808381132], [-120.63773243735916, 39.748501506372484], [-120.63784749127012, 39.74846230002541], [-120.63797563328521, 39.7484217113503], [-120.63814289155121, 39.748372550506474], [-120.63814538442264, 39.748371928416766], [-120.63817927395547, 39.748335561711954], [-120.63818624132671, 39.74832886064942], [-120.6381819612345, 39.74827937262507], [-120.63817937062439, 39.748137335354336], [-120.63818645488607, 39.74799538930322], [-120.6381916987391, 39.74795107451801], [-120.63819402415645, 39.7478360776848], [-120.63820625008216, 39.74769636205503], [-120.63822783766594, 39.74755732309509], [-120.63825872885681, 39.7474193343325], [-120.6382988406112, 39.747282766471336], [-120.63834806511647, 39.7471479863963], [-120.63840627008129, 39.747015356187255], [-120.63847329909142, 39.746885232146546], [-120.63854897203045, 39.746757963842015], [-120.63863308556408, 39.746633893168024], [-120.63867465578623, 39.746579620885875], [-120.6387136795036, 39.746454769492885], [-120.63876527441383, 39.746320598751375], [-120.63882580073545, 39.746188670564784], [-120.63904226467831, 39.745753044061146], [-120.63905650627399, 39.745726522917835], [-120.63901169072494, 39.74575184807783], [-120.63885691602405, 39.745829966394886], [-120.6381933422352, 39.7461458864678], [-120.63803011429066, 39.746218982485786], [-120.63797101576898, 39.746242256380334]]]}}]}