{"type": "FeatureCollection", "features": [{"type": "Feature", "id": 36419622, "geometry": {"type": "LineString", "coordinates": [[-120.61624376856025, 39.74457373660657], [-120.61607757549938, 39.74431805059852], [-120.61600026046989, 39.7441903585941], [-120.6157823854199, 39.744077770602075], [-120.61559550939073, 39.7440829376175], [-120.61540608637081, 39.744160121639055], [-120.6152750503604, 39.7442385416561], [-120.6152456233575, 39.74425183065955], [-120.61508535334164, 39.744324817678454], [-120.61486023131835, 39.74441918970433], [-120.61462488028852, 39.74447743072805], [-120.61439156825055, 39.744472565746314], [-120.61422534023565, 39.74455926176682], [-120.61407674719938, 39.74446603777093], [-120.6138220791507, 39.74440682478637], [-120.61347705107649, 39.744264715802075], [-120.61319996802052, 39.744177801817045], [-120.61297014596984, 39.74407399882677], [-120.61278648592906, 39.74398913883434], [-120.61247735585584, 39.74381165484426], [-120.61219236678407, 39.74361659085076], [-120.61199746273911, 39.743513512857746], [-120.61188402470856, 39.74342110085914], [-120.61175890767612, 39.7433283868614], [-120.6116461376433, 39.743217969861185], [-120.611581607611, 39.743054478852734], [-120.61161116059161, 39.74287494883536], [-120.61178087759383, 39.74268923180627], [-120.61200803960901, 39.74253175977499], [-120.6122980566163, 39.74224040572747], [-120.6123626376026, 39.742061511707384], [-120.61208972253164, 39.741857745712174], [-120.61178017246074, 39.7416982647236], [-120.61158444841926, 39.741622102732926], [-120.61138900137657, 39.74153702874143], [-120.61117208332314, 39.74139742774713], [-120.61094349026784, 39.74125761375378], [-120.61078429122621, 39.74113716575644], [-120.61053411316017, 39.74094282376023], [-120.61034337810007, 39.740722715757094], [-120.61025585006412, 39.74055879775043], [-120.61016769702924, 39.74040379474456], [-120.61009239599284, 39.740222085735404], [-120.61005173496326, 39.7400501047243], [-120.61001405592205, 39.73978801470542], [-120.60999623989737, 39.73962546069327], [-120.61000605186155, 39.739346392669205], [-120.61003682483754, 39.73913085564871], [-120.61009232481146, 39.73887073262259], [-120.6101095357925, 39.73870881560768], [-120.6101233907416, 39.7383128095735], [-120.61012341069691, 39.73797951754569], [-120.61012684863819, 39.73753810950857], [-120.61013805555181, 39.73688073945281], [-120.6101641764993, 39.73645785141541], [-120.61015870347424, 39.736277596400754], [-120.61018974844907, 39.73605296737958], [-120.61024614642076, 39.73577483835181], [-120.61029865940637, 39.73560473633345], [-120.61036312439268, 39.73542602531332], [-120.6104145363829, 39.735291840298025], [-120.61059995737197, 39.734989310257944], [-120.61073274937547, 39.734856971236276], [-120.61090190138003, 39.73468926020873], [-120.61110525439373, 39.73454928118081], [-120.61124889540261, 39.73444416016056], [-120.61140409541336, 39.73433925113937], [-120.61169215742875, 39.73411091309728], [-120.6119558104439, 39.733909158059376], [-120.61217142545601, 39.73374247402819], [-120.61235036446936, 39.73362898600441], [-120.61259132847835, 39.73340871196678], [-120.61281830049474, 39.73326024093622], [-120.61306811451604, 39.73312119690465], [-120.61321080952834, 39.73304307988673], [-120.61349337556344, 39.732967865857866], [-120.61366866459075, 39.7329623998434], [-120.61383255361494, 39.73294781182908], [-120.61402265463136, 39.73284353580519], [-120.61410841962964, 39.73272825978866], [-120.61418466361785, 39.73254957776769], [-120.61432281260166, 39.732264198732786], [-120.61441100459065, 39.73207681571012], [-120.61446323257736, 39.73191571469249], [-120.61448015755957, 39.73176288967839], [-120.61439643250854, 39.73148185966162], [-120.61434287648171, 39.73134567865452], [-120.61425727143761, 39.73111866164242], [-120.61417659340393, 39.73096389463593], [-120.61417117338739, 39.730846643626556], [-120.61420354537448, 39.73071219461277], [-120.6142737883648, 39.73055595359409], [-120.61434199835956, 39.73043572457862], [-120.61457990437168, 39.73024246354347], [-120.61499931539039, 39.729881693479825], [-120.61519762440506, 39.72975514345341], [-120.61535935441147, 39.7296097844283], [-120.61547774740109, 39.729391468400635], [-120.61567840440713, 39.72919749136844], [-120.61578698239884, 39.729005955343716], [-120.61586691638708, 39.72882293332204], [-120.61589049337034, 39.72867025630746], [-120.61591531935149, 39.7284996602912], [-120.61599309934785, 39.72837965327495], [-120.61603476533769, 39.72825433726118], [-120.61603196631127, 39.72806056924525], [-120.6160367042927, 39.727916536232804], [-120.61607884028084, 39.72777780621786], [-120.61611156026625, 39.727629763202906], [-120.61625726426215, 39.727425620174195], [-120.61641113626118, 39.72723502714599], [-120.6166323012646, 39.726996394108404], [-120.61691716627948, 39.72676797006657], [-120.61716154030113, 39.72663785603616], [-120.61753710233802, 39.726465409991725], [-120.61783723736988, 39.72634545495773], [-120.61815425440759, 39.72624836492428], [-120.61838763743644, 39.72618553790043], [-120.61874822249266, 39.72617490287069], [-120.61925359458388, 39.72625282383683], [-120.61981547668066, 39.72630489579628], [-120.62017383474553, 39.72636177277236], [-120.62051562380051, 39.72636427774524], [-120.62077417284377, 39.72637863372577], [-120.62090559785547, 39.72630920570946], [-120.62099039986256, 39.726261434698735], [-120.62106730986181, 39.72616393068446], [-120.62115648785215, 39.72598553866242], [-120.62127571683894, 39.72574480163278], [-120.62142296582849, 39.7254910515998], [-120.62151233781825, 39.72530815957741], [-120.62157411980291, 39.72512027455677], [-120.62157908178439, 39.72497624154439], [-120.62155723375854, 39.724809120532186], [-120.62150740872866, 39.724645923522544], [-120.621384660684, 39.724458702516735], [-120.62118743162897, 39.724283557517865], [-120.62099883957721, 39.72412196051946], [-120.6208555755388, 39.72400648752127], [-120.6208122785191, 39.723910940516745], [-120.62077343348558, 39.72370745450283], [-120.62067124643521, 39.72345316448979], [-120.62055663239484, 39.72328858348523], [-120.62036058133461, 39.72307292848286], [-120.62005522825415, 39.722836945487565], [-120.61976680217828, 39.72261473649204], [-120.61937818308195, 39.72235909950175], [-120.6191063640184, 39.722209349510976], [-120.61863549390569, 39.721929462525246], [-120.61841822885346, 39.72179887753168], [-120.61840812783971, 39.72170856352497], [-120.61822295580178, 39.72164622153453], [-120.61807491376445, 39.72154408953783], [-120.61764221865967, 39.721278408550255], [-120.61726381356193, 39.72100039155725], [-120.6168387554572, 39.720725849568275], [-120.61651204738237, 39.72055701858029], [-120.61632284833351, 39.72041800858379], [-120.61617202328668, 39.72024820458166], [-120.61609501625061, 39.72007101057302], [-120.61581918212794, 39.71948429854608], [-120.61568271506108, 39.71914809252886], [-120.61552619799883, 39.71887013051817], [-120.61529551592568, 39.71859964851399], [-120.61518794689614, 39.7185073025149], [-120.61508999486695, 39.7184062665143], [-120.61474176579884, 39.71831350253432], [-120.61430037672103, 39.71825936556511], [-120.61355322259843, 39.71823501562272], [-120.61283358347775, 39.71819315267673], [-120.61260386043858, 39.71817494669357], [-120.61240553540632, 39.71817089470906], [-120.61221966537371, 39.71814904872212], [-120.61201111533492, 39.71810868473538], [-120.61166315727114, 39.71804750275808], [-120.61138668521409, 39.717951761772184], [-120.61120419216876, 39.71783089277667], [-120.6110459841237, 39.71768344077696], [-120.61095624909463, 39.71757354077497], [-120.61080059304034, 39.717354071769066], [-120.61055692795127, 39.71697969175722], [-120.61027863885533, 39.71659558174738], [-120.60994536573719, 39.71611129873355], [-120.60979175667481, 39.71582881472221], [-120.60937681954395, 39.71534736571509], [-120.60930205850467, 39.715143065704], [-120.6091525494731, 39.71508593371116], [-120.60896900643121, 39.71499206771799], [-120.6087506793836, 39.71489747272753], [-120.60856953133369, 39.71474059172888], [-120.60848003630466, 39.714630688726814], [-120.6084144382771, 39.714503205721414], [-120.60837206925332, 39.71437623971424], [-120.60829546522152, 39.71423045070814], [-120.60810912614541, 39.71388431369413], [-120.60785393205447, 39.7135097156832], [-120.60777788102035, 39.71334592267557], [-120.60768921498786, 39.71320901367123], [-120.60753998695515, 39.71314287767763], [-120.60726275590041, 39.71306504269324], [-120.6063610317248, 39.71283026174564], [-120.60570219259593, 39.712654489783574], [-120.6055172825598, 39.71260562879422], [-120.60516935549597, 39.71254442781691], [-120.6048994744593, 39.71259291884253], [-120.60458879943774, 39.71280271888489], [-120.60445725642961, 39.712899130903445], [-120.60432504342381, 39.713013456923576], [-120.60421566742292, 39.71313739094266], [-120.60410573942434, 39.71327923896331], [-120.60404088643911, 39.713467037984174], [-120.60389907346908, 39.71386051502839], [-120.60378576148322, 39.71410147405756], [-120.60364693650168, 39.714404842094005], [-120.60352167151507, 39.714654501124905], [-120.6033497185209, 39.7149033091594], [-120.60314569351061, 39.715070188189664], [-120.60290802948886, 39.71519142121879], [-120.60270683646819, 39.715277372242], [-120.60247223943608, 39.71531758426408], [-120.60213274738565, 39.71534660929365], [-120.60186513734092, 39.715332078313814], [-120.60158656629075, 39.71529024033256], [-120.60141360025541, 39.715232583341596], [-120.60124158021661, 39.71514800934825], [-120.60109361717804, 39.715036857350775], [-120.60093527713418, 39.71489839435188], [-120.60077631209141, 39.71476911435375], [-120.60039371002195, 39.71470707937907], [-120.60013943197214, 39.714638747393714], [-120.59991977992917, 39.71458014640632], [-120.5995971998622, 39.71446534342251], [-120.5991478397686, 39.7143029164448], [-120.59884821370659, 39.714197630459935], [-120.59868708567191, 39.714131271467295], [-120.59845560362821, 39.71408136648158], [-120.59827051558729, 39.71399649248928], [-120.5980423275369, 39.713892657498825], [-120.59788253949762, 39.713790289503024], [-120.5977458214633, 39.713697438506145], [-120.59756580440869, 39.713504443504426], [-120.59747699837733, 39.713376438500795], [-120.59741102635097, 39.71325795349618], [-120.5973219443208, 39.7131390394933], [-120.5974253623147, 39.71297004847097], [-120.59731078627192, 39.71278744546482], [-120.59743512226201, 39.712564799436265], [-120.59760275227237, 39.712442118412625], [-120.59794732730192, 39.712251072369135], [-120.59809062431314, 39.71216397035042], [-120.5982345153209, 39.712049864329366], [-120.59836618232902, 39.71195345931083], [-120.59857154733471, 39.71175048927742], [-120.59870727332782, 39.71153705624874], [-120.59873672830851, 39.71135753423139], [-120.59869705427552, 39.71115845721791], [-120.59854910323703, 39.71104730122044], [-120.5982392771685, 39.710905792233326], [-120.59799763111708, 39.71081066324469], [-120.5978132850787, 39.71074378625382], [-120.59761726503834, 39.71067669626386], [-120.59732999897594, 39.71055361627652], [-120.59712447892561, 39.71042329828203], [-120.596851054857, 39.71023741628834], [-120.59665720780858, 39.71010731029292], [-120.59636083673507, 39.70991199830022], [-120.59606490465917, 39.70969868230603], [-120.5958707826119, 39.70957748831142], [-120.59566672555701, 39.709411158313785], [-120.59551889951847, 39.70929990931629], [-120.59530222346517, 39.70916028132193], [-120.59506303740457, 39.708993221327034], [-120.59482385134388, 39.70882607033219], [-120.59468825330497, 39.708697209332215], [-120.5945064792573, 39.7085583123351], [-120.59430242720238, 39.70839189033749], [-120.59417688417112, 39.708308163340504], [-120.59398233212625, 39.708205058347424], [-120.59380955008963, 39.708138390355636], [-120.5936113690574, 39.708134306371115], [-120.59342347503284, 39.70817544638956], [-120.59323451501174, 39.708243592410355], [-120.59304460899409, 39.70833874243346], [-120.59289121797643, 39.70838970544993], [-120.592693313943, 39.70837652946465], [-120.59267434693915, 39.70837057846568]]}, "properties": {"objectid": 36419622, "rte_cn": "5107010430", "bmp": 0, "emp": 4.5, "id": "22N98", "name": "MOHAWK-CHAPMAN", "symbol_code": "517", "seg_length": 4.5, "jurisdiction": "FS - FOREST SERVICE", "system": "NFSR - NATIONAL FOREST SYSTEM ROAD", "route_status": "EX - EXISTING", "oper_maint_level": "5 - HIGH DEGREE OF USER COMFORT", "objective_maint_level": "5 - HIGH DEGREE OF USER COMFORT", "functional_class": "C - COLLECTOR", "surface_type": "BST - BITUMINOUS SURFACE TREATMENT", "lanes": "1 - SINGLE LANE", "primary_maintainer": "FS - FOREST SERVICE", "county": "CA - PLUMAS", "congressional_district": "4TH CONGRESSIONAL DISTRICT OF CALIFORNIA", "admin_org": "051101", "service_life": "C - LONG TERM SERVICE", "level_of_service": "G - FREE FLOWING MIXED TRAFFIC <400 ADT", "pfsr_classification": "FLTFI ROAD", "managing_org": "051101", "loc_error": "NO ERROR", "gis_miles": 4.488, "security_id": "0511", "openforuseto": "ALL", "ivm_symbol": "22N98 - MOHAWK-CHAPMAN", "symbol_name": "Paved Road", "globalid": "{FD52D5F1-FBB1-403E-9FA4-AC2EBB4773A8}", "st_length(shape)": 0.07390966067198908}}, {"type": "Feature", "id": 36489912, "geometry": {"type": "LineString", "coordinates": [[-120.655972391061, 39.723357862660535], [-120.65599964006275, 39.72333850365672], [-120.65616681307421, 39.72322474563388], [-120.6564374691085, 39.72315813560673], [-120.65668242514701, 39.72315403858682], [-120.65726916727368, 39.72340012856038], [-120.65865634259187, 39.72412184150968], [-120.65938974276165, 39.724515015483846], [-120.6596056618184, 39.72468153748042], [-120.65974086685968, 39.72482833148189], [-120.65984147089291, 39.72495650048454], [-120.65994261092385, 39.725066664485595], [-120.66012516997039, 39.72519646248181], [-120.66034559200979, 39.72522795146684], [-120.66059078904838, 39.72522384444691], [-120.66080242407548, 39.72517410342584], [-120.66102730909871, 39.72507946839994], [-120.66122976911463, 39.724957502373606], [-120.66140834112915, 39.72485294435063], [-120.661693057156, 39.724714514316354], [-120.66185918517095, 39.72462784429581], [-120.66210780019678, 39.72452470926734], [-120.66240276323016, 39.72442249423527], [-120.66276880927145, 39.72429478319537], [-120.66306454030253, 39.72417456116169], [-120.66313345330893, 39.72414016915334]]}, "properties": {"objectid": 36489912, "rte_cn": "6574010430", "bmp": 1.13, "emp": 1.59, "id": "22N10", "name": "GRAY EAGLE LODGE", "symbol_code": "515", "seg_length": 0.46, "jurisdiction": "FS - FOREST SERVICE", "system": "NFSR - NATIONAL FOREST SYSTEM ROAD", "route_status": "EX - EXISTING", "oper_maint_level": "3 - SUITABLE FOR PASSENGER CARS", "objective_maint_level": "3 - SUITABLE FOR PASSENGER CARS", "functional_class": "L - LOCAL", "surface_type": "NAT - NATIVE MATERIAL", "lanes": "1 - SINGLE LANE", "primary_maintainer": "FS - FOREST SERVICE", "county": "CA - PLUMAS", "congressional_district": "4TH CONGRESSIONAL DISTRICT OF CALIFORNIA", "admin_org": "051101", "service_life": "C - LONG TERM SERVICE", "level_of_service": "H - CONGESTED WHEN HEAVY TRAFFIC<400 ADT", "pfsr_classification": "FLTFI ROAD", "managing_org": "051101", "loc_error": "NO ERROR", "gis_miles": 0.446, "security_id": "0511", "openforuseto": "ALL", "ivm_symbol": "22N10 - GRAY EAGLE LODGE", "symbol_name": "Dirt Road, Suitable for Passenger Car", "globalid": "{B06CB400-118C-4D02-A2B4-BFEF04956E2C}", "st_length(shape)": 0.008041975778472253}}, {"type": "Feature", "id": 36505957, "geometry": {"type": "LineString", "coordinates": [[-120.61519762440506, 39.72975514345341], [-120.61546255245779, 39.72983266243871], [-120.61560535649248, 39.72992114343466], [-120.61582139654332, 39.730042739427525], [-120.61599379859496, 39.73022197742875], [-120.61611841263812, 39.730395694433284], [-120.61617647467419, 39.73059512644529], [-120.6162262847094, 39.7307987394583], [-120.6162883697618, 39.73111533847973], [-120.61638713580749, 39.731338148490465], [-120.61647953583997, 39.731470623494126], [-120.6165592668602, 39.73152620749239], [-120.61665538388192, 39.73157333848867], [-120.61680816391339, 39.73162603548087], [-120.61708959996939, 39.73170832946521], [-120.6173328290132, 39.73174491144884], [-120.61753488305088, 39.731785118436015], [-120.61778620709472, 39.731812747418196], [-120.61839585019509, 39.73183425437131], [-120.61863200223289, 39.73183459735247], [-120.6188445752632, 39.731807426333155], [-120.6190504632864, 39.73173510531071], [-120.61920008229504, 39.73162103428919], [-120.61933424830234, 39.73151568226969], [-120.61937906129454, 39.73140402825681], [-120.61939302127386, 39.73123312724139], [-120.6193596282388, 39.73101170122558], [-120.61926186719276, 39.73078447921444], [-120.61920856817022, 39.73067980020998], [-120.61918975714656, 39.73052625519866], [-120.61924349113357, 39.73036523418095], [-120.61936850314426, 39.73029566016513], [-120.6195975751742, 39.73024626314269], [-120.61990763122037, 39.73022120911581], [-120.62024188927292, 39.7302144830885], [-120.62050353031182, 39.73019282106578], [-120.62073022234628, 39.73017943604655], [-120.6208847363593, 39.730092521026954], [-120.62104256836082, 39.72991558199955], [-120.62120941937346, 39.729810872977495], [-120.6214665824128, 39.729798142955886], [-120.62169891145423, 39.729829999939945], [-120.62218547454536, 39.729930055909406], [-120.62238223058345, 39.72997910289778], [-120.62265969863698, 39.73004781288131], [-120.62296114069323, 39.73010802986225], [-120.62317012073082, 39.73013937284821], [-120.62335657076113, 39.73014319783357], [-120.62360194279862, 39.730130162812884], [-120.62405828486675, 39.73009445577344], [-120.62451369093837, 39.73008575273632], [-120.6249233319989, 39.73004910970052], [-120.62513594202257, 39.72997242467711], [-120.62525581402879, 39.72987577865944], [-120.62537751802924, 39.729734120637914], [-120.62552475702418, 39.72952086760833], [-120.62561225401544, 39.72935148158721], [-120.62569842701133, 39.72921819456922], [-120.6257851040061, 39.72907581455042], [-120.62598118500051, 39.72880047851175], [-120.62607848300065, 39.72868531649435], [-120.62628382000626, 39.72848238746102], [-120.62642809001278, 39.7283592454392], [-120.62656337400696, 39.728154692411294], [-120.62657933799267, 39.72802896339955], [-120.62656133096922, 39.727875415388176], [-120.62663742295743, 39.72769681536715], [-120.62681698696846, 39.72756539234185], [-120.62720969600095, 39.72733918529156], [-120.62760224703453, 39.7271218882421], [-120.62798448506044, 39.72685946118959], [-120.62832052807762, 39.72658709714005], [-120.6286458300894, 39.726287426089044], [-120.62899303710958, 39.72602427303929], [-120.62935253913062, 39.72575232698786], [-120.62964401613205, 39.725415923936495], [-120.62976800212324, 39.7252022449088], [-120.62986743211528, 39.72502415488597], [-120.62993409709347, 39.72478223886047], [-120.62996227407871, 39.72463862584619], [-120.62994453205417, 39.7244761658341], [-120.62989336501802, 39.72426788582076], [-120.62981592998855, 39.72414020381634], [-120.6296012869271, 39.723937530816585], [-120.62944154988789, 39.72383520282079], [-120.62925780384714, 39.723750458828405], [-120.62881933175774, 39.72360635285143], [-120.62831093565701, 39.72346080287989], [-120.62796504058632, 39.723345652897926], [-120.627734600538, 39.72325988390918], [-120.62751716148699, 39.72313840691642], [-120.62740361745648, 39.7230459209178], [-120.62721221539876, 39.72284375491621], [-120.6271002713625, 39.72270634791367], [-120.62694268531516, 39.722541090912486], [-120.62681813128036, 39.72243029991319], [-120.62669357824568, 39.7223196879139], [-120.6265592242021, 39.722154762910904], [-120.62644981715661, 39.72194533790212], [-120.62640106811106, 39.72166386388257], [-120.62634773607883, 39.72148692987203], [-120.62610642801604, 39.721306150876224], [-120.62587344196074, 39.72117141288359], [-120.62572012891638, 39.72102301388345], [-120.62569542889291, 39.72087724687326], [-120.62578866389167, 39.72075682885576], [-120.62599799591956, 39.72071523983554], [-120.62619533795365, 39.72073456782138], [-120.62650878101687, 39.720832724804566], [-120.6267508740767, 39.72099058279837], [-120.62691198713058, 39.72120030180299], [-120.62701944119212, 39.72153124982208], [-120.62719735625079, 39.72175711382669], [-120.6272091902547, 39.72177213582701], [-120.62766815935282, 39.72195736280576], [-120.62806049542993, 39.72206477378341], [-120.62833568148183, 39.72212391576637], [-120.62876267654507, 39.72208676972912], [-120.62913187859276, 39.722002570692574], [-120.62954379463513, 39.72182749764508], [-120.62998381968819, 39.72169886959915], [-120.63083287779438, 39.721479203513], [-120.6315879628659, 39.72111235042205], [-120.63222353692103, 39.72076599034232], [-120.63289087497306, 39.720359111255064], [-120.63335955499598, 39.71997111318524], [-120.63375274199227, 39.71947453811237], [-120.63380380995552, 39.71913918308031], [-120.63377337991467, 39.71887097606038], [-120.63363983987351, 39.71872299105869], [-120.63339538582257, 39.718633906070764], [-120.63302023275854, 39.718603319098165], [-120.63272058670849, 39.71858734112081]]}, "properties": {"objectid": 36505957, "rte_cn": "5481010430", "bmp": 0, "emp": 2.201, "id": "22N42", "name": "MOHAWK CREEK", "symbol_code": "106", "seg_length": 2.201, "jurisdiction": "FS - FOREST SERVICE", "system": "NFSR - NATIONAL FOREST SYSTEM ROAD", "route_status": "EX - EXISTING", "oper_maint_level": "2 - HIGH CLEARANCE VEHICLES", "objective_maint_level": "2 - HIGH CLEARANCE VEHICLES", "functional_class": "L - LOCAL", "surface_type": "NAT - NATIVE MATERIAL", "lanes": "1 - SINGLE LANE", "primary_maintainer": "FS - FOREST SERVICE", "county": "CA - PLUMAS", "congressional_district": "4TH CONGRESSIONAL DISTRICT OF CALIFORNIA", "admin_org": "051101", "service_life": "C - LONG TERM SERVICE", "level_of_service": "I - FLOW INTERRUPTED,USE LIMITED<400 ADT", "pfsr_classification": null, "managing_org": "051101", "loc_error": "NO ERROR", "gis_miles": 2.193, "security_id": "0511", "openforuseto": "ALL", "ivm_symbol": "22N42 - MOHAWK CREEK", "symbol_name": "Road, Not Maintained for Passenger Car", "globalid": "{C01E7C6F-FD2E-4BE9-B56B-4E79B758B5BB}", "st_length(shape)": 0.03734035928348112}}]}