{"type": "FeatureCollection", "features": [{"type": "Feature", "id": 441421, "geometry": {"type": "Polygon", "coordinates": [[[-120.61338677459436, 39.76707271953946], [-120.6135941749322, 39.76743871962886], [-120.6145721752736, 39.768285252796346], [-120.6148389758113, 39.768422519197244], [-120.61510577545069, 39.76842245291141], [-120.61566910896538, 39.76769051924695], [-120.61581737500467, 39.7672331190718], [-120.6157285082669, 39.76682131883872], [-120.61608417554238, 39.76675271894622], [-120.61649917564407, 39.76689011890584], [-120.6168845088835, 39.76689005261853], [-120.61732917584747, 39.76634111884637], [-120.61735877533607, 39.76602091875027], [-120.61679570862104, 39.76570065225761], [-120.61679570862104, 39.76558625206677], [-120.6165809088602, 39.76564785208691], [-120.61575830897812, 39.76588351912758], [-120.6140093753582, 39.76654671930514], [-120.61344617479419, 39.766912652450976], [-120.61338677459436, 39.76707271953946]]]}, "properties": {"OBJECTID": 441421, "FDATE": 938563200000, "GNIS_ID": " ", "GNIS_NAME": " ", "AREASQKM": 0.051, "ELEVATION": 0, "REACHCODE": "18020123001698", "FCODE": 39004, "Shape_Length": 1354.3383400538671, "Shape_Area": 86893.750406676, "COMID": 8038641, "RESOLUTION": "Medium", "FTYPE": "LakePond", "ONOFFNET": 1, "PurpCode": " ", "PurpDesc": " "}}]}