{"type": "FeatureCollection", "features": [{"type": "Feature", "id": 1977874, "geometry": {"type": "Polygon", "coordinates": [[[-120.66937524755254, 39.718984877292954], [-120.66933277430759, 39.71898493395274], [-120.66453157465972, 39.71899691680908], [-120.66458420515558, 39.7226434446946], [-120.66463681139693, 39.72629000153821], [-120.66468941853661, 39.72993652926772], [-120.66474204993078, 39.733583085881996], [-120.66955322177662, 39.733608323166706], [-120.67436442147029, 39.73363358807519], [-120.67911636828777, 39.73365452080345], [-120.68357986247428, 39.733673931635614], [-120.68357738761567, 39.7334203779869], [-120.68354420474738, 39.72999554418199], [-120.6835423128954, 39.729802655686626], [-120.68350857307163, 39.72631729484697], [-120.68350743400788, 39.72618507378236], [-120.68347705478158, 39.72263379507403], [-120.68347648794462, 39.7225676841509], [-120.68344556254266, 39.718950463363704], [-120.67905729148143, 39.71896104838674], [-120.67892934353719, 39.718961273644084], [-120.67421722801939, 39.718972922073455], [-120.6741320300012, 39.71897306303203], [-120.66937524755254, 39.718984877292954]]]}, "properties": {"OBJECTID": 1977874, "PLSSID": "CA210220N0120E0", "FRSTDIVID": "CA210220N0120E0SN310", "FRSTDIVTYP": "SN", "FRSTDIVTXT": "Section", "FRSTDIVNO": "31", "FRSTDIVDUP": "0", "FRSTDIVLAB": "31", "SURVTYP": null, "SURVTYPTXT": null, "SOURCEDATE": null, "SOURCEREF": null, "Shape.STArea()": 4457135.02495714, "Shape.STLength()": 8444.986972944209}}, {"type": "Feature", "id": 1977875, "geometry": {"type": "Polygon", "coordinates": [[[-120.60792394058687, 39.74445748590571], [-120.6079297724497, 39.740795229740726], [-120.60793563395691, 39.73713297443597], [-120.60794146671809, 39.73347071864559], [-120.60318935281394, 39.733444896869734], [-120.5984372685542, 39.73341907508426], [-120.59368515285342, 39.73339325259821], [-120.588933038051, 39.733367459117346], [-120.58893101324833, 39.737046715956964], [-120.58892898844567, 39.74072600158495], [-120.58892696274472, 39.74440525794018], [-120.58892493884038, 39.74808454300848], [-120.59367321603993, 39.74809333538435], [-120.59842152288392, 39.74810212844972], [-120.60316980008345, 39.748110947759905], [-120.60791810602909, 39.74811974151373], [-120.60792394058687, 39.74445748590571]]]}, "properties": {"OBJECTID": 1977875, "PLSSID": "CA210220N0120E0", "FRSTDIVID": "CA210220N0120E0SN260", "FRSTDIVTYP": "SN", "FRSTDIVTXT": "Section", "FRSTDIVNO": "26", "FRSTDIVDUP": "0", "FRSTDIVLAB": "26", "SURVTYP": null, "SURVTYPTXT": null, "SOURCEDATE": null, "SOURCEREF": null, "Shape.STArea()": 4496113.08364475, "Shape.STLength()": 8481.684818818874}}, {"type": "Feature", "id": 1977877, "geometry": {"type": "Polygon", "coordinates": [[[-120.64570825463672, 39.719016009083845], [-120.64571813700314, 39.722661761420184], [-120.64572804991232, 39.72630751377863], [-120.64573793317707, 39.72995326681505], [-120.64574781913677, 39.733599020494054], [-120.6504963757124, 39.73359503580517], [-120.6552449340846, 39.73359105249767], [-120.65999349335517, 39.733587069189944], [-120.66474204993078, 39.733583085881996], [-120.66468941853661, 39.72993652926772], [-120.66463681139693, 39.72629000153821], [-120.66458420515558, 39.7226434446946], [-120.66453157465972, 39.71899691680908], [-120.65981984721412, 39.71900167623156], [-120.6551080937174, 39.719006463292615], [-120.65040817282957, 39.7190112220235], [-120.64570825463672, 39.719016009083845]]]}, "properties": {"OBJECTID": 1977877, "PLSSID": "CA210220N0120E0", "FRSTDIVID": "CA210220N0120E0SN320", "FRSTDIVTYP": "SN", "FRSTDIVTXT": "Section", "FRSTDIVNO": "32", "FRSTDIVDUP": "0", "FRSTDIVLAB": "32", "SURVTYP": null, "SURVTYPTXT": null, "SOURCEDATE": null, "SOURCEREF": null, "Shape.STArea()": 4443421.562798085, "Shape.STLength()": 8431.87928451333}}, {"type": "Feature", "id": 1977879, "geometry": {"type": "Polygon", "coordinates": [[[-120.66495909188657, 39.77387433408272], [-120.66497566580358, 39.77749502051221], [-120.66974411557116, 39.777498613974544], [-120.67451256803366, 39.777502236432966], [-120.67924451835295, 39.77749916628381], [-120.68349998248257, 39.7774957992683], [-120.68349676741218, 39.773919058976915], [-120.68349356671482, 39.77034231924085], [-120.68349036601745, 39.76676646737853], [-120.68348715004875, 39.76319061553995], [-120.679058407189, 39.76315542887875], [-120.67435123779516, 39.76311722181774], [-120.66963031788924, 39.76306476286004], [-120.66490937013559, 39.76301227831273], [-120.6649259440526, 39.766632963638855], [-120.66494251796959, 39.77025364913717], [-120.66495909188657, 39.77387433408272]]]}, "properties": {"OBJECTID": 1977879, "PLSSID": "CA210220N0120E0", "FRSTDIVID": "CA210220N0120E0SN180", "FRSTDIVTYP": "SN", "FRSTDIVTXT": "Section", "FRSTDIVNO": "18", "FRSTDIVDUP": "0", "FRSTDIVLAB": "18", "SURVTYP": null, "SURVTYPTXT": null, "SOURCEDATE": null, "SOURCEREF": null, "Shape.STArea()": 4303900.81602466, "Shape.STLength()": 8299.75703828866}}, {"type": "Feature", "id": 1977880, "geometry": {"type": "Polygon", "coordinates": [[[-120.64572804991232, 39.72630751377863], [-120.64571813700314, 39.722661761420184], [-120.64570825463672, 39.719016009083845], [-120.64098902715682, 39.719016101674235], [-120.6362698005752, 39.71901619357364], [-120.63156476827345, 39.719016313111915], [-120.62685976471775, 39.719016433341224], [-120.62686220723698, 39.722651939068015], [-120.62686464885793, 39.72628744313545], [-120.6268670913772, 39.72992294758135], [-120.62686953209983, 39.73355845168013], [-120.63158911710921, 39.73356858058744], [-120.63630867606746, 39.73357873643549], [-120.64102826017853, 39.733588891591225], [-120.64574781913677, 39.733599020494054], [-120.64573793317707, 39.72995326681505], [-120.64572804991232, 39.72630751377863]]]}, "properties": {"OBJECTID": 1977880, "PLSSID": "CA210220N0120E0", "FRSTDIVID": "CA210220N0120E0SN330", "FRSTDIVTYP": "SN", "FRSTDIVTXT": "Section", "FRSTDIVNO": "33", "FRSTDIVDUP": "0", "FRSTDIVLAB": "33", "SURVTYP": null, "SURVTYPTXT": null, "SOURCEDATE": null, "SOURCEREF": null, "Shape.STArea()": 4426004.377999435, "Shape.STLength()": 8415.259381889426}}, {"type": "Feature", "id": 1977881, "geometry": {"type": "Polygon", "coordinates": [[[-120.62686255129177, 39.777340455197255], [-120.62686240217143, 39.77372171246668], [-120.62686225394941, 39.77010293897436], [-120.62686210213411, 39.766484167893715], [-120.62686195301377, 39.76286542204714], [-120.6221216438708, 39.76284577084568], [-120.61738133652445, 39.76282611825763], [-120.61264099863536, 39.76280646566391], [-120.60790068949237, 39.76278684068594], [-120.60790014241836, 39.76642453101622], [-120.60789959444604, 39.770062249417826], [-120.60789904737203, 39.77369996754402], [-120.60789847065364, 39.777337657744226], [-120.61263536619855, 39.77734580846704], [-120.61737226084514, 39.77735393226378], [-120.62211740561929, 39.77734719407602], [-120.62686255129177, 39.777340455197255]]]}, "properties": {"OBJECTID": 1977881, "PLSSID": "CA210220N0120E0", "FRSTDIVID": "CA210220N0120E0SN150", "FRSTDIVTYP": "SN", "FRSTDIVTXT": "Section", "FRSTDIVNO": "15", "FRSTDIVDUP": "0", "FRSTDIVLAB": "15", "SURVTYP": null, "SURVTYPTXT": null, "SOURCEDATE": null, "SOURCEREF": null, "Shape.STArea()": 4439247.339236745, "Shape.STLength()": 8425.701529545482}}, {"type": "Feature", "id": 1977883, "geometry": {"type": "Polygon", "coordinates": [[[-120.66490937013559, 39.76301227831273], [-120.66963031788924, 39.76306476286004], [-120.67435123779516, 39.76311722181774], [-120.679058407189, 39.76315542887875], [-120.68348715004875, 39.76319061553995], [-120.68350274031049, 39.759479209668974], [-120.6835183278773, 39.75576777642341], [-120.68353058359274, 39.75205625851265], [-120.68354285188455, 39.748344737460265], [-120.67913794492259, 39.74831563293328], [-120.67440375061172, 39.74828400603221], [-120.66962886082189, 39.748246825359466], [-120.66485394138762, 39.748209672984515], [-120.66486780957898, 39.751910306417585], [-120.66488166339731, 39.755610963434314], [-120.66489551631727, 39.75931161982419], [-120.66490937013559, 39.76301227831273]]]}, "properties": {"OBJECTID": 1977883, "PLSSID": "CA210220N0120E0", "FRSTDIVID": "CA210220N0120E0SN190", "FRSTDIVTYP": "SN", "FRSTDIVTXT": "Section", "FRSTDIVNO": "19", "FRSTDIVDUP": "0", "FRSTDIVLAB": "19", "SURVTYP": null, "SURVTYPTXT": null, "SOURCEDATE": null, "SOURCEREF": null, "Shape.STArea()": 4454263.53681831, "Shape.STLength()": 8441.90023627531}}, {"type": "Feature", "id": 1977885, "geometry": {"type": "Polygon", "coordinates": [[[-120.64583857682823, 39.76295769795945], [-120.6458498129558, 39.766572440293146], [-120.6458610787278, 39.77018718342408], [-120.64587231395704, 39.77380192662741], [-120.64588357972902, 39.777416669868764], [-120.65065658754837, 39.77743626375147], [-120.65542962231714, 39.777455858319], [-120.66020262923814, 39.77747542457508], [-120.66497566580358, 39.77749502051221], [-120.66495909188657, 39.77387433408272], [-120.66494251796959, 39.77025364913717], [-120.6649259440526, 39.766632963638855], [-120.66490937013559, 39.76301227831273], [-120.6601416713596, 39.76299862580525], [-120.65537397348191, 39.76298500091636], [-120.65060627560423, 39.76297134909401], [-120.64583857682823, 39.76295769795945]]]}, "properties": {"OBJECTID": 1977885, "PLSSID": "CA210220N0120E0", "FRSTDIVID": "CA210220N0120E0SN170", "FRSTDIVTYP": "SN", "FRSTDIVTXT": "Section", "FRSTDIVNO": "17", "FRSTDIVDUP": "0", "FRSTDIVLAB": "17", "SURVTYP": null, "SURVTYPTXT": null, "SOURCEDATE": null, "SOURCEREF": null, "Shape.STArea()": 4451769.65688685, "Shape.STLength()": 8439.995589205422}}, {"type": "Feature", "id": 1977886, "geometry": {"type": "Polygon", "coordinates": [[[-120.62686953209983, 39.73355845168013], [-120.62686814150777, 39.73721331687703], [-120.62686675091572, 39.74086821069302], [-120.626865358527, 39.74452307575858], [-120.62686396793497, 39.748177969369294], [-120.63159552209721, 39.74819040092894], [-120.63632705020827, 39.74820283317699], [-120.64105860616715, 39.74821526473216], [-120.64579016212599, 39.748227697666415], [-120.6457796662102, 39.74459149955925], [-120.64576914244665, 39.74095532990267], [-120.64575848124088, 39.737277188722764], [-120.64574781913677, 39.733599020494054], [-120.64102826017853, 39.733588891591225], [-120.63630867606746, 39.73357873643549], [-120.63158911710921, 39.73356858058744], [-120.62686953209983, 39.73355845168013]]]}, "properties": {"OBJECTID": 1977886, "PLSSID": "CA210220N0120E0", "FRSTDIVID": "CA210220N0120E0SN280", "FRSTDIVTYP": "SN", "FRSTDIVTXT": "Section", "FRSTDIVNO": "28", "FRSTDIVDUP": "0", "FRSTDIVLAB": "28", "SURVTYP": null, "SURVTYPTXT": null, "SOURCEDATE": null, "SOURCEREF": null, "Shape.STArea()": 4454813.095390025, "Shape.STLength()": 8442.64524361727}}, {"type": "Feature", "id": 1977887, "geometry": {"type": "Polygon", "coordinates": [[[-120.66490937013559, 39.76301227831273], [-120.66489551631727, 39.75931161982419], [-120.66488166339731, 39.755610963434314], [-120.66486780957898, 39.751910306417585], [-120.66485394138762, 39.748209672984515], [-120.66008799522476, 39.74821415826237], [-120.65532205265512, 39.748218670476454], [-120.65055610649226, 39.748223184071584], [-120.64579016212599, 39.748227697666415], [-120.64580224985646, 39.75191019384275], [-120.64581435106165, 39.75559268585051], [-120.645826478318, 39.75927520680143], [-120.64583857682823, 39.76295769795945], [-120.65060627560423, 39.76297134909401], [-120.65537397348191, 39.76298500091636], [-120.6601416713596, 39.76299862580525], [-120.66490937013559, 39.76301227831273]]]}, "properties": {"OBJECTID": 1977887, "PLSSID": "CA210220N0120E0", "FRSTDIVID": "CA210220N0120E0SN200", "FRSTDIVTYP": "SN", "FRSTDIVTXT": "Section", "FRSTDIVNO": "20", "FRSTDIVDUP": "0", "FRSTDIVLAB": "20", "SURVTYP": null, "SURVTYPTXT": null, "SOURCEDATE": null, "SOURCEREF": null, "Shape.STArea()": 4538377.60815564, "Shape.STLength()": 8521.484009152085}}, {"type": "Feature", "id": 1977889, "geometry": {"type": "Polygon", "coordinates": [[[-120.59842152288392, 39.74810212844972], [-120.59367321603993, 39.74809333538435], [-120.58892493884038, 39.74808454300848], [-120.58892299758107, 39.75173637806349], [-120.58892105811836, 39.755388208763], [-120.58891911685903, 39.7590400399062], [-120.58891717829464, 39.76269187007671], [-120.59366304172104, 39.76271560721702], [-120.5984089329952, 39.762739341587], [-120.603154826066, 39.76276310495123], [-120.60790068949237, 39.76278684068594], [-120.60790504182994, 39.75912006745517], [-120.60790939686244, 39.75545329304402], [-120.60791374919998, 39.751786519560014], [-120.60791810602909, 39.74811974151373], [-120.60316980008345, 39.748110947759905], [-120.59842152288392, 39.74810212844972]]]}, "properties": {"OBJECTID": 1977889, "PLSSID": "CA210220N0120E0", "FRSTDIVID": "CA210220N0120E0SN230", "FRSTDIVTYP": "SN", "FRSTDIVTXT": "Section", "FRSTDIVNO": "23", "FRSTDIVDUP": "0", "FRSTDIVLAB": "23", "SURVTYP": null, "SURVTYPTXT": null, "SOURCEDATE": null, "SOURCEREF": null, "Shape.STArea()": 4480085.041734425, "Shape.STLength()": 8466.531656487854}}, {"type": "Feature", "id": 1977893, "geometry": {"type": "Polygon", "coordinates": [[[-120.66474204993078, 39.733583085881996], [-120.6647700162822, 39.73723972510373], [-120.66479798263363, 39.740896365125934], [-120.66482597503621, 39.74455300453156], [-120.66485394138762, 39.748209672984515], [-120.66962886082189, 39.748246825359466], [-120.67440375061172, 39.74828400603221], [-120.67913794492259, 39.74831563293328], [-120.68354285188455, 39.748344737460265], [-120.68355655658256, 39.744683875933866], [-120.68355838465413, 39.74427099043024], [-120.68357084428713, 39.74102159864494], [-120.68357147759939, 39.740653961982545], [-120.68357538167761, 39.73734768172406], [-120.683575961091, 39.737037072497], [-120.68357986247428, 39.733673931635614], [-120.67911636828777, 39.73365452080345], [-120.67436442147029, 39.73363358807519], [-120.66955322177662, 39.733608323166706], [-120.66474204993078, 39.733583085881996]]]}, "properties": {"OBJECTID": 1977893, "PLSSID": "CA210220N0120E0", "FRSTDIVID": "CA210220N0120E0SN300", "FRSTDIVTYP": "SN", "FRSTDIVTXT": "Section", "FRSTDIVNO": "30", "FRSTDIVDUP": "0", "FRSTDIVLAB": "30", "SURVTYP": null, "SURVTYPTXT": null, "SOURCEDATE": null, "SOURCEREF": null, "Shape.STArea()": 4430774.686601625, "Shape.STLength()": 8419.001448058687}}, {"type": "Feature", "id": 1977894, "geometry": {"type": "Polygon", "coordinates": [[[-120.61267347093627, 39.733492651742004], [-120.60794146671809, 39.73347071864559], [-120.60793563395691, 39.73713297443597], [-120.6079297724497, 39.740795229740726], [-120.60792394058687, 39.74445748590571], [-120.60791810602909, 39.74811974151373], [-120.61265455151806, 39.74813428449594], [-120.61739102305815, 39.74814885579301], [-120.62212749459823, 39.74816339876907], [-120.62686396793497, 39.748177969369294], [-120.626865358527, 39.74452307575858], [-120.62686675091572, 39.74086821069302], [-120.62686814150777, 39.73721331687703], [-120.62686953209983, 39.73355845168013], [-120.62213752967828, 39.73353651929555], [-120.61740549940896, 39.733514585522244], [-120.61267347093627, 39.733492651742004]]]}, "properties": {"OBJECTID": 1977894, "PLSSID": "CA210220N0120E0", "FRSTDIVID": "CA210220N0120E0SN270", "FRSTDIVTYP": "SN", "FRSTDIVTXT": "Section", "FRSTDIVNO": "27", "FRSTDIVDUP": "0", "FRSTDIVLAB": "27", "SURVTYP": null, "SURVTYPTXT": null, "SOURCEDATE": null, "SOURCEREF": null, "Shape.STArea()": 4466121.921567315, "Shape.STLength()": 8453.348706160567}}, {"type": "Feature", "id": 1977896, "geometry": {"type": "Polygon", "coordinates": [[[-120.60790068949237, 39.76278684068594], [-120.603154826066, 39.76276310495123], [-120.5984089329952, 39.762739341587], [-120.59366304172104, 39.76271560721702], [-120.58891717829464, 39.76269187007671], [-120.58891415366709, 39.76633958939213], [-120.58891115868393, 39.769987283243466], [-120.58890813495469, 39.773635002000624], [-120.5889051103271, 39.77728272284151], [-120.59365345130706, 39.777296456053485], [-120.59840179138868, 39.77731018995317], [-120.60315013147033, 39.77732392454047], [-120.60789847065364, 39.777337657744226], [-120.60789904737203, 39.77369996754402], [-120.60789959444604, 39.770062249417826], [-120.60790014241836, 39.76642453101622], [-120.60790068949237, 39.76278684068594]]]}, "properties": {"OBJECTID": 1977896, "PLSSID": "CA210220N0120E0", "FRSTDIVID": "CA210220N0120E0SN140", "FRSTDIVTYP": "SN", "FRSTDIVTXT": "Section", "FRSTDIVNO": "14", "FRSTDIVDUP": "0", "FRSTDIVLAB": "14", "SURVTYP": null, "SURVTYPTXT": null, "SOURCEDATE": null, "SOURCEREF": null, "Shape.STArea()": 4460735.099856955, "Shape.STLength()": 8448.233267694683}}, {"type": "Feature", "id": 1977897, "geometry": {"type": "Polygon", "coordinates": [[[-120.60795702374214, 39.726205678521794], [-120.60794924612843, 39.729838184782274], [-120.60794146671809, 39.73347071864559], [-120.61267347093627, 39.733492651742004], [-120.61740549940896, 39.733514585522244], [-120.62213752967828, 39.73353651929555], [-120.62686953209983, 39.73355845168013], [-120.6268670913772, 39.72992294758135], [-120.62686464885793, 39.72628744313545], [-120.62686220723698, 39.722651939068015], [-120.62685976471775, 39.719016433341224], [-120.62213795547973, 39.718997471660494], [-120.61741617229285, 39.71897853623152], [-120.61269439090258, 39.71895960148833], [-120.60797260951233, 39.71894066604896], [-120.60796480045757, 39.72257317226573], [-120.60795702374214, 39.726205678521794]]]}, "properties": {"OBJECTID": 1977897, "PLSSID": "CA210220N0120E0", "FRSTDIVID": "CA210220N0120E0SN340", "FRSTDIVTYP": "SN", "FRSTDIVTXT": "Section", "FRSTDIVNO": "34", "FRSTDIVDUP": "0", "FRSTDIVLAB": "34", "SURVTYP": null, "SURVTYPTXT": null, "SOURCEDATE": null, "SOURCEREF": null, "Shape.STArea()": 4428333.500058935, "Shape.STLength()": 8417.493503494705}}, {"type": "Feature", "id": 1977898, "geometry": {"type": "Polygon", "coordinates": [[[-120.6504963757124, 39.73359503580517], [-120.64574781913677, 39.733599020494054], [-120.64575848124088, 39.737277188722764], [-120.64576914244665, 39.74095532990267], [-120.6457796662102, 39.74459149955925], [-120.64579016212599, 39.748227697666415], [-120.65055610649226, 39.748223184071584], [-120.65532205265512, 39.748218670476454], [-120.66008799522476, 39.74821415826237], [-120.66485394138762, 39.748209672984515], [-120.66482597503621, 39.74455300453156], [-120.66479798263363, 39.740896365125934], [-120.6647700162822, 39.73723972510373], [-120.66474204993078, 39.733583085881996], [-120.65999349335517, 39.733587069189944], [-120.6552449340846, 39.73359105249767], [-120.6504963757124, 39.73359503580517]]]}, "properties": {"OBJECTID": 1977898, "PLSSID": "CA210220N0120E0", "FRSTDIVID": "CA210220N0120E0SN290", "FRSTDIVTYP": "SN", "FRSTDIVTXT": "Section", "FRSTDIVNO": "29", "FRSTDIVDUP": "0", "FRSTDIVLAB": "29", "SURVTYP": null, "SURVTYPTXT": null, "SOURCEDATE": null, "SOURCEREF": null, "Shape.STArea()": 4485795.459176305, "Shape.STLength()": 8471.911142201052}}, {"type": "Feature", "id": 1977899, "geometry": {"type": "Polygon", "coordinates": [[[-120.62686195301377, 39.76286542204714], [-120.63160609526808, 39.76288849069155], [-120.63635026537015, 39.76291156070927], [-120.64109440672615, 39.762934629338226], [-120.64583857682823, 39.76295769795945], [-120.645826478318, 39.75927520680143], [-120.64581435106165, 39.75559268585051], [-120.64580224985646, 39.75191019384275], [-120.64579016212599, 39.748227697666415], [-120.64105860616715, 39.74821526473216], [-120.63632705020827, 39.74820283317699], [-120.63159552209721, 39.74819040092894], [-120.62686396793497, 39.748177969369294], [-120.62686344421716, 39.751849828145815], [-120.62686295643196, 39.75552168388996], [-120.62686243990068, 39.75919353863801], [-120.62686195301377, 39.76286542204714]]]}, "properties": {"OBJECTID": 1977899, "PLSSID": "CA210220N0120E0", "FRSTDIVID": "CA210220N0120E0SN210", "FRSTDIVTYP": "SN", "FRSTDIVTXT": "Section", "FRSTDIVNO": "21", "FRSTDIVDUP": "0", "FRSTDIVLAB": "21", "SURVTYP": null, "SURVTYPTXT": null, "SOURCEDATE": null, "SOURCEREF": null, "Shape.STArea()": 4493187.80550584, "Shape.STLength()": 8479.037688591687}}, {"type": "Feature", "id": 1977904, "geometry": {"type": "Polygon", "coordinates": [[[-120.62212749459823, 39.74816339876907], [-120.61739102305815, 39.74814885579301], [-120.61265455151806, 39.74813428449594], [-120.60791810602909, 39.74811974151373], [-120.60791374919998, 39.751786519560014], [-120.60790939686244, 39.75545329304402], [-120.60790504182994, 39.75912006745517], [-120.60790068949237, 39.76278684068594], [-120.61264099863536, 39.76280646566391], [-120.61738133652445, 39.76282611825763], [-120.6221216438708, 39.76284577084568], [-120.62686195301377, 39.76286542204714], [-120.62686243990068, 39.75919353863801], [-120.62686295643196, 39.75552168388996], [-120.62686344421716, 39.751849828145815], [-120.62686396793497, 39.748177969369294], [-120.62212749459823, 39.74816339876907]]]}, "properties": {"OBJECTID": 1977904, "PLSSID": "CA210220N0120E0", "FRSTDIVID": "CA210220N0120E0SN220", "FRSTDIVTYP": "SN", "FRSTDIVTXT": "Section", "FRSTDIVNO": "22", "FRSTDIVDUP": "0", "FRSTDIVLAB": "22", "SURVTYP": null, "SURVTYPTXT": null, "SOURCEDATE": null, "SOURCEREF": null, "Shape.STArea()": 4484118.506746315, "Shape.STLength()": 8470.391822339081}}, {"type": "Feature", "id": 1977905, "geometry": {"type": "Polygon", "coordinates": [[[-120.60797260951233, 39.71894066604896], [-120.60324415902942, 39.71890398224801], [-120.59851570944481, 39.71886729704562], [-120.5937872598602, 39.718830612514665], [-120.58905883632674, 39.718793927273204], [-120.58902736744403, 39.72243729586561], [-120.58899592371415, 39.726080693061306], [-120.58896448088257, 39.72972406286057], [-120.588933038051, 39.733367459117346], [-120.59368515285342, 39.73339325259821], [-120.5984372685542, 39.73341907508426], [-120.60318935281394, 39.733444896869734], [-120.60794146671809, 39.73347071864559], [-120.60794924612843, 39.729838184782274], [-120.60795702374214, 39.726205678521794], [-120.60796480045757, 39.72257317226573], [-120.60797260951233, 39.71894066604896]]]}, "properties": {"OBJECTID": 1977905, "PLSSID": "CA210220N0120E0", "FRSTDIVID": "CA210220N0120E0SN350", "FRSTDIVTYP": "SN", "FRSTDIVTXT": "Section", "FRSTDIVNO": "35", "FRSTDIVDUP": "0", "FRSTDIVLAB": "35", "SURVTYP": null, "SURVTYPTXT": null, "SOURCEDATE": null, "SOURCEREF": null, "Shape.STArea()": 4445803.27173834, "Shape.STLength()": 8434.096730409885}}, {"type": "Feature", "id": 1977907, "geometry": {"type": "Polygon", "coordinates": [[[-120.6458610787278, 39.77018718342408], [-120.6458498129558, 39.766572440293146], [-120.64583857682823, 39.76295769795945], [-120.64109440672615, 39.762934629338226], [-120.63635026537015, 39.76291156070927], [-120.63160609526808, 39.76288849069155], [-120.62686195301377, 39.76286542204714], [-120.62686210213411, 39.766484167893715], [-120.62686225394941, 39.77010293897436], [-120.62686240217143, 39.77372171246668], [-120.62686255129177, 39.777340455197255], [-120.63161780840109, 39.77735952302601], [-120.6363730655104, 39.777378562543554], [-120.64112832261969, 39.777397630361754], [-120.64588357972902, 39.777416669868764], [-120.64587231395704, 39.77380192662741], [-120.6458610787278, 39.77018718342408]]]}, "properties": {"OBJECTID": 1977907, "PLSSID": "CA210220N0120E0", "FRSTDIVID": "CA210220N0120E0SN160", "FRSTDIVTYP": "SN", "FRSTDIVTXT": "Section", "FRSTDIVNO": "16", "FRSTDIVDUP": "0", "FRSTDIVLAB": "16", "SURVTYP": null, "SURVTYPTXT": null, "SOURCEDATE": null, "SOURCEREF": null, "Shape.STArea()": 4431337.19970236, "Shape.STLength()": 8420.494536120174}}, {"type": "Feature", "id": 1980617, "geometry": {"type": "Polygon", "coordinates": [[[-120.66445185007656, 39.704373301088864], [-120.66448298119273, 39.707900025963205], [-120.66451408356282, 39.71142672191232], [-120.6645207418757, 39.71500061207102], [-120.66453157465972, 39.71899691680908], [-120.66933277430759, 39.71898493395274], [-120.66937524755254, 39.718984877292954], [-120.6741320300012, 39.71897306303203], [-120.67421722801939, 39.718972922073455], [-120.67892934353719, 39.718961273644084], [-120.67905729148143, 39.71896104838674], [-120.68344556254266, 39.718950463363704], [-120.68344490497587, 39.715277740946334], [-120.68344424740908, 39.71160504616664], [-120.68344300773401, 39.70789226923309], [-120.68344188124664, 39.70453482314785], [-120.68344179411004, 39.70417951987125], [-120.67976818226465, 39.70428575622505], [-120.67863881400127, 39.704286778392195], [-120.67392583520248, 39.70430397968687], [-120.66918882826648, 39.704338626919736], [-120.66445185007656, 39.704373301088864]]]}, "properties": {"OBJECTID": 1980617, "PLSSID": "CA210210N0120E0", "FRSTDIVID": "CA210210N0120E0SN060", "FRSTDIVTYP": "SN", "FRSTDIVTXT": "Section", "FRSTDIVNO": "06", "FRSTDIVDUP": "0", "FRSTDIVLAB": "06", "SURVTYP": null, "SURVTYPTXT": null, "SOURCEDATE": null, "SOURCEREF": null, "Shape.STArea()": 4475854.909936915, "Shape.STLength()": 8473.451978512478}}, {"type": "Feature", "id": 1980629, "geometry": {"type": "Polygon", "coordinates": [[[-120.58903627424006, 39.704279926623784], [-120.58903658056559, 39.70785443442873], [-120.58903691473886, 39.711428913919455], [-120.58904786160893, 39.71502744825152], [-120.58905883632674, 39.718793927273204], [-120.5937872598602, 39.718830612514665], [-120.59851570944481, 39.71886729704562], [-120.60324415902942, 39.71890398224801], [-120.60797260951233, 39.71894066604896], [-120.60796357964709, 39.71524563383396], [-120.60795471866514, 39.7116282667288], [-120.60794794087634, 39.70801653852367], [-120.60794116398584, 39.70440481060551], [-120.60321493323994, 39.70437359619693], [-120.59848873213852, 39.7043423824653], [-120.5937625031893, 39.70431116802842], [-120.58903627424006, 39.704279926623784]]]}, "properties": {"OBJECTID": 1980629, "PLSSID": "CA210210N0120E0", "FRSTDIVID": "CA210210N0120E0SN020", "FRSTDIVTYP": "SN", "FRSTDIVTXT": "Section", "FRSTDIVNO": "02", "FRSTDIVDUP": "0", "FRSTDIVLAB": "02", "SURVTYP": null, "SURVTYPTXT": null, "SOURCEDATE": null, "SOURCEREF": null, "Shape.STArea()": 4425300.16456558, "Shape.STLength()": 8413.889232463793}}, {"type": "Feature", "id": 1980642, "geometry": {"type": "Polygon", "coordinates": [[[-120.65975106590774, 39.70435178169515], [-120.65505028173895, 39.70433028924844], [-120.65034949757015, 39.70430876984131], [-120.64564868465527, 39.70428727669008], [-120.64566437463, 39.7078744751914], [-120.64568003585869, 39.71146167239404], [-120.64569336416257, 39.715066729557215], [-120.64570825463672, 39.719016009083845], [-120.65040817282957, 39.7190112220235], [-120.6551080937174, 39.719006463292615], [-120.65981984721412, 39.71900167623156], [-120.66453157465972, 39.71899691680908], [-120.6645207418757, 39.71500061207102], [-120.66451408356282, 39.71142672191232], [-120.66448298119273, 39.707900025963205], [-120.66445185007656, 39.704373301088864], [-120.65975106590774, 39.70435178169515]]]}, "properties": {"OBJECTID": 1980642, "PLSSID": "CA210210N0120E0", "FRSTDIVID": "CA210210N0120E0SN050", "FRSTDIVTYP": "SN", "FRSTDIVTXT": "Section", "FRSTDIVNO": "05", "FRSTDIVDUP": "0", "FRSTDIVLAB": "05", "SURVTYP": null, "SURVTYPTXT": null, "SOURCEDATE": null, "SOURCEREF": null, "Shape.STArea()": 4450146.280479325, "Shape.STLength()": 8436.157110275379}}, {"type": "Feature", "id": 1980643, "geometry": {"type": "Polygon", "coordinates": [[[-120.6363058697305, 39.70432887383463], [-120.63163447664118, 39.7043496862199], [-120.62696305480574, 39.7043704985989], [-120.62693732975097, 39.70797044879502], [-120.62691160289954, 39.71157039774533], [-120.62688648869916, 39.71518184730046], [-120.62685976471775, 39.719016433341224], [-120.63156476827345, 39.719016313111915], [-120.6362698005752, 39.71901619357364], [-120.64098902715682, 39.719016101674235], [-120.64570825463672, 39.719016009083845], [-120.64569336416257, 39.715066729557215], [-120.64568003585869, 39.71146167239404], [-120.64566437463, 39.7078744751914], [-120.64564868465527, 39.70428727669008], [-120.6409772906676, 39.704308089087895], [-120.6363058697305, 39.70432887383463]]]}, "properties": {"OBJECTID": 1980643, "PLSSID": "CA210210N0120E0", "FRSTDIVID": "CA210210N0120E0SN040", "FRSTDIVTYP": "SN", "FRSTDIVTXT": "Section", "FRSTDIVNO": "04", "FRSTDIVDUP": "0", "FRSTDIVLAB": "04", "SURVTYP": null, "SURVTYPTXT": null, "SOURCEDATE": null, "SOURCEREF": null, "Shape.STArea()": 4440536.36563584, "Shape.STLength()": 8429.10693051941}}, {"type": "Feature", "id": 1980646, "geometry": {"type": "Polygon", "coordinates": [[[-120.62691160289954, 39.71157039774533], [-120.62693732975097, 39.70797044879502], [-120.62696305480574, 39.7043704985989], [-120.62220760276203, 39.70437906295257], [-120.61745212376881, 39.7043876549499], [-120.61269664387731, 39.70439621861031], [-120.60794116398584, 39.70440481060551], [-120.60794794087634, 39.70801653852367], [-120.60795471866514, 39.7116282667288], [-120.60796357964709, 39.71524563383396], [-120.60797260951233, 39.71894066604896], [-120.61269439090258, 39.71895960148833], [-120.61741617229285, 39.71897853623152], [-120.62213795547973, 39.718997471660494], [-120.62685976471775, 39.719016433341224], [-120.62688648869916, 39.71518184730046], [-120.62691160289954, 39.71157039774533]]]}, "properties": {"OBJECTID": 1980646, "PLSSID": "CA210210N0120E0", "FRSTDIVID": "CA210210N0120E0SN030", "FRSTDIVTYP": "SN", "FRSTDIVTXT": "Section", "FRSTDIVNO": "03", "FRSTDIVDUP": "0", "FRSTDIVLAB": "03", "SURVTYP": null, "SURVTYPTXT": null, "SOURCEDATE": null, "SOURCEREF": null, "Shape.STArea()": 4455288.703214385, "Shape.STLength()": 8442.92547254395}}]}