{"type": "FeatureCollection", "features": [{"type": "Feature", "id": 42611, "geometry": {"type": "Polygon", "coordinates": [[[-120.5999242848783, 39.63137719811641], [-120.59830709188977, 39.63138008935805], [-120.59524543487382, 39.63139039377281], [-120.59354815707766, 39.631393590119806], [-120.59056786227362, 39.63140336526741], [-120.58879041522829, 39.63140684112107], [-120.5858884831614, 39.63141581026187], [-120.5840382285606, 39.63141895402704], [-120.58122766144633, 39.63142619769323], [-120.5793072924393, 39.63142959329123], [-120.5765673400929, 39.63143647650272], [-120.57457677403458, 39.631440122549755], [-120.57190743555772, 39.631446669521345], [-120.56984661585432, 39.631450568092816], [-120.56983795340001, 39.635100159388614], [-120.56982926309794, 39.63874977950753], [-120.56982057369423, 39.642399371687304], [-120.56981188429047, 39.64604896425701], [-120.56981147286207, 39.64973744406587], [-120.569811062332, 39.65342589655128], [-120.56981065000527, 39.65711435003673], [-120.56981023947517, 39.66080283007321], [-120.56981102011115, 39.664435756460584], [-120.56981180434042, 39.668068709675325], [-120.56981758679592, 39.6717136351107], [-120.56982334230192, 39.67535856045482], [-120.56982034642044, 39.679009347137956], [-120.56981732358952, 39.68266010538709], [-120.56981432860637, 39.686310863514954], [-120.56981130667373, 39.68996165051929], [-120.56979722288672, 39.69349768796403], [-120.56978314269297, 39.697033725375874], [-120.5697690624992, 39.700569761340404], [-120.56975498140714, 39.704105799972616], [-120.56974304100036, 39.70772350346832], [-120.5697311005936, 39.7113412066276], [-120.56972513308519, 39.71496154908793], [-120.5697191934245, 39.71858186391826], [-120.57455409067535, 39.71863487981814], [-120.57938901487563, 39.71868789567726], [-120.58422391302477, 39.71874091080465], [-120.58905883632674, 39.718793927273204], [-120.5937872598602, 39.718830612514665], [-120.59851570944481, 39.71886729704562], [-120.60324415902942, 39.71890398224801], [-120.60797260951233, 39.71894066604896], [-120.61269439090258, 39.71895960148833], [-120.61741617229285, 39.71897853623152], [-120.62213795547973, 39.718997471660494], [-120.62685976471775, 39.719016433341224], [-120.63156476827345, 39.719016313111915], [-120.6362698005752, 39.71901619357364], [-120.64098902715682, 39.719016101674235], [-120.64570825463672, 39.719016009083845], [-120.65040817282957, 39.7190112220235], [-120.6551080937174, 39.719006463292615], [-120.65981984721412, 39.71900167623156], [-120.66453157465972, 39.71899691680908], [-120.66933277430759, 39.71898493395274], [-120.66937524755254, 39.718984877292954], [-120.6741320300012, 39.71897306303203], [-120.67421722801939, 39.718972922073455], [-120.67892934353719, 39.718961273644084], [-120.67905729148143, 39.71896104838674], [-120.68344556254266, 39.718950463363704], [-120.68344490497587, 39.715277740946334], [-120.68344424740908, 39.71160504616664], [-120.68344300773401, 39.70789226923309], [-120.68344188124664, 39.70453482314785], [-120.68344179411004, 39.70417951987125], [-120.68343745345058, 39.70144759580981], [-120.68343877666902, 39.70057110287744], [-120.68344417464556, 39.69696268658751], [-120.68345271313233, 39.69339565703284], [-120.68346128126352, 39.68982865536385], [-120.68347201163957, 39.68621657214222], [-120.68348274560891, 39.68260448799386], [-120.6834935065277, 39.678992376680625], [-120.6835042674465, 39.67538029216223], [-120.68350291548195, 39.67172907027103], [-120.68350159226358, 39.66807784900636], [-120.68350026724852, 39.66442662632908], [-120.68349894403009, 39.660775404348776], [-120.68349762081169, 39.657031515856495], [-120.6834962948983, 39.653287627900404], [-120.68349499773107, 39.649543739135254], [-120.68349367181769, 39.6457998793422], [-120.68349376524249, 39.64212926748162], [-120.68349388471843, 39.638458656555684], [-120.68349397724491, 39.6347880472921], [-120.68349407066968, 39.631117435575675], [-120.67991503435573, 39.63113308182355], [-120.67876008027642, 39.631134823908326], [-120.67566553324295, 39.63114724058513], [-120.67401136559731, 39.63115079739843], [-120.67091678981777, 39.631163214072416], [-120.66926262486707, 39.63116677157675], [-120.66616804908752, 39.63117921523004], [-120.66451388413684, 39.631182773425415], [-120.66141275155401, 39.63119504964766], [-120.6597648631322, 39.63119835739182], [-120.6566386208406, 39.631210134786144], [-120.65504345544112, 39.63121324604371], [-120.65186420985279, 39.631225441313916], [-120.65032154918502, 39.63122833048636], [-120.64708907931445, 39.63124094363223], [-120.64559911292292, 39.63124363562637], [-120.64232672641269, 39.631255693904656], [-120.64089148448998, 39.631257943113354], [-120.63764534854897, 39.63126933375277], [-120.63618252116052, 39.63127166529131], [-120.63296435785914, 39.63128286082645], [-120.6314737536638, 39.63128527607849], [-120.62828331416874, 39.631296306259046], [-120.62676515235539, 39.63129880522465], [-120.62357843458054, 39.631308833603015], [-120.62202685543865, 39.63131150068787], [-120.61883638719748, 39.63132269621657], [-120.6172895583468, 39.631325334935], [-120.61409428501717, 39.63133658511765], [-120.61255217860997, 39.63133922314369], [-120.60935209929355, 39.631350475399614], [-120.60781474317757, 39.63135308575116], [-120.60460457937377, 39.63136372710105], [-120.60306736249666, 39.63136633745204], [-120.5999242848783, 39.63137719811641]]]}, "properties": {"OBJECTID": 42611, "STATEABBR": "CA", "PRINMERCD": "21", "PRINMER": "Mount Diablo Meridian", "TWNSHPNO": "021", "TWNSHPFRAC": "0", "TWNSHPDIR": "N", "RANGENO": "012", "RANGEFRAC": "0", "RANGEDIR": "E", "TWNSHPDPCD": null, "PLSSID": "CA210210N0120E0", "TWNSHPLAB": "21N 12E", "SRVNAME": null, "SURVTYP": null, "SURVTYPTXT": null, "SOURCEDATE": null, "SOURCEREF": null, "STEWARD": null, "SECSRVNAME": null, "created_user": "ILMCADO", "created_date": 1775789011000, "last_edited_user": "ILMCADO", "last_edited_date": 1775789011000, "ORIGID": null, "PartCount": null, "Shape.STArea()": 160377064.17257896, "Shape.STLength()": 50616.949538600995}}, {"type": "Feature", "id": 42809, "geometry": {"type": "Polygon", "coordinates": [[[-120.59851570944481, 39.71886729704562], [-120.5937872598602, 39.718830612514665], [-120.58905883632674, 39.718793927273204], [-120.58422391302477, 39.71874091080465], [-120.57938901487563, 39.71868789567726], [-120.57455409067535, 39.71863487981814], [-120.5697191934245, 39.71858186391826], [-120.5697492267994, 39.722256483210586], [-120.5697792601743, 39.72593112848278], [-120.56980926570144, 39.72960574787961], [-120.56983930177127, 39.733280367620765], [-120.56985330650653, 39.73695401434264], [-120.56986733998792, 39.74062763381037], [-120.56988148486039, 39.74431961501496], [-120.56989562973286, 39.74801159594497], [-120.56990213173889, 39.7516615977492], [-120.56990863464323, 39.7553115974647], [-120.5699151348526, 39.75896159643764], [-120.56992163685864, 39.762611623635394], [-120.56992455548497, 39.76627201026799], [-120.56992750016249, 39.76993242671059], [-120.56993041789055, 39.773588314041255], [-120.56993336346635, 39.77724417428346], [-120.56994425464084, 39.780942311502656], [-120.56995517366312, 39.78464042050159], [-120.5699563423713, 39.788325446712065], [-120.56995750928287, 39.7920104743387], [-120.56994912171307, 39.79567925041854], [-120.56994070719378, 39.799347999211804], [-120.5699407359399, 39.80299616514525], [-120.5699407359399, 39.80664430246595], [-120.57469916589876, 39.80664147791057], [-120.57945759675599, 39.80663865404516], [-120.5842160276132, 39.806635829489544], [-120.58897445847043, 39.806632976639925], [-120.59370471995695, 39.80663429057936], [-120.59843495539234, 39.80663560589898], [-120.60316521687889, 39.80663692052852], [-120.60789545231427, 39.80663820755422], [-120.61262710439286, 39.80662849378747], [-120.61735875647149, 39.80661875379581], [-120.62213024164639, 39.806643206596455], [-120.62690170166849, 39.806667631094584], [-120.63167204957624, 39.8066921107915], [-120.63644239748402, 39.80671656425616], [-120.64121274629012, 39.8067410439357], [-120.64598309240127, 39.80676552360653], [-120.6507419131273, 39.80675864406974], [-120.65550073115843, 39.80675176384225], [-120.66025955008783, 39.80674488361402], [-120.66501836991554, 39.806738002695006], [-120.66978574439973, 39.80674323360131], [-120.67455309103613, 39.806748436213375], [-120.67928560459909, 39.80675311159398], [-120.68356551997245, 39.806757269404486], [-120.68357469087317, 39.80305700221537], [-120.68358350424444, 39.79944326294865], [-120.68357023253442, 39.7957734121513], [-120.68355695992612, 39.79210359054863], [-120.68354271534062, 39.788451628721404], [-120.68352847075518, 39.78479969323538], [-120.68351422616972, 39.78114773235397], [-120.68349998248257, 39.7774957992683], [-120.68349676741218, 39.773919058976915], [-120.68349356671482, 39.77034231924085], [-120.68349036601745, 39.76676646737853], [-120.68348715004875, 39.76319061553995], [-120.68350274031049, 39.759479209668974], [-120.6835183278773, 39.75576777642341], [-120.68353058359274, 39.75205625851265], [-120.68354285188455, 39.748344737460265], [-120.68355655658256, 39.744683875933866], [-120.68355838465413, 39.74427099043024], [-120.68357084428713, 39.74102159864494], [-120.68357147759939, 39.740653961982545], [-120.68357538167761, 39.73734768172406], [-120.683575961091, 39.737037072497], [-120.68357986247428, 39.733673931635614], [-120.68357738761567, 39.7334203779869], [-120.68354420474738, 39.72999554418199], [-120.6835423128954, 39.729802655686626], [-120.68350857307163, 39.72631729484697], [-120.68350743400788, 39.72618507378236], [-120.68347705478158, 39.72263379507403], [-120.68347648794462, 39.7225676841509], [-120.68344556254266, 39.718950463363704], [-120.67905729148143, 39.71896104838674], [-120.67892934353719, 39.718961273644084], [-120.67421722801939, 39.718972922073455], [-120.6741320300012, 39.71897306303203], [-120.66937524755254, 39.718984877292954], [-120.66933277430759, 39.71898493395274], [-120.66453157465972, 39.71899691680908], [-120.65981984721412, 39.71900167623156], [-120.6551080937174, 39.719006463292615], [-120.65040817282957, 39.7190112220235], [-120.64570825463672, 39.719016009083845], [-120.64098902715682, 39.719016101674235], [-120.6362698005752, 39.71901619357364], [-120.63156476827345, 39.719016313111915], [-120.62685976471775, 39.719016433341224], [-120.62213795547973, 39.718997471660494], [-120.61741617229285, 39.71897853623152], [-120.61269439090258, 39.71895960148833], [-120.60797260951233, 39.71894066604896], [-120.60324415902942, 39.71890398224801], [-120.59851570944481, 39.71886729704562]]]}, "properties": {"OBJECTID": 42809, "STATEABBR": "CA", "PRINMERCD": "21", "PRINMER": "Mount Diablo Meridian", "TWNSHPNO": "022", "TWNSHPFRAC": "0", "TWNSHPDIR": "N", "RANGENO": "012", "RANGEFRAC": "0", "RANGEDIR": "E", "TWNSHPDPCD": null, "PLSSID": "CA210220N0120E0", "TWNSHPLAB": "22N 12E", "SRVNAME": null, "SURVTYP": null, "SURVTYPTXT": null, "SOURCEDATE": null, "SOURCEREF": null, "STEWARD": null, "SECSRVNAME": null, "created_user": "ILMCADO", "created_date": 1775789011000, "last_edited_user": "ILMCADO", "last_edited_date": 1775789011000, "ORIGID": null, "PartCount": null, "Shape.STArea()": 160778003.67569065, "Shape.STLength()": 50777.76979784051}}]}