{"type": "FeatureCollection", "features": [{"type": "Feature", "properties": {"name": null, "mtfcc": "S1400"}, "geometry": {"type": "LineString", "coordinates": [[-120.61537, 39.72974], [-120.615336, 39.729738], [-120.615237, 39.729734], [-120.615204, 39.729733]]}}, {"type": "Feature", "properties": {"name": null, "mtfcc": "S1400"}, "geometry": {"type": "LineString", "coordinates": [[-120.605123, 39.72127], [-120.60482, 39.721902], [-120.604721, 39.722111], [-120.604543, 39.722248], [-120.604099, 39.723117], [-120.6041, 39.723781], [-120.604337, 39.723872], [-120.604751, 39.723689]]}}, {"type": "Feature", "properties": {"name": "Smith Creek Rd", "mtfcc": "S1400"}, "geometry": {"type": "LineString", "coordinates": [[-120.631359, 39.771892], [-120.631678, 39.771764], [-120.631893, 39.771658], [-120.632154, 39.771497], [-120.632606, 39.771117], [-120.63312, 39.770712], [-120.633287, 39.770599], [-120.633772, 39.770274], [-120.634415, 39.769902], [-120.634674, 39.76964], [-120.634772, 39.76954], [-120.635015, 39.769354], [-120.636245, 39.768566], [-120.636547, 39.768374], [-120.637247, 39.767893], [-120.637527, 39.767694], [-120.637756, 39.767517], [-120.637946, 39.767299], [-120.63816, 39.766965], [-120.638379, 39.766589], [-120.638527, 39.766294], [-120.638651, 39.766175], [-120.638836, 39.766071], [-120.639188, 39.765947], [-120.639498, 39.765852], [-120.639845, 39.765714], [-120.640059, 39.765595], [-120.640207, 39.765485], [-120.640654, 39.765048], [-120.640883, 39.764848], [-120.64112, 39.7647], [-120.641563, 39.764486], [-120.641906, 39.764329], [-120.642434, 39.764062], [-120.6426, 39.764005], [-120.642753, 39.763958], [-120.642886, 39.763948], [-120.643181, 39.763944], [-120.643625, 39.763985], [-120.643833, 39.764005], [-120.644461, 39.764101], [-120.644937, 39.764143], [-120.645384, 39.764162], [-120.645594, 39.764153], [-120.645846, 39.764124], [-120.646242, 39.764038], [-120.646435, 39.763989], [-120.6466, 39.763915], [-120.647768, 39.763457], [-120.64816, 39.763288], [-120.648226, 39.76315], [-120.648169, 39.762877], [-120.648128, 39.762496], [-120.648134, 39.76233], [-120.648143, 39.762234], [-120.648251, 39.762165], [-120.649008, 39.76182], [-120.649974, 39.761452], [-120.650898, 39.761061], [-120.651359, 39.760827], [-120.651596, 39.760741], [-120.651957, 39.760417], [-120.652163, 39.760317], [-120.652476, 39.760223], [-120.652723, 39.760155], [-120.653048, 39.760122], [-120.653357, 39.760179], [-120.653408, 39.760256], [-120.653513, 39.760416], [-120.653666, 39.760707], [-120.653617, 39.760999], [-120.653528, 39.761243], [-120.653422, 39.761495], [-120.652671, 39.761926]]}}, {"type": "Feature", "properties": {"name": null, "mtfcc": "S1400"}, "geometry": {"type": "LineString", "coordinates": [[-120.609441, 39.715447], [-120.609479, 39.715489], [-120.609641, 39.715727], [-120.610017, 39.71625], [-120.610341, 39.71675], [-120.610541, 39.717002], [-120.610751, 39.717334], [-120.610978, 39.717592], [-120.611193, 39.717802], [-120.611545, 39.717997], [-120.61184, 39.718097], [-120.612106, 39.718149], [-120.612525, 39.718168], [-120.613087, 39.718211], [-120.613843, 39.718235], [-120.614386, 39.718268], [-120.614843, 39.718311], [-120.615095, 39.718397], [-120.615206, 39.718454], [-120.615223, 39.718463], [-120.615476, 39.718701], [-120.615571, 39.718806], [-120.615637, 39.718896], [-120.615756, 39.719144], [-120.615975, 39.719667], [-120.616128, 39.720062], [-120.616194, 39.720181], [-120.616269, 39.720271], [-120.616356, 39.720376], [-120.616911, 39.720721], [-120.617122, 39.720852], [-120.61795, 39.721442], [-120.618157, 39.721575]]}}, {"type": "Feature", "properties": {"name": null, "mtfcc": "S1400"}, "geometry": {"type": "LineString", "coordinates": [[-120.605044, 39.71797], [-120.605311, 39.718565], [-120.605317, 39.718596], [-120.60546, 39.719251], [-120.605335, 39.720629], [-120.605313, 39.720875], [-120.605123, 39.72127]]}}, {"type": "Feature", "properties": {"name": null, "mtfcc": "S1400"}, "geometry": {"type": "LineString", "coordinates": [[-120.604615, 39.724114], [-120.604458, 39.724169], [-120.604416, 39.724209], [-120.604405, 39.724314], [-120.604424, 39.724467], [-120.604486, 39.724508], [-120.60458, 39.7245], [-120.604684, 39.724453], [-120.604716, 39.724388], [-120.604717, 39.724302], [-120.604718, 39.724235], [-120.604667, 39.724146], [-120.604615, 39.724114]]}}, {"type": "Feature", "properties": {"name": null, "mtfcc": "S1400"}, "geometry": {"type": "LineString", "coordinates": [[-120.651445, 39.736588], [-120.651684, 39.736706], [-120.651749, 39.736729], [-120.651905, 39.736761], [-120.652085, 39.736782], [-120.652269, 39.736794], [-120.65239, 39.736794], [-120.652448, 39.736805], [-120.652499, 39.736829], [-120.652524, 39.736875], [-120.65251, 39.736933], [-120.652449, 39.736987], [-120.652174, 39.737178], [-120.652048, 39.73727], [-120.651979, 39.737315], [-120.651921, 39.737346]]}}, {"type": "Feature", "properties": {"name": "Paiute Trl", "mtfcc": "S1400"}, "geometry": {"type": "LineString", "coordinates": [[-120.610567, 39.755371], [-120.610673, 39.755134], [-120.61075, 39.754965], [-120.611022, 39.754441], [-120.611063, 39.754363], [-120.611137, 39.754209], [-120.61121, 39.754058], [-120.611233, 39.75401], [-120.611402, 39.753673], [-120.611467, 39.753564], [-120.611564, 39.753442], [-120.611702, 39.75327], [-120.611932, 39.753132], [-120.612069, 39.75307], [-120.612192, 39.753032], [-120.612226, 39.753023], [-120.612277, 39.753012], [-120.612367, 39.752997], [-120.612547, 39.752981], [-120.612752, 39.752984], [-120.613293, 39.753017], [-120.613775, 39.753057], [-120.613966, 39.753064], [-120.614196, 39.753073], [-120.614548, 39.753097], [-120.614749, 39.753115], [-120.614784, 39.753117], [-120.615337, 39.753155], [-120.615493, 39.753156], [-120.615731, 39.753159], [-120.616179, 39.753174], [-120.616406, 39.753202], [-120.616538, 39.75323], [-120.616621, 39.753252], [-120.616701, 39.75328], [-120.616777, 39.753316], [-120.616787, 39.753321], [-120.616858, 39.753361], [-120.616924, 39.753405], [-120.616989, 39.753455], [-120.617308, 39.75375], [-120.617908, 39.754327], [-120.618004, 39.754436], [-120.6181, 39.754555], [-120.618253, 39.754767], [-120.618367, 39.754964], [-120.618468, 39.755152], [-120.618694, 39.755604], [-120.618764, 39.755772], [-120.618774, 39.755808], [-120.618823, 39.755973], [-120.618858, 39.756139], [-120.618885, 39.756347], [-120.618888, 39.756585], [-120.618849, 39.756872], [-120.618764, 39.75714], [-120.61871, 39.75729], [-120.618644, 39.757511], [-120.618602, 39.757708], [-120.618568, 39.75794], [-120.618561, 39.757987], [-120.618525, 39.758274], [-120.618511, 39.758443], [-120.618492, 39.758543], [-120.618487, 39.758575], [-120.618443, 39.75874], [-120.618369, 39.758958], [-120.618314, 39.759071], [-120.618216, 39.759214], [-120.618165, 39.759275], [-120.617963, 39.759461], [-120.617808, 39.75958], [-120.617787, 39.759597], [-120.617579, 39.759731], [-120.617313, 39.759892], [-120.617147, 39.759994], [-120.61704, 39.760064], [-120.616938, 39.760132], [-120.61679, 39.760217], [-120.616714, 39.760264], [-120.616607, 39.760332], [-120.61639, 39.760615], [-120.616322, 39.76072], [-120.616191, 39.760921], [-120.615924, 39.76138], [-120.615869, 39.761459], [-120.615818, 39.761518], [-120.61576, 39.761571], [-120.615694, 39.761618], [-120.61561, 39.761652], [-120.615524, 39.76167], [-120.615361, 39.761676], [-120.615273, 39.76168], [-120.614879, 39.76167]]}}, {"type": "Feature", "properties": {"name": "Mohave Trl", "mtfcc": "S1400"}, "geometry": {"type": "LineString", "coordinates": [[-120.613486, 39.75059], [-120.613632, 39.750752], [-120.613812, 39.75091], [-120.613953, 39.751039], [-120.61399, 39.751073], [-120.614117, 39.751173], [-120.61419, 39.751215], [-120.61425, 39.751244], [-120.614412, 39.7513], [-120.61447, 39.751313], [-120.614684, 39.751336], [-120.614725, 39.751378], [-120.614729, 39.751448], [-120.614615, 39.752451], [-120.614575, 39.752805], [-120.614548, 39.753097]]}}, {"type": "Feature", "properties": {"name": null, "mtfcc": "S1500"}, "geometry": {"type": "LineString", "coordinates": [[-120.687873, 39.735851], [-120.687558, 39.73588], [-120.687333, 39.73603], [-120.686903, 39.736101], [-120.686094, 39.735986], [-120.685606, 39.735714], [-120.684138, 39.734944], [-120.683104, 39.734401], [-120.682982, 39.73437], [-120.682756, 39.734431], [-120.68158, 39.734249], [-120.680918, 39.733915], [-120.68027, 39.733454], [-120.680117, 39.733424], [-120.679861, 39.733493], [-120.679584, 39.733554], [-120.679287, 39.733503], [-120.679165, 39.733578], [-120.678991, 39.733605], [-120.67884, 39.733424], [-120.678708, 39.733346], [-120.678555, 39.733495], [-120.678455, 39.733685], [-120.678302, 39.73368], [-120.678055, 39.733749], [-120.677863, 39.7336], [-120.677847, 39.733443], [-120.677231, 39.732893], [-120.677047, 39.732841], [-120.676781, 39.732893], [-120.676679, 39.732839], [-120.676592, 39.73261], [-120.676513, 39.732511], [-120.675911, 39.731761], [-120.675174, 39.731103], [-120.675016, 39.730867], [-120.674648, 39.730753], [-120.674362, 39.730669], [-120.674103, 39.73061], [-120.674011, 39.73059], [-120.673703, 39.730647], [-120.673173, 39.731208], [-120.673071, 39.73121], [-120.672879, 39.731092], [-120.672255, 39.730965], [-120.672142, 39.730991], [-120.671959, 39.731149], [-120.671846, 39.731143], [-120.671243, 39.731104], [-120.670662, 39.731024], [-120.67071, 39.731269], [-120.670152, 39.73134], [-120.669683, 39.73125], [-120.669325, 39.731128], [-120.668653, 39.731256], [-120.668369, 39.731378], [-120.667511, 39.731687], [-120.667358, 39.732037], [-120.666932, 39.732294], [-120.666034, 39.732838], [-120.665797, 39.732937], [-120.665671, 39.733058], [-120.665587, 39.733171], [-120.665389, 39.733203], [-120.665328, 39.733049], [-120.665319, 39.732686], [-120.665216, 39.732508], [-120.664911, 39.732234], [-120.664676, 39.732023], [-120.664397, 39.73157], [-120.664619, 39.731111], [-120.664421, 39.726726], [-120.664404, 39.726333], [-120.664301, 39.726211], [-120.664217, 39.726211], [-120.663862, 39.726347], [-120.663589, 39.726186], [-120.663092, 39.725885]]}}, {"type": "Feature", "properties": {"name": null, "mtfcc": "S1400"}, "geometry": {"type": "LineString", "coordinates": [[-120.615204, 39.729733], [-120.615047, 39.729868], [-120.614994, 39.729922], [-120.614819, 39.730078], [-120.614482, 39.730357], [-120.614426, 39.730411], [-120.614325, 39.730523], [-120.614282, 39.730589], [-120.614254, 39.730652], [-120.614235, 39.730718], [-120.614226, 39.730788], [-120.614225, 39.730857], [-120.614235, 39.73093], [-120.614264, 39.731067], [-120.614318, 39.73124], [-120.614366, 39.731448], [-120.614379, 39.731555], [-120.614387, 39.731689], [-120.614378, 39.731829], [-120.614365, 39.731904], [-120.614347, 39.731974], [-120.614292, 39.732144], [-120.614216, 39.732345], [-120.614155, 39.732476], [-120.614102, 39.732568], [-120.61403, 39.732679], [-120.613981, 39.732736], [-120.613922, 39.732792], [-120.613872, 39.73283], [-120.613817, 39.732862], [-120.613736, 39.732899], [-120.613661, 39.732928], [-120.613529, 39.732971], [-120.613407, 39.733012], [-120.613019, 39.733108], [-120.612897, 39.733145], [-120.612777, 39.733195], [-120.612709, 39.733236], [-120.612636, 39.733289], [-120.61256, 39.733352], [-120.612294, 39.733553], [-120.612242, 39.733596], [-120.612232, 39.733605], [-120.612025, 39.733762], [-120.611671, 39.734006], [-120.611476, 39.734154], [-120.611302, 39.73431], [-120.611117, 39.7345], [-120.610804, 39.734803], [-120.610496, 39.735114], [-120.610402, 39.735226], [-120.610359, 39.735288], [-120.610284, 39.735418], [-120.610229, 39.735543], [-120.610134, 39.735849], [-120.610102, 39.736025], [-120.610055, 39.736308], [-120.609978, 39.736748], [-120.609957, 39.736998], [-120.609949, 39.737346], [-120.609951, 39.737561], [-120.609945, 39.737658], [-120.609948, 39.737868], [-120.609947, 39.738081], [-120.609952, 39.738146], [-120.609968, 39.738912], [-120.609975, 39.739582], [-120.60998, 39.739888], [-120.610017, 39.74007], [-120.610042, 39.740139], [-120.610059, 39.740202], [-120.610168, 39.74046], [-120.610219, 39.74056], [-120.6103, 39.740682], [-120.610395, 39.740794], [-120.610565, 39.740965], [-120.610736, 39.741119], [-120.610999, 39.741309], [-120.61115, 39.741397], [-120.611481, 39.741565], [-120.611717, 39.741673], [-120.611878, 39.741763], [-120.611944, 39.741815], [-120.611996, 39.741871], [-120.612031, 39.741918], [-120.612058, 39.741968], [-120.612084, 39.742036], [-120.612101, 39.742104], [-120.612102, 39.742173], [-120.612095, 39.742229], [-120.612079, 39.742284], [-120.612042, 39.742357], [-120.612002, 39.742417], [-120.611934, 39.742477], [-120.611784, 39.742565], [-120.611713, 39.742611], [-120.61165, 39.742658], [-120.611603, 39.742711], [-120.611553, 39.74278], [-120.611514, 39.742907], [-120.611493, 39.743027], [-120.611497, 39.743098], [-120.611508, 39.743152], [-120.611529, 39.743202], [-120.611556, 39.743246], [-120.611597, 39.743289], [-120.611658, 39.743338], [-120.611727, 39.743382], [-120.611793, 39.743413], [-120.611932, 39.743486], [-120.612463, 39.743748], [-120.61281, 39.743933], [-120.613098, 39.744067], [-120.613462, 39.744208], [-120.613895, 39.74438], [-120.614041, 39.744432], [-120.614112, 39.74445], [-120.614177, 39.744462], [-120.614304, 39.744484], [-120.614425, 39.744489], [-120.614563, 39.744479], [-120.614668, 39.744459], [-120.614788, 39.744437], [-120.614957, 39.744383], [-120.615037, 39.744348], [-120.615108, 39.744305], [-120.615268, 39.744211], [-120.615402, 39.744143], [-120.615518, 39.744095], [-120.615607, 39.744073], [-120.615694, 39.744062], [-120.615781, 39.744057], [-120.615853, 39.744062], [-120.615919, 39.744078], [-120.616002, 39.74411], [-120.616053, 39.74414], [-120.616089, 39.744161], [-120.616151, 39.744219], [-120.616196, 39.744279], [-120.616236, 39.744346], [-120.616313, 39.744548]]}}, {"type": "Feature", "properties": {"name": null, "mtfcc": "S1400"}, "geometry": {"type": "LineString", "coordinates": [[-120.603183, 39.718562], [-120.602994, 39.718746], [-120.602993, 39.718811], [-120.603117, 39.718868], [-120.603314, 39.718966], [-120.603376, 39.719047], [-120.603404, 39.719337], [-120.603381, 39.719411], [-120.603372, 39.719441], [-120.603096, 39.719947], [-120.603104, 39.720221], [-120.603504, 39.721835], [-120.603627, 39.721957], [-120.603783, 39.721958], [-120.60395, 39.721894], [-120.604024, 39.721798], [-120.604183, 39.721549], [-120.604248, 39.721292], [-120.60429, 39.721252], [-120.604436, 39.721236], [-120.605059, 39.721272], [-120.605123, 39.72127]]}}, {"type": "Feature", "properties": {"name": null, "mtfcc": "S1400"}, "geometry": {"type": "LineString", "coordinates": [[-120.605123, 39.72127], [-120.605316, 39.721264], [-120.605528, 39.721259], [-120.605736, 39.721204], [-120.605849, 39.7211], [-120.605992, 39.72097]]}}, {"type": "Feature", "properties": {"name": "Wishram Trl", "mtfcc": "S1400"}, "geometry": {"type": "LineString", "coordinates": [[-120.616066, 39.748513], [-120.61598, 39.748517], [-120.615801, 39.748533], [-120.615714, 39.748548], [-120.61558, 39.748578], [-120.615496, 39.748602], [-120.615414, 39.748631], [-120.615384, 39.748643], [-120.615328, 39.748668], [-120.615256, 39.748707], [-120.615193, 39.748748], [-120.615098, 39.748819], [-120.615006, 39.748897], [-120.614948, 39.748955], [-120.614873, 39.749046], [-120.614817, 39.749137], [-120.614734, 39.749302], [-120.614617, 39.749561], [-120.614529, 39.749733], [-120.614491, 39.749797], [-120.614444, 39.749863], [-120.614342, 39.749977], [-120.614223, 39.750081], [-120.614062, 39.750197], [-120.614028, 39.750223], [-120.613486, 39.75059], [-120.613266, 39.750648], [-120.612959, 39.750691], [-120.612875, 39.750707], [-120.612809, 39.750725], [-120.612747, 39.750748], [-120.612621, 39.750828], [-120.61243, 39.750951], [-120.612236, 39.751083], [-120.61206, 39.751223], [-120.611705, 39.751509], [-120.611434, 39.751739], [-120.611318, 39.751854], [-120.611108, 39.752079], [-120.611038, 39.752145], [-120.611, 39.752183], [-120.610906, 39.752265], [-120.610678, 39.752429], [-120.610476, 39.75249], [-120.610452, 39.752498], [-120.61037, 39.752527], [-120.610294, 39.752562], [-120.610215, 39.752607], [-120.610152, 39.752652], [-120.610089, 39.752704], [-120.610024, 39.752771], [-120.609967, 39.752844], [-120.609923, 39.753049]]}}, {"type": "Feature", "properties": {"name": "Mojave Trl", "mtfcc": "S1400"}, "geometry": {"type": "LineString", "coordinates": [[-120.614548, 39.753097], [-120.614536, 39.753276], [-120.614521, 39.753373], [-120.614505, 39.753586], [-120.614481, 39.753827], [-120.614464, 39.75401]]}}, {"type": "Feature", "properties": {"name": "Frazier Creek Rd", "mtfcc": "S1400"}, "geometry": {"type": "LineString", "coordinates": [[-120.646162, 39.706607], [-120.646224, 39.706715], [-120.646447, 39.706924], [-120.646486, 39.707005], [-120.646486, 39.707101], [-120.646448, 39.707221], [-120.646491, 39.707425], [-120.646502, 39.707568], [-120.646482, 39.707696], [-120.646316, 39.708092], [-120.646203, 39.708264], [-120.646188, 39.708349], [-120.646227, 39.708449], [-120.646375, 39.708692], [-120.646513, 39.708935], [-120.646619, 39.70902], [-120.646719, 39.709068], [-120.647176, 39.709119], [-120.647329, 39.709176], [-120.6474, 39.709243], [-120.647491, 39.709372], [-120.647587, 39.70959], [-120.647715, 39.709805], [-120.647758, 39.709919], [-120.647797, 39.710171], [-120.647903, 39.710614], [-120.64795, 39.710756], [-120.64807, 39.710942], [-120.648175, 39.711128], [-120.648262, 39.711318], [-120.648347, 39.711418], [-120.648481, 39.711523], [-120.648839, 39.711712], [-120.649024, 39.71185], [-120.649139, 39.712002], [-120.649187, 39.712235], [-120.64924, 39.712597], [-120.649303, 39.712869], [-120.649398, 39.713098], [-120.649537, 39.713302], [-120.650033, 39.713868], [-120.65009, 39.713996], [-120.650158, 39.714296], [-120.650211, 39.714482], [-120.650364, 39.714815], [-120.650441, 39.715015], [-120.650489, 39.715482], [-120.650523, 39.715601], [-120.650666, 39.715748], [-120.650838, 39.715891], [-120.650971, 39.716119], [-120.650988, 39.716163], [-120.651058, 39.716348], [-120.651067, 39.716505], [-120.650972, 39.716748], [-120.650834, 39.717176], [-120.650706, 39.71749], [-120.650587, 39.717738], [-120.650496, 39.718061], [-120.650344, 39.718366], [-120.650154, 39.718675], [-120.649968, 39.719075], [-120.649816, 39.719537], [-120.649544, 39.720303], [-120.649416, 39.720741], [-120.649283, 39.721321], [-120.649116, 39.721845], [-120.648892, 39.722382], [-120.648731, 39.722873], [-120.648669, 39.723239], [-120.648602, 39.723477], [-120.648478, 39.723644], [-120.647907, 39.724081], [-120.647603, 39.724362], [-120.647317, 39.724676], [-120.64717, 39.724795], [-120.646818, 39.725038], [-120.646656, 39.725157], [-120.646532, 39.72529], [-120.646389, 39.72558], [-120.646275, 39.725952], [-120.64618, 39.726204], [-120.646108, 39.726318], [-120.645935, 39.72645], [-120.645871, 39.726499], [-120.645558, 39.726655], [-120.645521, 39.726665], [-120.645414, 39.726687], [-120.645271, 39.726695], [-120.645204, 39.726691], [-120.645044, 39.726671], [-120.644974, 39.726655], [-120.644811, 39.726601], [-120.644748, 39.726574], [-120.644564, 39.726476], [-120.644499, 39.726427], [-120.64433, 39.726262], [-120.644271, 39.726212], [-120.644205, 39.726167], [-120.644127, 39.726131], [-120.644033, 39.726113], [-120.643754, 39.726077], [-120.643596, 39.726063], [-120.643375, 39.726053], [-120.643288, 39.726058], [-120.643157, 39.72608], [-120.643075, 39.726109], [-120.643002, 39.726147], [-120.642936, 39.726194], [-120.642888, 39.726253], [-120.642854, 39.726317], [-120.642786, 39.726465], [-120.642745, 39.726533], [-120.64268, 39.726626], [-120.642546, 39.726844], [-120.642499, 39.726907], [-120.642359, 39.727087], [-120.642321, 39.727126], [-120.64225, 39.727202], [-120.642188, 39.727249], [-120.642115, 39.727293], [-120.642046, 39.727329], [-120.641923, 39.727403], [-120.641859, 39.727449], [-120.641815, 39.727493], [-120.641773, 39.727571], [-120.641759, 39.72764], [-120.641762, 39.727707], [-120.641799, 39.727852], [-120.641796, 39.7279], [-120.641782, 39.727951], [-120.641693, 39.728115], [-120.641551, 39.728436], [-120.641466, 39.728557], [-120.641371, 39.728675], [-120.641325, 39.728741], [-120.641223, 39.728853], [-120.641154, 39.728902], [-120.640833, 39.729096], [-120.640506, 39.729273], [-120.640327, 39.729379], [-120.640218, 39.729453], [-120.640026, 39.729592], [-120.639618, 39.729859], [-120.639422, 39.730004], [-120.639238, 39.730167], [-120.638951, 39.730384], [-120.638799, 39.730512], [-120.638425, 39.730811], [-120.638154, 39.73105], [-120.637979, 39.731201], [-120.637479, 39.731542], [-120.637134, 39.731755], [-120.636773, 39.731959], [-120.636389, 39.732144], [-120.63613, 39.732278], [-120.635652, 39.732548], [-120.635322, 39.732723], [-120.635147, 39.732827], [-120.635031, 39.732886], [-120.634772, 39.733026], [-120.634539, 39.73318], [-120.63433, 39.733342], [-120.634275, 39.733395], [-120.634234, 39.733447], [-120.634218, 39.73349], [-120.634212, 39.733557], [-120.634234, 39.733613], [-120.634283, 39.733652], [-120.63436, 39.733682], [-120.634423, 39.733699], [-120.634474, 39.733703], [-120.63463, 39.73373], [-120.634711, 39.733757], [-120.634768, 39.733784], [-120.63481, 39.733827], [-120.63484, 39.733878], [-120.634856, 39.73393], [-120.634859, 39.733999], [-120.634843, 39.734075], [-120.634818, 39.734129], [-120.634771, 39.734196], [-120.634709, 39.734261], [-120.634646, 39.734317], [-120.634515, 39.734446], [-120.634416, 39.734568], [-120.63439, 39.734617], [-120.63435, 39.734677], [-120.634248, 39.734907], [-120.634233, 39.734973], [-120.634232, 39.735027], [-120.634254, 39.735094], [-120.634412, 39.735284], [-120.634427, 39.735307], [-120.634451, 39.735345], [-120.634482, 39.735412], [-120.634497, 39.735485], [-120.634485, 39.735571], [-120.634445, 39.735689], [-120.634434, 39.735738], [-120.634449, 39.735806], [-120.634508, 39.73586], [-120.634587, 39.735901], [-120.634776, 39.735972], [-120.634852, 39.736008], [-120.634919, 39.736049], [-120.63503, 39.736175], [-120.635132, 39.736365], [-120.635157, 39.73644], [-120.635192, 39.736647], [-120.635193, 39.736713], [-120.635186, 39.736853], [-120.635175, 39.736929], [-120.635138, 39.737056], [-120.635084, 39.737192], [-120.635012, 39.73733], [-120.634882, 39.737512], [-120.634683, 39.737753], [-120.634527, 39.73792], [-120.634255, 39.738183], [-120.634126, 39.738288], [-120.633988, 39.738385], [-120.633911, 39.738428], [-120.633839, 39.738461], [-120.633582, 39.738587]]}}, {"type": "Feature", "properties": {"name": null, "mtfcc": "S1400"}, "geometry": {"type": "LineString", "coordinates": [[-120.625585, 39.747194], [-120.625881, 39.747385], [-120.626045, 39.747514]]}}, {"type": "Feature", "properties": {"name": "Smith Lake Rd", "mtfcc": "S1400"}, "geometry": {"type": "LineString", "coordinates": [[-120.635791, 39.777816], [-120.635807, 39.77779], [-120.635908, 39.777637], [-120.636098, 39.777328], [-120.636145, 39.777268], [-120.636216, 39.77718], [-120.636312, 39.777026], [-120.636561, 39.776511], [-120.636675, 39.77631], [-120.636727, 39.77618], [-120.636763, 39.776118], [-120.63681, 39.77606], [-120.636971, 39.775897], [-120.637224, 39.77566], [-120.637512, 39.775393], [-120.637565, 39.775337], [-120.637612, 39.775279], [-120.637672, 39.775187], [-120.637832, 39.775035], [-120.638139, 39.775008], [-120.638489, 39.77487], [-120.638844, 39.774593], [-120.639057, 39.774302], [-120.639078, 39.774085], [-120.639192, 39.773917], [-120.640023, 39.773376], [-120.641024, 39.772971], [-120.641546, 39.772699], [-120.641766, 39.772424], [-120.642119, 39.771857], [-120.642295, 39.771578], [-120.642858, 39.770972], [-120.643764, 39.770158], [-120.64442, 39.76971], [-120.644861, 39.769328], [-120.645018, 39.768949], [-120.644888, 39.7686], [-120.644848, 39.768397], [-120.645056, 39.768145], [-120.645376, 39.76791], [-120.645598, 39.767797], [-120.646025, 39.767715], [-120.646277, 39.76765], [-120.646578, 39.767536], [-120.646807, 39.767396], [-120.647136, 39.767282], [-120.647583, 39.767144], [-120.647688, 39.767067], [-120.647761, 39.766953], [-120.647819, 39.766822], [-120.647844, 39.766746], [-120.647838, 39.766626], [-120.647848, 39.766501], [-120.647885, 39.766367], [-120.647937, 39.766247], [-120.647955, 39.76619], [-120.647961, 39.76612], [-120.647954, 39.766051], [-120.647878, 39.765958], [-120.647797, 39.765833], [-120.646964, 39.764543], [-120.646867, 39.764374], [-120.6466, 39.763915]]}}, {"type": "Feature", "properties": {"name": null, "mtfcc": "S1400"}, "geometry": {"type": "LineString", "coordinates": [[-120.632727, 39.754965], [-120.632877, 39.755357], [-120.63279, 39.755776], [-120.632297, 39.756437], [-120.631734, 39.756919], [-120.630817, 39.757946], [-120.630489, 39.758306], [-120.630132, 39.758729], [-120.629576, 39.759133], [-120.629141, 39.759688], [-120.628824, 39.760045], [-120.627881, 39.760396], [-120.62782, 39.760415], [-120.627572, 39.76048], [-120.627553, 39.760483], [-120.627485, 39.760498], [-120.627394, 39.760509], [-120.627033, 39.760534], [-120.626857, 39.760557], [-120.626684, 39.760593], [-120.6266, 39.760617], [-120.626551, 39.760634], [-120.626458, 39.760668], [-120.626286, 39.760749], [-120.626244, 39.760774]]}}, {"type": "Feature", "properties": {"name": "Gold Lake Hwy", "mtfcc": "S1400"}, "geometry": {"type": "LineString", "coordinates": [[-120.655585, 39.69356], [-120.655609, 39.693568], [-120.656817, 39.693945], [-120.65745, 39.69415], [-120.658096, 39.694365], [-120.65862, 39.694594], [-120.658966, 39.69487], [-120.659166, 39.695142], [-120.659247, 39.695442], [-120.65925, 39.695485], [-120.659266, 39.695747], [-120.659196, 39.696406], [-120.65919, 39.696465], [-120.659104, 39.697146], [-120.659023, 39.697898], [-120.659036, 39.69811], [-120.659038, 39.69814], [-120.659109, 39.698393], [-120.659337, 39.698816], [-120.659556, 39.699302], [-120.659704, 39.699782], [-120.659761, 39.700172], [-120.659761, 39.700553], [-120.659685, 39.700891], [-120.65959, 39.701234], [-120.659314, 39.702052], [-120.65918, 39.702614], [-120.659119, 39.703029], [-120.659104, 39.703437], [-120.659142, 39.703894], [-120.659252, 39.704398], [-120.659369, 39.70471], [-120.659404, 39.704804], [-120.659409, 39.704817], [-120.659532, 39.705077], [-120.659575, 39.705169], [-120.659709, 39.705588], [-120.660104, 39.706587], [-120.66038, 39.707316], [-120.660579, 39.707706], [-120.660813, 39.707972], [-120.661607, 39.708639], [-120.662112, 39.709072], [-120.662236, 39.70922], [-120.66235, 39.709357], [-120.662692, 39.709962], [-120.663395, 39.711366], [-120.663637, 39.711838], [-120.663707, 39.711984], [-120.663766, 39.712133], [-120.663804, 39.712285], [-120.663823, 39.712442], [-120.663823, 39.712593], [-120.663805, 39.712754], [-120.663789, 39.712829], [-120.663766, 39.712904], [-120.663709, 39.713055], [-120.66363, 39.713203], [-120.663584, 39.713271], [-120.66348, 39.713404], [-120.663422, 39.713466], [-120.663289, 39.713587], [-120.663215, 39.713645], [-120.663142, 39.713696], [-120.663064, 39.713743], [-120.662896, 39.713829], [-120.662716, 39.71391], [-120.659883, 39.715135], [-120.658651, 39.715673], [-120.658389, 39.71581], [-120.658231, 39.715906], [-120.658086, 39.716005], [-120.657867, 39.716177], [-120.657674, 39.716353], [-120.657426, 39.7166], [-120.655957, 39.718096], [-120.655809, 39.718255], [-120.65572, 39.718381], [-120.655585, 39.718518], [-120.655536, 39.718557], [-120.655376, 39.718699], [-120.655179, 39.718898], [-120.655073, 39.719022], [-120.654981, 39.719146], [-120.654893, 39.719285], [-120.654735, 39.719578], [-120.65467, 39.719726], [-120.654616, 39.719876], [-120.654572, 39.72003], [-120.65452, 39.720268], [-120.654495, 39.720499], [-120.654486, 39.720657], [-120.654487, 39.720812], [-120.654508, 39.721037], [-120.654549, 39.721265], [-120.654587, 39.721412], [-120.654661, 39.721626], [-120.654777, 39.72189], [-120.654887, 39.722089], [-120.655011, 39.722273], [-120.655175, 39.722483], [-120.655305, 39.722631], [-120.655443, 39.722773], [-120.655621, 39.722932], [-120.655848, 39.723105], [-120.656102, 39.723277], [-120.656487, 39.723475], [-120.65727, 39.723839], [-120.657703, 39.724052], [-120.657855, 39.724149], [-120.657925, 39.724201], [-120.658064, 39.724318], [-120.658123, 39.724377], [-120.658243, 39.724513], [-120.658291, 39.724581], [-120.658367, 39.72472], [-120.658428, 39.724862], [-120.658475, 39.725013], [-120.658498, 39.725169], [-120.658503, 39.725326], [-120.658497, 39.725404], [-120.658469, 39.725559], [-120.658421, 39.72571], [-120.658352, 39.725866], [-120.657179, 39.728025], [-120.655219, 39.73165], [-120.65498, 39.73208], [-120.654891, 39.732221], [-120.654789, 39.732362], [-120.654697, 39.732473], [-120.654683, 39.732491], [-120.654564, 39.732623], [-120.653796, 39.733443], [-120.653685, 39.733574], [-120.653581, 39.73371], [-120.653487, 39.73385], [-120.653401, 39.733996], [-120.653291, 39.734215], [-120.652863, 39.73511], [-120.652743, 39.735328], [-120.652628, 39.735503], [-120.652481, 39.735691], [-120.652272, 39.735917], [-120.652089, 39.736091], [-120.651734, 39.736372], [-120.651445, 39.736588], [-120.650862, 39.737005], [-120.65057, 39.737221], [-120.650283, 39.73745], [-120.650021, 39.737688], [-120.649899, 39.737807], [-120.649778, 39.737934], [-120.649543, 39.738197], [-120.649438, 39.738331], [-120.649285, 39.738539], [-120.648355, 39.73986], [-120.64757, 39.74096], [-120.646802, 39.74206], [-120.645392, 39.744052], [-120.645227, 39.744252], [-120.645038, 39.744444], [-120.64497, 39.744502], [-120.64476, 39.744672], [-120.644691, 39.744719], [-120.644457, 39.74487], [-120.644209, 39.745002], [-120.643933, 39.745124], [-120.64366, 39.745216], [-120.643369, 39.7453], [-120.643281, 39.745317], [-120.642991, 39.74537], [-120.642686, 39.745405], [-120.642487, 39.745416], [-120.642175, 39.74542], [-120.641978, 39.745409], [-120.641773, 39.745391], [-120.641573, 39.745363], [-120.641381, 39.745327], [-120.641072, 39.745253], [-120.640808, 39.745171], [-120.640619, 39.7451], [-120.640363, 39.744982], [-120.640196, 39.744894], [-120.640113, 39.744845], [-120.64003, 39.744789], [-120.639956, 39.744745], [-120.639739, 39.744579], [-120.639538, 39.744403], [-120.639357, 39.744217], [-120.639246, 39.744083], [-120.639143, 39.743943], [-120.638974, 39.743669], [-120.638769, 39.743311], [-120.638684, 39.743173], [-120.638525, 39.742965], [-120.638413, 39.742841], [-120.638216, 39.742657], [-120.638004, 39.742496], [-120.637926, 39.742445], [-120.637859, 39.742405], [-120.637767, 39.74235], [-120.637682, 39.742305], [-120.637418, 39.742179], [-120.637243, 39.742113], [-120.637058, 39.742053], [-120.63686, 39.742004], [-120.636562, 39.741947], [-120.636363, 39.74192], [-120.636259, 39.741911], [-120.636054, 39.741901], [-120.635739, 39.741907], [-120.635445, 39.741942], [-120.635244, 39.741979], [-120.634943, 39.742052], [-120.634748, 39.742113], [-120.634493, 39.74222], [-120.634321, 39.742306], [-120.63415, 39.742403], [-120.634003, 39.742498], [-120.63392, 39.742558], [-120.63385, 39.742609], [-120.633719, 39.742727], [-120.633586, 39.742854], [-120.632792, 39.743763], [-120.632437, 39.744144], [-120.632247, 39.744329], [-120.632055, 39.744505], [-120.631714, 39.744797], [-120.630594, 39.745714], [-120.63031, 39.745935], [-120.63016, 39.746035], [-120.630071, 39.746086], [-120.629905, 39.746167], [-120.629708, 39.746243], [-120.629531, 39.74629], [-120.629339, 39.746327], [-120.629238, 39.74634], [-120.62922, 39.746341], [-120.629035, 39.746357], [-120.628926, 39.746359], [-120.627888, 39.746352], [-120.627361, 39.746353], [-120.627071, 39.746373], [-120.626883, 39.746407], [-120.626708, 39.746454], [-120.626543, 39.746509], [-120.626319, 39.746609], [-120.626167, 39.746698], [-120.625964, 39.746848], [-120.625781, 39.747008], [-120.625585, 39.747194], [-120.62542, 39.747347], [-120.625084, 39.747645], [-120.624952, 39.747753], [-120.624799, 39.747867], [-120.624573, 39.748018], [-120.624341, 39.748156], [-120.624175, 39.748244], [-120.623914, 39.748369], [-120.623643, 39.748482], [-120.623449, 39.74855], [-120.623003, 39.748689], [-120.621653, 39.7491], [-120.620458, 39.749463], [-120.620164, 39.749544], [-120.619964, 39.749582], [-120.619861, 39.749593], [-120.619665, 39.749602], [-120.619458, 39.749595], [-120.619364, 39.749585], [-120.619166, 39.749551], [-120.618974, 39.749499], [-120.618885, 39.749466], [-120.618799, 39.74943], [-120.61864, 39.749357], [-120.618611, 39.749344], [-120.618528, 39.749293], [-120.618501, 39.749278], [-120.618428, 39.749231], [-120.618286, 39.74914], [-120.618218, 39.749085], [-120.61816, 39.749028], [-120.618058, 39.748899], [-120.617969, 39.748761], [-120.6179, 39.748621], [-120.61789, 39.748596], [-120.617847, 39.748466], [-120.617831, 39.748394], [-120.617817, 39.74824], [-120.617819, 39.748165], [-120.617828, 39.748083], [-120.617853, 39.747932], [-120.617924, 39.747702], [-120.61841, 39.746379], [-120.618496, 39.746094], [-120.618519, 39.745963], [-120.618519, 39.745916], [-120.618521, 39.745818], [-120.61851, 39.745677], [-120.618496, 39.745609], [-120.618458, 39.745476], [-120.618413, 39.745376], [-120.618337, 39.745243], [-120.618199, 39.745066], [-120.618098, 39.74498], [-120.617953, 39.744857], [-120.61788, 39.74481], [-120.617775, 39.74475], [-120.617733, 39.744727], [-120.617656, 39.744693], [-120.617573, 39.744657], [-120.617399, 39.744597], [-120.617233, 39.744556], [-120.617052, 39.744526], [-120.616868, 39.74451], [-120.616585, 39.744514], [-120.616492, 39.744523], [-120.616313, 39.744548], [-120.615996, 39.744646], [-120.615908, 39.744682], [-120.615833, 39.744718], [-120.615682, 39.7448], [-120.615551, 39.744891], [-120.615491, 39.744941], [-120.615373, 39.745051], [-120.615271, 39.745169], [-120.615227, 39.745231], [-120.615149, 39.745358], [-120.615088, 39.745491], [-120.614972, 39.745814], [-120.614779, 39.746358], [-120.614663, 39.746652], [-120.614584, 39.7468], [-120.61449, 39.746936], [-120.614377, 39.747064], [-120.614248, 39.747184], [-120.614107, 39.747294], [-120.613944, 39.747392], [-120.613775, 39.747477], [-120.61364, 39.747528], [-120.613598, 39.747545], [-120.613509, 39.747574], [-120.613311, 39.747625], [-120.613107, 39.747664], [-120.611907, 39.747794], [-120.607183, 39.748288], [-120.606585, 39.74836], [-120.606384, 39.7484], [-120.606191, 39.748448], [-120.606002, 39.748506], [-120.605819, 39.748576], [-120.605642, 39.748656], [-120.605468, 39.748744], [-120.605302, 39.748839], [-120.605154, 39.748944], [-120.605003, 39.74906], [-120.604877, 39.749176], [-120.604691, 39.749363], [-120.604085, 39.749988], [-120.603605, 39.750492], [-120.602341, 39.751802], [-120.601494, 39.752682], [-120.601096, 39.753098], [-120.600868, 39.75333], [-120.600816, 39.753389], [-120.60065, 39.753552], [-120.600522, 39.753661], [-120.600397, 39.753758], [-120.60023, 39.753869], [-120.600007, 39.753997], [-120.599769, 39.754104], [-120.599408, 39.754252], [-120.599066, 39.754359]]}}, {"type": "Feature", "properties": {"name": null, "mtfcc": "S1400"}, "geometry": {"type": "LineString", "coordinates": [[-120.605992, 39.72097], [-120.606072, 39.720659], [-120.60623, 39.72005], [-120.606438, 39.719822], [-120.60646, 39.71982], [-120.60678, 39.719799], [-120.606807, 39.719816], [-120.607415, 39.720485], [-120.607949, 39.720713], [-120.608127, 39.721491], [-120.608305, 39.721628], [-120.608371, 39.721618], [-120.60863, 39.721582], [-120.609046, 39.721376], [-120.610201, 39.720507], [-120.610852, 39.720323], [-120.611831, 39.720325], [-120.613252, 39.720484], [-120.613668, 39.720768], [-120.614082, 39.721055], [-120.614467, 39.721078], [-120.615001, 39.720963], [-120.615624, 39.72098], [-120.615831, 39.720986], [-120.616549, 39.721168], [-120.618157, 39.721575]]}}, {"type": "Feature", "properties": {"name": null, "mtfcc": "S1400"}, "geometry": {"type": "LineString", "coordinates": [[-120.614972, 39.745814], [-120.615151, 39.745837]]}}, {"type": "Feature", "properties": {"name": "Gold Lake Rd", "mtfcc": "S1400"}, "geometry": {"type": "LineString", "coordinates": [[-120.616065, 39.751132], [-120.616118, 39.751157], [-120.61628, 39.751235], [-120.616334, 39.751261], [-120.61656, 39.751544], [-120.616999, 39.751891], [-120.617455, 39.752349], [-120.617592, 39.752419], [-120.617869, 39.752437], [-120.618449, 39.752315], [-120.619793, 39.751793], [-120.620025, 39.751604], [-120.620084, 39.751367], [-120.619704, 39.750526], [-120.619294, 39.750179], [-120.618989, 39.750023], [-120.618649, 39.74987], [-120.618479, 39.749546], [-120.618428, 39.749231], [-120.618565, 39.749103], [-120.618511, 39.748806], [-120.61843, 39.74859], [-120.618487, 39.748485], [-120.618658, 39.748457], [-120.618861, 39.748485], [-120.619255, 39.748668], [-120.619531, 39.748676], [-120.61999, 39.748648], [-120.620395, 39.74841], [-120.620765, 39.748022], [-120.620895, 39.747892], [-120.622295, 39.746984], [-120.622587, 39.746676], [-120.622738, 39.746029], [-120.62289, 39.745401], [-120.623072, 39.745193], [-120.623399, 39.74493], [-120.624487, 39.744256], [-120.624951, 39.743594], [-120.625308, 39.743078], [-120.625411, 39.742732], [-120.6256, 39.742306], [-120.625949, 39.741908], [-120.625982, 39.741608], [-120.625852, 39.741519], [-120.625665, 39.74151], [-120.625234, 39.741616], [-120.624836, 39.741672], [-120.624633, 39.741567], [-120.624536, 39.741251], [-120.624512, 39.740674], [-120.624731, 39.740455], [-120.624942, 39.740349], [-120.625234, 39.740398], [-120.625389, 39.74052], [-120.625658, 39.740683], [-120.625917, 39.74069], [-120.626404, 39.740487], [-120.627395, 39.740178], [-120.628134, 39.73978], [-120.628469, 39.739294], [-120.628873, 39.739017], [-120.628971, 39.738643], [-120.629036, 39.738448], [-120.62932, 39.738335], [-120.62962, 39.738432], [-120.629949, 39.738625], [-120.630278, 39.738513], [-120.630876, 39.737968], [-120.631107, 39.737791], [-120.631326, 39.737782], [-120.631756, 39.737904], [-120.632739, 39.738416], [-120.633178, 39.738725], [-120.633582, 39.738587]]}}, {"type": "Feature", "properties": {"name": "Summerhouse Mohawk Chapman Rd", "mtfcc": "S1400"}, "geometry": {"type": "LineString", "coordinates": [[-120.618199, 39.745066], [-120.618249, 39.744947], [-120.618334, 39.744751], [-120.618354, 39.744623], [-120.618355, 39.744578], [-120.618359, 39.744498], [-120.618355, 39.744449]]}}, {"type": "Feature", "properties": {"name": null, "mtfcc": "S1400"}, "geometry": {"type": "LineString", "coordinates": [[-120.618157, 39.721575], [-120.619173, 39.722228], [-120.619625, 39.722489], [-120.619978, 39.722732], [-120.620292, 39.722984], [-120.620558, 39.723255], [-120.620691, 39.72347], [-120.620777, 39.723669], [-120.62082, 39.723879], [-120.620882, 39.724022], [-120.621419, 39.724517], [-120.621557, 39.724678], [-120.621612, 39.724817], [-120.621629, 39.724859], [-120.621643, 39.725026], [-120.6216, 39.725216], [-120.621331, 39.725756], [-120.621224, 39.725935], [-120.621186, 39.725999], [-120.621061, 39.726184], [-120.621011, 39.72624], [-120.620949, 39.726292], [-120.620869, 39.726333], [-120.620779, 39.72636], [-120.620686, 39.726372], [-120.620589, 39.726376], [-120.620303, 39.726368], [-120.619811, 39.726329], [-120.619787, 39.726326], [-120.619549, 39.726301], [-120.619289, 39.726265], [-120.619167, 39.726255], [-120.618733, 39.726206], [-120.618509, 39.726191], [-120.618411, 39.726193], [-120.618329, 39.726202], [-120.618152, 39.726238], [-120.618002, 39.72629], [-120.617598, 39.726455], [-120.617222, 39.726603], [-120.617072, 39.72667], [-120.616931, 39.726754], [-120.616829, 39.726828], [-120.616739, 39.726902], [-120.616521, 39.727114], [-120.616471, 39.72717], [-120.616387, 39.727285], [-120.61622, 39.727534], [-120.616138, 39.727695], [-120.616093, 39.72781], [-120.616055, 39.727948], [-120.616045, 39.728014], [-120.616036, 39.728155], [-120.616009, 39.728353], [-120.615993, 39.728414], [-120.615934, 39.728662], [-120.615887, 39.728795], [-120.615829, 39.728932], [-120.615767, 39.729057], [-120.61558, 39.729339], [-120.615489, 39.729454], [-120.615447, 39.729499], [-120.615384, 39.729568], [-120.615204, 39.729733]]}}, {"type": "Feature", "properties": {"name": null, "mtfcc": "S1400"}, "geometry": {"type": "LineString", "coordinates": [[-120.604751, 39.723689], [-120.605122, 39.723197], [-120.605166, 39.72314], [-120.605491, 39.722545], [-120.60558, 39.722522], [-120.605876, 39.72179], [-120.605889, 39.721574], [-120.605905, 39.72131], [-120.605992, 39.72097]]}}, {"type": "Feature", "properties": {"name": null, "mtfcc": "S1400"}, "geometry": {"type": "LineString", "coordinates": [[-120.604751, 39.723689], [-120.604723, 39.723774], [-120.604642, 39.724028], [-120.604615, 39.724114]]}}, {"type": "Feature", "properties": {"name": "Yonkalla Trl", "mtfcc": "S1400"}, "geometry": {"type": "LineString", "coordinates": [[-120.616485, 39.748679], [-120.616473, 39.748769], [-120.616473, 39.749077], [-120.616473, 39.749095], [-120.616481, 39.749617], [-120.616469, 39.749825], [-120.616405, 39.750105], [-120.616357, 39.750259], [-120.616355, 39.750268], [-120.616241, 39.750641], [-120.61621, 39.75074], [-120.616156, 39.750919], [-120.616106, 39.751035], [-120.616065, 39.751132], [-120.615831, 39.751402], [-120.615731, 39.753159], [-120.615707, 39.753401], [-120.615669, 39.753802], [-120.615654, 39.753939], [-120.615641, 39.75413], [-120.615625, 39.754374], [-120.615602, 39.754518], [-120.615575, 39.754786], [-120.615501, 39.75556], [-120.615482, 39.755701], [-120.615452, 39.756027], [-120.615441, 39.756147], [-120.615424, 39.756442], [-120.615392, 39.756644], [-120.61536, 39.756943], [-120.615199, 39.758453], [-120.615192, 39.758522], [-120.61516, 39.758959], [-120.615135, 39.759304], [-120.615132, 39.759321], [-120.615007, 39.760406], [-120.615, 39.760475], [-120.614963, 39.760767], [-120.614952, 39.760948], [-120.61495, 39.760985], [-120.614914, 39.761422], [-120.614904, 39.76149], [-120.614879, 39.76167], [-120.614843, 39.761862], [-120.614797, 39.762421], [-120.614752, 39.762776], [-120.614736, 39.762859], [-120.614654, 39.762989], [-120.614538, 39.763098]]}}, {"type": "Feature", "properties": {"name": "Yana Trl", "mtfcc": "S1400"}, "geometry": {"type": "LineString", "coordinates": [[-120.616241, 39.750641], [-120.616077, 39.750601], [-120.616047, 39.750594], [-120.615871, 39.750562], [-120.615795, 39.750542], [-120.6157, 39.750528], [-120.61561, 39.750508], [-120.615584, 39.750505], [-120.615417, 39.750492]]}}, {"type": "Feature", "properties": {"name": null, "mtfcc": "S1400"}, "geometry": {"type": "LineString", "coordinates": [[-120.644722, 39.748916], [-120.643909, 39.749898], [-120.643215, 39.750666], [-120.642829, 39.751832], [-120.642703, 39.75321], [-120.64262, 39.75412], [-120.642026, 39.75476], [-120.639595, 39.756772], [-120.638735, 39.757069], [-120.637816, 39.757732], [-120.636897, 39.758235], [-120.635563, 39.758623], [-120.634377, 39.759126], [-120.633606, 39.759652], [-120.633221, 39.759789], [-120.631443, 39.759353], [-120.630909, 39.759422], [-120.630596, 39.759573], [-120.630109, 39.75981], [-120.629694, 39.760176], [-120.629231, 39.760549], [-120.62807, 39.760679], [-120.626907, 39.761181], [-120.626493, 39.761135], [-120.626244, 39.760774]]}}]}